0292012450999992008010106004+62600+009667FM-12+060699999V0203201N001012200019N0300001N1-00761-01281103661ADDAA112000091AA224000091AJ100549199999999AY101061AY201061GA1001+999999999GF100991001001999999001001IA1239KA1120N-00951MA1999999095981MD1310111+9999MW1021REMSYN094AAXX  01061 01245 11980 03201 11076 21128 39598 40366 53011 60002 70200 333 21095 47054 70000;EQDQ01  00002PRCP24Q02  00002PRCP12
0161012450999992008010109004+62600+009667FM-12+060699999V0202701N001012200019N0300001N1-00701-01241103741ADDAY101031AY201031GF101991011051017501001001MA1999999096071MD1310101+9999MW1031REMSYN072AAXX  01091 01245 41780 12701 11070 21124 39607 40374 53010 70300 81500;
0167012450999992008010112004+62600+009667FM-12+060699999V0203601N001012200019N0300001N1-00501-01081103691ADDAY101061AY201061GF101991011021017501001001MA1999999096081MD1010001+9999MW1021REMSYN078AAXX  01121 01245 11780 13601 11050 21108 39608 40369 50000 6//// 70200 81200;
0220012450999992008010118004+62600+009667FM-12+060699999V0200501N001010120019N0300001N1-00361-01031103681ADDAA112000091AY121061AY201061GF106991061011012501001001KA1999M-00331MA1999999096121MD1310091+9999MW1031REMSYN088AAXX  01181 01245 11680 60501 11036 21103 39612 40368 53009 60002 70320 86100 333 11033;EQDQ01  00002PRCP12
0282012450999992008010206004+62600+009667FM-12+060699999V0203301N003012200019N0300001N1-00181-00781103601ADDAA112000091AA224000091AJ100509199999999AY121061AY201061GF104991041011012501001001IA1239KA1120N-00501MA1999999096081MD1710061+9999MW1011REMSYN100AAXX  02061 01245 11680 43303 11018 21078 39608 40360 57006 60002 70120 84100 333 21050 47050 70000;EQDQ01  00002PRCP24Q02  00002PRCP12
0161012450999992008010209004+62600+009667FM-12+060699999V0203201N003012200019N0200001N1-00071-00691103691ADDAY101031AY201031GF104991041011008001001001MA1999999096211MD1210131+9999MW1031REMSYN072AAXX  02091 01245 41570 43203 11007 21069 39621 40369 52013 70300 84100;
0167012450999992008010212004+62600+009667FM-12+060699999V0203601N003012200019N0300001N1-00091-00771103811ADDAY101061AY201061GF103991031081008001001001MA1999999096311MD1010071+9999MW1011REMSYN078AAXX  02121 01245 11580 33603 11009 21077 39631 40381 50007 6//// 70100 83800;
0220012450999992008010218004+62600+009667FM-12+060699999V0200501N001012200019N0200001N1-00191-00871103871ADDAA112000091AY111061AY201061GF103991031011012501001001KA1999M+00061MA1999999096331MD1810031+9999MW1011REMSYN088AAXX  02181 01245 11670 30501 11019 21087 39633 40387 58003 60002 70110 83100 333 10006;EQDQ01  00002PRCP12
0282012450999992008010306004+62600+009667FM-12+060699999V0202301N001012200019N0300001N1-00571-01231103771ADDAA112000091AA224000091AJ100499199999999AY101061AY201061GF101991011011012501001001IA1239KA1120N-00601MA1999999096151MD1510041+9999MW1011REMSYN100AAXX  03061 01245 11680 12301 11057 21123 39615 40377 55004 60002 70100 81100 333 21060 47049 70000;EQDQ01  00002PRCP24Q02  00002PRCP12
0161012450999992008010309004+62600+009667FM-12+060699999V0200301N007010300019N0200001N1-00551-01271103731ADDAY121031AY201031GF106991031011004501011001MA1999999096111MD1810041+9999MW1031REMSYN072AAXX  03091 01245 41470 60307 11055 21127 39611 40373 58004 70320 83110;
0167012450999992008010312004+62600+009667FM-12+060699999V0201201N010012200019N0200001N1-00501-01271103491ADDAY131061AY211061GF104991041011008001001001MA1999999095911MD1810181+9999MW1361REMSYN078AAXX  03121 01245 11570 41210 11050 21127 39591 40349 58018 6//// 73631 84100;
0220012450999992008010318004+62600+009667FM-12+060699999V0202301N007012200019N0200001N1-00621-01281103411ADDAA112000091AY181061AY231061GF103991031011012501001001KA1999M-00321MA1999999095801MD1510001+9999MW1011REMSYN088AAXX  03181 01245 11670 32307 11062 21128 39580 40341 55000 69902 70183 83100 333 11032;EQDQ01  00002PRCP12
0282012450999992008010406004+62600+009667FM-12+060699999V0201201N010012200019N0200001N1-00531-01191103261ADDAA112000091AA224000091AJ100419199999999AY101061AY201061GF104991041011008001001001IA1239KA1120N-00691MA1999999095671MD1610181+9999MW1031REMSYN100AAXX  04061 01245 11570 41210 11053 21119 39567 40326 56018 60002 70300 84100 333 21069 47041 70000;EQDQ01  00002PRCP24Q02  00002PRCP12
0161012450999992008010409004+62600+009667FM-12+060699999V0201201N012010300019N0200001N1-00501-01381103031ADDAY131031AY211031GF106991041011004501061001MA1999999095471MD1810201+9999MW1361REMSYN072AAXX  04091 01245 41470 61212 11050 21138 39547 40303 58020 73631 84160;
0167012450999992008010412004+62600+009667FM-12+060699999V0201901N010010300019N0200001N1-00491-01231102941ADDAY131061AY211061GF106991041011002501061001MA1999999095401MD1810081+9999MW1021REMSYN078AAXX  04121 01245 11370 61910 11049 21123 39540 40294 58008 6//// 70231 84160;
0220012450999992008010418004+62600+009667FM-12+060699999V0202301N015010042019N0200001N1-00511-01251102251ADDAA112000091AY181061AY231061GF107991071011004501999999KA1999M-00271MA1999999094751MD1810421+9999MW1361REMSYN088AAXX  04181 01245 11470 72315 11051 21125 39475 40225 58042 69902 73683 871// 333 11027;EQDQ01  00002PRCP12
0282012450999992008010506004+62600+009667FM-12+060699999V0200901N010010075019N0200001N1-00651-01211101641ADDAA112000091AA224000091AJ100349199999999AY131061AY221061GF105991051011008001001001IA1239KA1120N-00801MA1999999094151MD1810321+9999MW1011REMSYN100AAXX  05061 01245 11570 50910 11065 21121 39415 40164 58032 60002 70132 85100 333 21080 47034 70000;EQDQ01  00002PRCP24Q02  00002PRCP12
0161012450999992008010509004+62600+009667FM-12+060699999V0203601N012010021019N0200001N1-00521-01121101371ADDAY131031AY221031GF107991061011002501041001MA1999999093931MD1610231+9999MW1031REMSYN072AAXX  05091 01245 41370 73612 11052 21112 39393 40137 56023 70332 86140;
0167012450999992008010512004+62600+009667FM-12+060699999V0201201N012010021019N0200001N1-00521-01091101031ADDAY181061AY231061GF107991061011002501041999MA1999999093621MD1810311+9999MW1851REMSYN078AAXX  05121 01245 11370 71212 11052 21109 39362 40103 58031 6//// 78583 8614/;
0201012450999992008010518004+62600+009667FM-12+060699999V0201201N015010042019N0200001N1-00351-01041100531ADDAA112000021AY181061AY231061GF105991051011004501001001KA1999M-00251MA1999999093201MD1510151+9999MW1361REMSYN088AAXX  05181 01245 11470 51215 11035 21104 39320 40053 55015 69902 73683 85100 333 11025;
0266012450999992008010606004+62600+009667FM-12+060699999V0202201N003012200019N0200001N1-00301-01031100281ADDAA112000091AA224000021AJ100559199999999AY131061AY221061GF104991041011004501001001IA1239KA1120N-00401MA1999999092971MD1510041+9999MW1011REMSYN100AAXX  06061 01245 11470 42203 11030 21103 39297 40028 55004 60002 70132 84100 333 21040 47055 70000;EQDQ01  00002PRCP12
0161012450999992008010609004+62600+009667FM-12+060699999V0202201N007010075019N0200001N1-00321-01011100191ADDAY121031AY211031GF108991071011008001011999MA1999999092881MD1510111+9999MW1031REMSYN072AAXX  06091 01245 41570 82207 11032 21101 39288 40019 55011 70321 8711/;
0167012450999992008010612004+62600+009667FM-12+060699999V0203201N005012200019N0300001N1-00281-01041100221ADDAY121061AY201061GF104991011011012501011081MA1999999092921MD1210041+9999MW1011REMSYN078AAXX  06121 01245 11680 43205 11028 21104 39292 40022 52004 6//// 70120 81118;
0230012450999992008010618004+62600+009667FM-12+060699999V0202701N001012200019N0300001N1-00291-01001100191ADDAA112000091AY101061AY201061GA1001+999999999GF100991001001999999001001KA1999M-00161MA1999999092901MD1310021+9999MW1011REMSYN082AAXX  06181 01245 11980 02701 11029 21100 39290 40019 53002 60002 70100 333 11016;EQDQ01  00002PRCP12
0292012450999992008010706004+62600+009667FM-12+060699999V0203601N003012200019N0300001N1-00251-00921100331ADDAA112000091AA224000091AJ100349199999999AY101061AY201061GA1001+999999999GF100991001001999999001001IA1239KA1120N-00281MA1999999093031MD1210031+9999MW1021REMSYN094AAXX  07061 01245 11980 03603 11025 21092 39303 40033 52003 60002 70200 333 21028 47034 70000;EQDQ01  00002PRCP24Q02  00002PRCP12
0161012450999992008010709004+62600+009667FM-12+060699999V0203301N003012200019N0300001N1-00211-00891100331ADDAY101031AY201031GF104991011011012501031001MA1999999093051MD1210021+9999MW1031REMSYN072AAXX  07091 01245 41680 43303 11021 21089 39305 40033 52002 70300 81130;
0167012450999992008010712004+62600+009667FM-12+060699999V0200301N005012200019N0300001N1-00031-00691100221ADDAY101061AY201061GF104991011011012501031011MA1999999093001MD1810051+9999MW1021REMSYN078AAXX  07121 01245 11680 40305 11003 21069 39300 40022 58005 6//// 70200 81131;
0220012450999992008010718004+62600+009667FM-12+060699999V0203201N003012200019N0300001N1+00061-00691100221ADDAA112000091AY101061AY201061GF103991031011012501001001KA1999M+00101MA1999999093021MD1510031+9999MW1011REMSYN088AAXX  07181 01245 11680 33203 10006 21069 39302 40022 55003 60002 70100 83100 333 10010;EQDQ01  00002PRCP12
0282012450999992008010806004+62600+009667FM-12+060699999V0202301N001012200019N0300001N1+00001-00511100141ADDAA112000091AA224000091AJ100349199999999AY101061AY201061GF104991041011012501001001IA1239KA1120N-00121MA1999999092921MD1710021+9999MW1021REMSYN100AAXX  08061 01245 11680 42301 10000 21051 39292 40014 57002 60002 70200 84100 333 21012 47034 70000;EQDQ01  00002PRCP24Q02  00002PRCP12
0161012450999992008010809004+62600+009667FM-12+060699999V0203201N001010300019N0300001N1-00081-00631100141ADDAY121031AY201031GF107991041011008001041001MA1999999092911MD1510021+9999MW1031REMSYN072AAXX  08091 01245 41580 73201 11008 21063 39291 40014 55002 70320 84140;
0167012450999992008010812004+62600+009667FM-12+060699999V0202301N003010300019N0300001N1-00051-00841100161ADDAY121061AY201061GF106991041081008001031001MA1999999092931MD1010031+9999MW1011REMSYN078AAXX  08121 01245 11580 62303 11005 21084 39293 40016 50003 6//// 70120 84830;
0230012450999992008010818004+62600+009667FM-12+060699999V0202301N003012200019N0300001N1-00131-00791100291ADDAA112000091AY121061AY201061GA1001+999999999GF100991001001999999001001KA1999M+00101MA1999999093031MD1210091+9999MW1011REMSYN082AAXX  08181 01245 11980 02303 11013 21079 39303 40029 52009 60002 70120 333 10010;EQDQ01  00002PRCP12
0282012450999992008010906004+62600+009667FM-12+060699999V0203601N003012200019N0300001N1-00341-00911100161ADDAA112000091AA224000091AJ100329199999999AY101061AY201061GF102991021011012501001001IA1239KA1120N-00451MA1999999092861MD1810241+9999MW1031REMSYN100AAXX  09061 01245 11680 23603 11034 21091 39286 40016 58024 60002 70300 82100 333 21045 47032 70000;EQDQ01  00002PRCP24Q02  00002PRCP12
0161012450999992008010909004+62600+009667FM-12+060699999V0203201N005019999999N0300001N1-00211-00791099831ADDAY121031AY201031GF107991071001008001071999MA1999999092581MD1610291+9999MW1031REMSYN072AAXX  09091 01245 41580 73205 11021 21079 39258 49983 56029 70320 8707/;
0167012450999992008010912004+62600+009667FM-12+060699999V0202301N003019999999N0200001N1-00051-00601099401ADDAY171061AY211061GF107991071001008001071999MA1999999092221MD1810371+9999MW1151REMSYN078AAXX  09121 01245 11570 72303 11005 21060 39222 49940 58037 6//// 71571 8707/;
0220012450999992008010918004+62600+009667FM-12+060699999V0202401N005012200019N0200001N1+00041-00751099021ADDAA112000091AY171061AY211061GF104991041011012501001001KA1999M+00191MA1999999091901MD1510141+9999MW1011REMSYN088AAXX  09181 01245 11670 42405 10004 21075 39190 49902 55014 69902 70171 84100 333 10019;EQDQ01  00002PRCP12
0282012450999992008011006004+62600+009667FM-12+060699999V0202301N010010120019N0200001N1+00221-00591098481ADDAA112000091AA224000091AJ100329199999999AY121061AY201061GF105991051011012501001001IA1239KA1120N+00051MA1999999091431MD1510091+9999MW1031REMSYN100AAXX  10061 01245 11670 52310 10022 21059 39143 49848 55009 60002 70320 85100 333 20005 47032 70000;EQDQ01  00002PRCP24Q02  00002PRCP12
0161012450999992008011009004+62600+009667FM-12+060699999V0202101N010010150019N0300001N1+00261-00571098491ADDAY121031AY221031GF107991071081012501999999MA1999999091461MD1010031+9999MW1031REMSYN072AAXX  10091 01245 41680 72110 10026 21057 39146 49849 50003 70322 878//;
0167012450999992008011012004+62600+009667FM-12+060699999V0203001N003012200019N0300001N1+00261-00501098581ADDAY121061AY221061GF105991041081012501001011MA1999999091551MD1010091+9999MW1011REMSYN078AAXX  10121 01245 11680 53003 10026 21050 39155 49858 50009 6//// 70122 84801;
0220012450999992008011018004+62600+009667FM-12+060699999V0202301N003012200019N0200001N1+00181-00701098771ADDAA112000091AY121061AY201061GF102991021011012501001001KA1999M+00371MA1999999091701MD1310081+9999MW1011REMSYN088AAXX  10181 01245 11670 22303 10018 21070 39170 49877 53008 60002 70120 82100 333 10037;EQDQ01  00002PRCP12
0247012450999992008011106004+62600+009667FM-12+060699999V0209999C000010075019N0200001N1-00171-00661098161ADDAA112000021AA224000021AJ100329199999999AY171061AY211061GF107991071051008001999999IA1239KA1120N-00201MA1999999091051MD1510101+9999MW1701REMSYN100AAXX  11061 01245 11570 70000 11017 21066 39105 49816 55010 69902 77071 875// 333 21020 47032 70000;
0161012450999992008011109004+62600+009667FM-12+060699999V0209999C000010120019N0300001N1-00141-00531098491ADDAY171031AY221031GF108991071051012501021999MA1999999091361MD1310311+9999MW1031REMSYN072AAXX  11091 01245 41680 80000 11014 21053 39136 49849 53031 70372 8752/;
0167012450999992008011112004+62600+009667FM-12+060699999V0203201N001012200019N0300001N1-00081-00631098721ADDAY171061AY221061GF105991041051012501001011MA1999999091581MD1310321+9999MW1011REMSYN078AAXX  11121 01245 11680 53201 11008 21063 39158 49872 53032 6//// 70172 84501;
0201012450999992008011118004+62600+009667FM-12+060699999V0202301N003012200019N0300001N1+00121-00751098921ADDAA112000021AY121061AY201061GF101991011011012501001001KA1999M+00191MA1999999091821MD1310101+9999MW1011REMSYN088AAXX  11181 01245 11680 12303 10012 21075 39182 49892 53010 69902 70120 81100 333 10019;
0276012450999992008011206004+62600+009667FM-12+060699999V0209999C000012200019N0300001N1-00151-00791099491ADDAA112000091AA224000021AJ100329199999999AY101061AY201061GA1001+999999999GF100991001001999999001001IA1239KA1120N-00201MA1999999092281MD1210051+9999MW1021REMSYN094AAXX  12061 01245 11980 00000 11015 21079 39228 49949 52005 60002 70200 333 21020 47032 70000;EQDQ01  00002PRCP12
0161012450999992008011209004+62600+009667FM-12+060699999V0202701N001012200019N0300001N1-00101-00741099591ADDAY101031AY201031GF103991021051017501051001MA1999999092381MD1110101+9999MW1031REMSYN072AAXX  12091 01245 41780 32701 11010 21074 39238 49959 51010 70300 82550;
0167012450999992008011212004+62600+009667FM-12+060699999V0209999C000012200019N0300001N1-00321-00861099601ADDAY121061AY201061GF105991041051012501001041MA1999999092351MD1810041+9999MW1031REMSYN078AAXX  12121 01245 11680 50000 11032 21086 39235 49960 58004 6//// 70320 84504;
0220012450999992008011218004+62600+009667FM-12+060699999V0209999C000010120019N0300001N1-00691-00991099621ADDAA112000091AY121061AY221061GF105991051051012501001001KA1999M-00021MA1999999092271MD1710011+9999MW1021REMSYN088AAXX  12181 01245 11680 50000 11069 21099 39227 49962 57001 60002 70222 85500 333 11002;EQDQ01  00002PRCP12
0282012450999992008011306004+62600+009667FM-12+060699999V0202801N001010120019N0300001N1-00121-00361099871ADDAA112000091AA224000091AJ100329199999999AY181061AY221061GF105991051021012501001001IA1239KA1120N-00701MA1999999092651MD1310211+9999MW1021REMSYN100AAXX  13061 01245 11680 52801 11012 21036 39265 49987 53021 69912 70282 85200 333 21070 47032 70001;EQDQ01  00002PRCP24Q02  00002PRCP12
0161012450999992008011309004+62600+009667FM-12+060699999V0202701N001010075019N0200001N1-00201-00271100141ADDAY181031AY221031GF105991051031008001031001MA1999999092871MD1310231+9999MW1851REMSYN072AAXX  13091 01245 41570 52701 11020 21027 39287 40014 53023 78582 85330;
0167012450999992008011312004+62600+009667FM-12+060699999V0202701N001012200019N0300001N1-00061-00481100321ADDAY181061AY211061GF104991031011012501001011MA1999999093071MD1110201+9999MW1011REMSYN078AAXX  13121 01245 11680 42701 11006 21048 39307 40032 51020 6//// 70181 83101;
0201012450999992008011318004+62600+009667FM-12+060699999V0209999C000010150019N0300001N1-00181-00841100341ADDAA112000591AY121061AY201061GF107991071001017501011999KA1999M+00081MA1999999093071MD1810081+9999MW1021REMSYN088AAXX  13181 01245 11780 70000 11018 21084 39307 40034 58008 69942 70220 8701/ 333 10008;
0266012450999992008011406004+62600+009667FM-12+060699999V0201801N001012200019N0300001N1+00331-00441099331ADDAA112000091AA224000591AJ100329199999999AY121061AY201061GF103991031011012501001001IA1239KA1120N-00261MA1999999092261MD1810121+9999MW1011REMSYN100AAXX  14061 01245 11680 31801 10033 21044 39226 49933 58012 60002 70120 83100 333 21026 47032 70004;EQDQ01  00002PRCP12
0161012450999992008011409004+62600+009667FM-12+060699999V0203201N005010300019N0300001N1+00441-00331099401ADDAY121031AY201031GF107991031071012501071999MA1999999092351MD1310091+9999MW1031REMSYN072AAXX  14091 01245 41680 73205 10044 21033 39235 49940 53009 70320 8377/;
0167012450999992008011412004+62600+009667FM-12+060699999V0203201N005010300019N0300001N1+00481-00211099391ADDAY121061AY201061GF108991031071012501071999MA1999999092351MD1810021+9999MW1031REMSYN078AAXX  14121 01245 11680 83205 10048 21021 39235 49939 58002 6//// 70320 8377/;
0220012450999992008011418004+62600+009667FM-12+060699999V0200101N007010120019N0300001N1+00271-00741098891ADDAA112000091AY121061AY201061GF106991061071012501999999KA1999M+00561MA1999999091831MD1610191+9999MW1011REMSYN088AAXX  14181 01245 11680 60107 10027 21074 39183 49889 56019 60002 70120 867// 333 10056;EQDQ01  00002PRCP12
0282012450999992008011506004+62600+009667FM-12+060699999V0200201N010010120019N0300001N1+00301-00441098331ADDAA112000091AA224000091AJ100329199999999AY121061AY221061GF107991061021012501999999IA1239KA1120N+00051MA1999999091321MD1610171+9999MW1031REMSYN100AAXX  15061 01245 11680 70210 10030 21044 39132 49833 56017 60002 70322 862// 333 20005 47032 70000;EQDQ01  00002PRCP24Q02  00002PRCP12
0161012450999992008011509004+62600+009667FM-12+060699999V0201401N003010120019N0300001N1+00361-00361098171ADDAY121031AY221031GF106991061081008001001001MA1999999091181MD1510151+9999MW1011REMSYN072AAXX  15091 01245 41580 61403 10036 21036 39118 49817 55015 70122 86800;
0167012450999992008011512004+62600+009667FM-12+060699999V0202701N005010300019N0300001N1+00431-00321098011ADDAY121061AY221061GF105991041081012501041001MA1999999091061MD1510141+9999MW1011REMSYN078AAXX  15121 01245 11680 52705 10043 21032 39106 49801 55014 6//// 70122 84840;
0220012450999992008011518004+62600+009667FM-12+060699999V0202301N001012200019N0300001N1+00341-00471098151ADDAA112000091AY111061AY201061GF104991041011012501001001KA1999M+00441MA1999999091171MD1310091+9999MW1011REMSYN088AAXX  15181 01245 11680 42301 10034 21047 39117 49815 53009 60002 70110 84100 333 10044;EQDQ01  00002PRCP12
0247012450999992008011606004+62600+009667FM-12+060699999V0209999C000010021019N0150001N1-00061-00231098461ADDAA112000021AA224000021AJ100329199999999AY171061AY211061GF106991061061002501001001IA1239KA1120N-00061MA1999999091361MD1010081+9999MW1701REMSYN100AAXX  16061 01245 11365 60000 11006 21023 39136 49846 50008 69912 77071 86600 333 21006 47032 70001;
0161012450999992008011609004+62600+009667FM-12+060699999V0209999C000010012019N0100001N1-00041-00141098521ADDAY171031AY221031GF108991081061001501999999MA1999999091421MD1010061+9999MW1711REMSYN072AAXX  16091 01245 41260 80000 11004 21014 39142 49852 50006 77172 886//;
0167012450999992008011612004+62600+009667FM-12+060699999V0209999C000010012019N0060001N1-00071-00181098521ADDAY171061AY271061GF108991081061001501999999MA1999999091411MD1810011+9999MW1711REMSYN078AAXX  16121 01245 11256 80000 11007 21018 39141 49852 58001 6//// 77177 886//;
0201012450999992008011618004+62600+009667FM-12+060699999V0203501N001010021019N0100001N1-00181-00291098641ADDAA112007191AY171061AY271061GF108991081061002501999999KA1999M+00071MA1999999091481MD1310101+9999MW1021REMSYN088AAXX  16181 01245 11360 83501 11018 21029 39148 49864 53010 60072 70277 886// 333 10007;
0247012450999992008011706004+62600+009667FM-12+060699999V0203201N001010012019N0060001N1-00331-00441099161ADDAA112004191AA224010791AJ100489199999999AY171061AY221061GF107991071061001501999999IA1239KA1120N-00331MA1999999091931MD1310161+9999MW1711REMSYN100AAXX  17061 01245 11256 73201 11033 21044 39193 49916 53016 60042 77172 876// 333 21033 47048 70107;
0161012450999992008011709004+62600+009667FM-12+060699999V0209999C000010021019N0060001N1-00351-00491099371ADDAY171031AY221031GF107991051071002501021999MA1999999092121MD1210191+9999MW1701REMSYN072AAXX  17091 01245 41356 70000 11035 21049 39212 49937 52019 77072 8572/;
0167012450999992008011712004+62600+009667FM-12+060699999V0209999C000010042019N0100001N1-00301-00451099511ADDAY171061AY221061GF107991051071004501021999MA1999999092271MD1210141+9999MW1711REMSYN078AAXX  17121 01245 11460 70000 11030 21045 39227 49951 52014 6//// 77172 8572/;
0201012450999992008011718004+62600+009667FM-12+060699999V0209999C000010300019N0200001N1-00581-00811099851ADDAA112001091AY171061AY211061GF106991041061002501061001KA1999M-00151MA1999999092511MD1210111+9999MW1011REMSYN088AAXX  17181 01245 11370 60000 11058 21081 39251 49985 52011 60012 70171 84660 333 11015;
0276012450999992008011806004+62600+009667FM-12+060699999V0203301N001012200019N0300001N1-00561-01111100141ADDAA112000091AA224001391AJ100529199999999AY141061AY211061GA1001+999999999GF100991001001999999001001IA1239KA1120N-00931MA1999999092781MD1810041+9999MW1011REMSYN094AAXX  18061 01245 11980 03301 11056 21111 39278 40014 58004 60002 70141 333 21093 47052 70013;EQDQ01  00002PRCP12
0161012450999992008011809004+62600+009667FM-12+060699999V0202301N001012200019N0300001N1-00821-01431100271ADDAY101031AY201031GF103991011001022501031051MA1999999092831MD1010041+9999MW1031REMSYN072AAXX  18091 01245 41880 32301 11082 21143 39283 40027 50004 70300 81035;
0167012450999992008011812004+62600+009667FM-12+060699999V0202101N001010120019N0300001N1-00131-00811100011ADDAY121061AY201061GF105991051041012501001001MA1999999092771MD1810051+9999MW1031REMSYN078AAXX  18121 01245 11680 52101 11013 21081 39277 40001 58005 6//// 70320 85400;
0220012450999992008011818004+62600+009667FM-12+060699999V0201401N005010075019N0200001N1+00081-00631099271ADDAA112000091AY131061AY221061GF107991061011008001011999KA1999M+00161MA1999999092131MD1810311+9999MW1031REMSYN088AAXX  18181 01245 11570 71405 10008 21063 39213 49927 58031 60002 70332 8611/ 333 10016;EQDQ01  00002PRCP12
0266012450999992008011906004+62600+009667FM-12+060699999V0203001N001010150019N0300001N1+00181-00451097232ADDAA112000091AA224000391AJ100469199999999AY181061AY221061GF106991061001017501011001IA1239KA1120N-00061MA1999999090271MD1610271+9999MW1021REMSYN100AAXX  19061 01245 11780 63001 10018 21045 39027 49723 56027 69922 70282 86010 333 21006 47046 70002;EQDQ01  00002PRCP12
0161012450999992008011909004+62600+009667FM-12+060699999V0203001N005010021019N0060001N1+00141-00221097551ADDAY171031AY221031GF108991081051002501999999MA1999999090561MD1310301+9999MW1731REMSYN072AAXX  19091 01245 41356 83005 10014 21022 39056 49755 53030 77372 885//;
0167012450999992008011912004+62600+009667FM-12+060699999V0203201N012010021019N0060001N1+00001-00301098111ADDAY181061AY231061GF108991081031002501999999MA1999999091051MD1310501+9999MW1851REMSYN078AAXX  19121 01245 11356 83212 10000 21030 39105 49811 53050 6//// 78583 883//;
0220012450999992008011918004+62600+009667FM-12+060699999V0202701N005010075019N0200001N1-00151-00461099002ADDAA112000591AY181061AY231061GF106991061051008001999999KA1999M+00001MA1999999091821MD1310281+9999MW1011REMSYN088AAXX  19181 01245 11570 62705 11015 21046 39182 49900 53028 69942 70183 865// 333 10000;EQDQ01+099003APOSLP
0247012450999992008012006004+62600+009667FM-12+060699999V0203201N001010075019N0200001N1-00381-00611099901ADDAA112001091AA224001591AJ100499199999999AY181061AY221061GF108991081031008001999999IA1239KA1120N-00501MA1999999092611MD1810041+9999MW1031REMSYN100AAXX  20061 01245 11570 83201 11038 21061 39261 49990 58004 60012 70382 883// 333 21050 47049 70015;
0161012450999992008012009004+62600+009667FM-12+060699999V0203501N001010042019N0200001N1-00301-00591099781ADDAY121031AY221031GF107991071071004501001001MA1999999092521MD1810091+9999MW1011REMSYN072AAXX  20091 01245 41470 73501 11030 21059 39252 49978 58009 70122 87700;
0167012450999992008012012004+62600+009667FM-12+060699999V0209999C000010021019N0060001N1-00121-00681099601ADDAY171061AY221061GF108991081051002501999999MA1999999092401MD1710121+9999MW1711REMSYN078AAXX  20121 01245 11356 80000 11012 21068 39240 49960 57012 6//// 77172 885//;
0201012450999992008012018004+62600+009667FM-12+060699999V0203201N001012200019N0300001N1-00191-00581099221ADDAA112000391AY171061AY211061GF103991031011012501001001KA1999M-00021MA1999999092021MD1610111+9999MW1011REMSYN088AAXX  20181 01245 11680 33201 11019 21058 39202 49922 56011 69932 70171 83100 333 11002;
0266012450999992008012106004+62600+009667FM-12+060699999V0209999C000012200019N0300001N1-00981-01201099611ADDAA112000091AA224000391AJ100489199999999AY101061AY201061GF103991011051012501031001IA1239KA1120N-00981MA1999999092171MD1310101+9999MW1031REMSYN100AAXX  21061 01245 11680 30000 11098 21120 39217 49961 53010 60002 70300 81530 333 21098 47048 70003;EQDQ01  00002PRCP12
0161012450999992008012109004+62600+009667FM-12+060699999V0209999C000010120019N0300001N1-00911-01131099791ADDAY121031AY201031GF107991071051012501999999MA1999999092371MD1310191+9999MW1031REMSYN072AAXX  21091 01245 41680 70000 11091 21113 39237 49979 53019 70320 875//;
0167012450999992008012112004+62600+009667FM-12+060699999V0209999C000010120019N0300001N1-00801-01031100001ADDAY171061AY211061GF106991061051012501001001MA1999999092581MD1210201+9999MW1011REMSYN078AAXX  21121 01245 11680 60000 11080 21103 39258 40000 52020 6//// 70171 86500;
0220012450999992008012118004+62600+009667FM-12+060699999V0209999C000010120019N0300001N1-00751-01001100341ADDAA112000091AY121061AY221061GF105991051051012501001001KA1999M-00481MA1999999092921MD1310201+9999MW1011REMSYN088AAXX  21181 01245 11680 50000 11075 21100 39292 40034 53020 69912 70122 85500 333 11048;EQDQ01  00002PRCP12
0247012450999992008012206004+62600+009667FM-12+060699999V0209999C000010120019N0300001N1-00541-00861101001ADDAA112000021AA224000021AJ100489199999999AY181061AY221061GF105991051011012501001001IA1239KA1120N-00721MA1999999093581MD1310191+9999MW1851REMSYN100AAXX  22061 01245 11680 50000 11054 21086 39358 40100 53019 69902 78582 85100 333 21072 47048 70001;
0161012450999992008012209004+62600+009667FM-12+060699999V0209999C000010021019N0200001N1-00531-00831101261ADDAY181031AY271031GF108991071051002501021999MA1999999093821MD1310241+9999MW1701REMSYN072AAXX  22091 01245 41370 80000 11053 21083 39382 40126 53024 77087 8752/;
0167012450999992008012212004+62600+009667FM-12+060699999V0209999C000010300019N0200001N1-00511-00671101501ADDAY181061AY271061GF105991041051008001021001MA1999999094061MD1210221+9999MW1701REMSYN078AAXX  22121 01245 11570 50000 11051 21067 39406 40150 52022 6//// 77087 84520;
0201012450999992008012218004+62600+009667FM-12+060699999V0209999C000012200019N0300001N1-00681-00981101851ADDAA112000021AY171061AY211061GF102991001001999999001011KA1999M-00411MA1999999094331MD1210081+9999MW1011REMSYN088AAXX  22181 01245 11980 20000 11068 21098 39433 40185 52008 69912 70171 80001 333 11041;
0266012450999992008012306004+62600+009667FM-12+060699999V0201201N001010042019N0100001N1-00261-00681101251ADDAA112000091AA224000391AJ100469199999999AY171061AY211061GF107991071051004501999999IA1239KA1120N-00751MA1999999093881MD1810121+9999MW1011REMSYN100AAXX  23061 01245 11460 71201 11026 21068 39388 40125 58012 69912 70171 875// 333 21075 47046 70002;EQDQ01  00002PRCP12
0161012450999992008012309004+62600+009667FM-12+060699999V0203301N001010300019N0300001N1-00101-00761101021ADDAY121031AY221031GF108991041051012501021999MA1999999093721MD1610211+9999MW1031REMSYN072AAXX  23091 01245 41680 83301 11010 21076 39372 40102 56021 70322 8452/;
0167012450999992008012312004+62600+009667FM-12+060699999V0203301N003010300019N0300001N1-00051-00861100791ADDAY121061AY221061GF108991041051012501021999MA1999999093521MD1810201+9999MW1021REMSYN078AAXX  23121 01245 11680 83303 11005 21086 39352 40079 58020 6//// 70222 8452/;
0220012450999992008012318004+62600+009667FM-12+060699999V0202301N001010150019N0300001N1+00061-00651100351ADDAA112000091AY121061AY221061GF106991061001017501021999KA1999M+00111MA1999999093131MD1810241+9999MW1011REMSYN088AAXX  23181 01245 11780 62301 10006 21065 39313 40035 58024 60002 70122 8602/ 333 10011;EQDQ01  00002PRCP12
0247012450999992008012406004+62600+009667FM-12+060699999V0209999C000010075019N0300001N1-00181-00321099041ADDAA112003092AA224002892AJ100489199999999AY181061AY221061GF105991051011008001001001IA1239KA1120N-00201MA1999999091861MD1810391+9999MW1011REMSYN100AAXX  24061 01245 11580 50000 11018 21032 39186 49904 58039 60032 70182 85100 333 21020 47048 70027;
0161012450999992008012409004+62600+009667FM-12+060699999V0202701N007010120019N0200001N1+00221-00391098601ADDAY181031AY221031GF106991061081008001001001MA1999999091551MD1610321+9999MW1031REMSYN072AAXX  24091 01245 41570 62707 10022 21039 39155 49860 56032 70382 86800;
0167012450999992008012412004+62600+009667FM-12+060699999V0202701N010012200019N0300001N1+00151-00541098851ADDAY181061AY231061GF104991031081012501041001MA1999999091771MD1310231+9999MW1381REMSYN078AAXX  24121 01245 11680 42710 10015 21054 39177 49885 53023 6//// 73883 83840;
0201012450999992008012418004+62600+009667FM-12+060699999V0202401N001010075019N0200001N1-00171-00341099351ADDAA112000021AY181061AY231061GF105991051021008001001001KA1999M+00341MA1999999092151MD1310141+9999MW1851REMSYN088AAXX  24181 01245 11570 52401 11017 21034 39215 49935 53014 69912 78583 85200 333 10034;
0266012450999992008012506004+62600+009667FM-12+060699999V0202101N003010075019N0200001N1-00171-00751098841ADDAA112007191AA224007491AJ100609199999999AY181061AY221061GF106991061011008001001001IA1239KA1120N-00481MA1999999091671MD1810782+9999MW1011REMSYN100AAXX  25061 01245 11570 62103 11017 21075 39167 49884 58078 60072 70182 86100 333 21048 47060 70074;EQDQ01+000782APC3  
0161012450999992008012509004+62600+009667FM-12+060699999V0202301N005012200019N0300001N1-00041-00681098371ADDAY121031AY221031GF105991041001008001021091MA1999999091271MD1810401+9999MW1011REMSYN072AAXX  25091 01245 41580 52305 11004 21068 39127 49837 58040 70122 84029;
0167012450999992008012512004+62600+009667FM-12+060699999V0202301N005010012019N0050001N1-00101-00201098401ADDAY181061AY221061GF107991071031001501999999MA1999999091281MD1510061+9999MW1861REMSYN078AAXX  25121 01245 11250 72305 11010 21020 39128 49840 55006 6//// 78682 873//;
0201012450999992008012518004+62600+009667FM-12+060699999V0202401N005010006019N0050001N1-00081-00181099111ADDAA112005191AY181061AY221061GF107991071031000751999999KA1999M+00121MA1999999091951MD1110471+9999MW1861REMSYN088AAXX  25181 01245 11150 72405 11008 21018 39195 49911 51047 60052 78682 873// 333 10012;
0247012450999992008012606004+62600+009667FM-12+060699999V0202701N001010012019N0060001N1-00321-00431099611ADDAA112009991AA224014291AJ100799199999999AY181061AY281061GF107991071021001501999999IA1239KA1120N-00331MA1999999092361MD1810061+9999MW1851REMSYN100AAXX  26061 01245 11256 72701 11032 21043 39236 49961 58006 60102 78588 872// 333 21033 47079 70141;
0161012450999992008012609004+62600+009667FM-12+060699999V0203201N001010012019N0050001N1-00311-00461099411ADDAY181031AY281031GF108991081021001501999999MA1999999092171MD1610191+9999MW1851REMSYN072AAXX  26091 01245 41250 83201 11031 21046 39217 49941 56019 78588 882//;
0167012450999992008012612004+62600+009667FM-12+060699999V0209999C000010012019N0050001N1-00271-00421099281ADDAY181061AY281061GF108991081021001501999999MA1999999092061MD1510121+9999MW1851REMSYN078AAXX  26121 01245 11250 80000 11027 21042 39206 49928 55012 6//// 78588 882//;
0201012450999992008012618004+62600+009667FM-12+060699999V0202301N001010042019N0100001N1-00301-00531099671ADDAA112013091AY181061AY221061GF107991071021004501999999KA1999M-00041MA1999999092421MD1110251+9999MW1851REMSYN088AAXX  26181 01245 11460 72301 11030 21053 39242 49967 51025 60132 78582 872// 333 11004;
0247012450999992008012706004+62600+009667FM-12+060699999V0209999C000010021019N0600001N1-00491-00651100491ADDAA112011991AA224024191AJ101049199999999AY181061AY281061GF107991071021002501999999IA1239KA1120N-00501MA1999999093121MD1310321+9999MW1851REMSYN100AAXX  27061 01245 11386 70000 11049 21065 39312 40049 53032 60122 78588 872// 333 21050 47104 70241;
0161012450999992008012709004+62600+009667FM-12+060699999V0203201N001010021019N0100001N1-00421-00741100931ADDAY181031AY281031GF107991071021002501001001MA1999999093551MD1210361+9999MW1851REMSYN072AAXX  27091 01245 41360 73201 11042 21074 39355 40093 52036 78588 87200;
0167012450999992008012712004+62600+009667FM-12+060699999V0203001N001010006019N0050001N1-00411-00531101281ADDAY181061AY221061GF108991081031000751999999MA1999999093871MD1310331+9999MW1861REMSYN078AAXX  27121 01245 11150 83001 11041 21053 39387 40128 53033 6//// 78682 883//;
0201012450999992008012718004+62600+009667FM-12+060699999V0203201N001012200019N0200001N1-00341-00661101781ADDAA112004191AY181061AY211061GF104991041011012501001001KA1999M-00241MA1999999094361MD1210241+9999MW1011REMSYN088AAXX  27181 01245 11670 43201 11034 21066 39436 40178 52024 60042 70181 84100 333 11024;
0266012450999992008012806004+62600+009667FM-12+060699999V0203601N001010120019N0200001N1+00031-00161101211ADDAA112000091AA224004391AJ101019199999999AY121061AY201061GF106991061011012501001001IA1239KA1120N-00461MA1999999093921MD1710101+9999MW1031REMSYN100AAXX  28061 01245 11670 63601 10003 21016 39392 40121 57010 60002 70320 86100 333 21046 47101 70042;EQDQ01  00002PRCP12
0161012450999992008012809004+62600+009667FM-12+060699999V0202301N005010120019N0300001N1+00301-00151101131ADDAY121031AY221031GF105991051051012501001001MA1999999093921MD1410001+9999MW1011REMSYN072AAXX  28091 01245 41680 52305 10030 21015 39392 40113 54001 70122 85500;
0167012450999992008012812004+62600+009667FM-12+060699999V0202401N001010750019N0300001N1+00341-00111101061ADDAY161061AY221061GF105991041051012501001091MA1999999093871MD1810051+9999MW1011REMSYN078AAXX  28121 01245 11680 52401 10034 21011 39387 40106 58005 6//// 70162 84509;
0220012450999992008012818004+62600+009667FM-12+060699999V0209999C000010120019N0200001N1+00511-00271100731ADDAA112000091AY121061AY221061GF105991051051012501001001KA1999M+00621MA1999999093601MD1810121+9999MW1021REMSYN088AAXX  28181 01245 11670 50000 10051 21027 39360 40073 58012 69902 70222 85500 333 10062;EQDQ01  00002PRCP12
0282012450999992008012906004+62600+009667FM-12+060699999V0201201N001010150019N0200001N1+00211-00061100121ADDAA112000091AA224000091AJ100859199999999AY121061AY221061GF106991061001017501011001IA1239KA1120N+00051MA1999999092961MD1810191+9999MW1021REMSYN100AAXX  29061 01245 11770 61201 10021 21006 39296 40012 58019 60002 70222 86010 333 20005 47085 70000;EQDQ01  00002PRCP24Q02  00002PRCP12
0161012450999992008012909004+62600+009667FM-12+060699999V0203001N003012200019N0300001N1+00431-00301100031ADDAY121031AY211031GF106991041011012501001041MA1999999092921MD1510031+9999MW1031REMSYN072AAXX  29091 01245 41680 63003 10043 21030 39292 40003 55003 70321 84104;
0167012450999992008012912004+62600+009667FM-12+060699999V0203201N005010021019N0100001N1-00021-00331100881ADDAY181061AY221061GF106991061021002501001001MA1999999093611MD1310671+9999MW1851REMSYN078AAXX  29121 01245 11360 63205 11002 21033 39361 40088 53067 6//// 78582 86200;
0201012450999992008012918004+62600+009667FM-12+060699999V0203201N001010120019N0200001N1-00221-00561101201ADDAA112000391AY181061AY221061GF105991051021012501001001KA1999M+00551MA1999999093861MD1010031+9999MW1011REMSYN088AAXX  29181 01245 11670 53201 11022 21056 39386 40120 50003 69932 70182 85200 333 10055;
0266012450999992008013006004+62600+009667FM-12+060699999V0202301N001012200019N0300001N1-00391-01161100701ADDAA112000091AA224000391AJ100839199999999AY121061AY201061GF103991001001999999001081IA1239KA1120N-00561MA1999999093351MD1710141+9999MW1011REMSYN100AAXX  30061 01245 11980 32301 11039 21116 39335 40070 57014 60002 70120 80008 333 21056 47083 70003;EQDQ01  00002PRCP12
0171012450999992008013009004+62600+009667FM-12+060699999V0202301N001010300019N0300001N1-00321-01141100531ADDAY121031AY201031GF105991031021012501061001MA1999999093211MD1610131+9999MW1031REMSYN082AAXX  30091 01245 41680 52301 11032 21114 39321 40053 56013 70320 83260 333 4////;
0167012450999992008013012004+62600+009667FM-12+060699999V0203201N001012200019N0300001N1-00341-01091100461ADDAY121061AY201061GF104991041041012501001001MA1999999093131MD1710081+9999MW1011REMSYN078AAXX  30121 01245 11680 43201 11034 21109 39313 40046 57008 6//// 70120 84400;
0220012450999992008013018004+62600+009667FM-12+060699999V0203201N001012200019N0300001N1-00481-00911100521ADDAA112000091AY101061AY201061GF101991011011012501001001KA1999M-00071MA1999999093161MD1310081+9999MW1011REMSYN088AAXX  30181 01245 11680 13201 11048 21091 39316 40052 53008 60002 70100 81100 333 11007;EQDQ01  00002PRCP12
0282012450999992008013106004+62600+009667FM-12+060699999V0202401N001010120019N0300001N1-00221-01001099511ADDAA112000091AA224000091AJ100819199999999AY121061AY201061GF106991061051012501001001IA1239KA1120N-00691MA1999999092281MD1810361+9999MW1031REMSYN100AAXX  31061 01245 11680 62401 11022 21100 39228 49951 58036 60002 70320 86500 333 21069 47081 70000;EQDQ01  00002PRCP24Q02  00002PRCP12
0161012450999992008013109004+62600+009667FM-12+060699999V0202401N005010300019N0200001N1-00151-00791099091ADDAY121031AY221031GF107991041051008001021999MA1999999091921MD1810371+9999MW1031REMSYN072AAXX  31091 01245 41570 72405 11015 21079 39192 49909 58037 70322 8452/;
0167012450999992008013112004+62600+009667FM-12+060699999V0200501N005010075019N0200001N1-00041-00641098691ADDAY121061AY221061GF107991051051008001021999MA1999999091571MD1810361+9999MW1021REMSYN078AAXX  31121 01245 11570 70505 11004 21064 39157 49869 58036 6//// 70222 8552/;
0268012450999992008013118004+62600+009667FM-12+060699999V0201401N010010075019N0200001N1+00101-00521097332ADDAA112000091AY171061AY231061GF105991051021008001001001KA1999M+00351MA1999999090352MD1610682+9999MW1011REMSYN088AAXX  31181 01245 11570 51410 10010 21052 39035 49733 56068 69902 70173 85200 333 10035;EQDQ01+090353APOSP Q02+097333APOSLPQ03+000682APC3  Q04  00002PRCP12
0282012450999992008020106004+62600+009667FM-12+060699999V0202701N005012200019N0300001N1-00111-00731096691ADDAA112000091AA224000091AJ100749199999999AY131061AY211061GF104991041011012501001001IA1239KA1120N-00111MA1999999089701MD1510011+9999MW1011REMSYN100AAXX  01061 01245 11680 42705 11011 21073 38970 49669 55001 60002 70131 84100 333 21011 47074 70000;EQDQ01  00002PRCP24Q02  00002PRCP12
0161012450999992008020109004+62600+009667FM-12+060699999V0202301N007010300019N0300001N1-00131-00811096771ADDAY121031AY201031GF106991011011012501011001MA1999999089771MD1310061+9999MW1031REMSYN072AAXX  01091 01245 41680 62307 11013 21081 38977 49677 53006 70320 81110;
0177012450999992008020112004+62600+009667FM-12+060699999V0202301N003010300019N0300001N1-00081-00831096811ADDAY121061AY201061GF107991031011012501011001MA1999999089821MD1310051+9999MW1031REMSYN088AAXX  01121 01245 11680 72303 11008 21083 38982 49681 53005 6//// 70320 83110 333 4////;
0226012450999992008020118004+62600+009667FM-12+060699999V0202301N001012200019N0300001N1-00231-00601097231ADDAA112000091AY181061AY211061GF104991041011012501001001KA1120M+00041MA1999999090171MD1210181+9999MW1011REMSYN094AAXX  01181 01245 11680 42301 11023 21060 39017 49723 52018 69912 70181 84100 333 10004 4////;EQDQ01  00002PRCP12
0224012450999992008020206004+62600+009667FM-12+060699999V0203001N005010042019N0100001N1-00621-00931098481ADDAA112002092AA224001892AY181061AY221061GF106991061021004501001001KA1120N-00621MA1999999091221MD1310281+9999MW1851REMSYN100AAXX  02061 01245 11460 63005 11062 21093 39122 49848 53028 60022 78582 86200 333 21062 4//// 70019;
0171012450999992008020209004+62600+009667FM-12+060699999V0203201N005010042019N0100001N1-00751-01051098861ADDAY181031AY221031GF107991061021004501041999MA1999999091551MD1310301+9999MW1851REMSYN082AAXX  02091 01245 41460 73205 11075 21105 39155 49886 53030 78582 8624/ 333 4////;
0177012450999992008020212004+62600+009667FM-12+060699999V0203201N001012200019N0300001N1-00881-01361099091ADDAY181061AY211061GF103991021011012501001011MA1999999091721MD1210201+9999MW1011REMSYN088AAXX  02121 01245 11680 33201 11088 21136 39172 49909 52020 6//// 70181 82101 333 4////;
0207012450999992008020218004+62600+009667FM-12+060699999V0203201N001012200019N0300001N1-01231-01951099651ADDAA112000021AY101061AY201061GF102991001001999999001051KA1120M-00461MA1999999092151MD1210231+9999MW1031REMSYN094AAXX  02181 01245 11980 23201 11123 21195 39215 49965 52023 69912 70300 80005 333 11046 4////;
0243012450999992008020306004+62600+009667FM-12+060699999V0203201N001012200019N0300001N1-00811-01541099881ADDAA112000091AA224000021AY101061AY201061GF102991021011012501001001KA1120N-01421MA1999999092471MD1110091+9999MW1031REMSYN100AAXX  03061 01245 11680 23201 11081 21154 39247 49988 51009 60002 70300 82100 333 21142 4//// 70001;EQDQ01  00002PRCP12
0171012450999992008020309004+62600+009667FM-12+060699999V0203301N001019999999N0300001N1-00721-01471099901ADDAY121031AY211031GF108991081999012501011999MA1999999092521MD1810031+9999MW1031REMSYN082AAXX  03091 01245 41680 83301 11072 21147 39252 49990 58003 70321 88/1/ 333 4////;
0177012450999992008020312004+62600+009667FM-12+060699999V0202701N003010042019N0100001N1-00571-01211099931ADDAY171061AY211061GF108991081001004501021999MA1999999092581MD1310061+9999MW1701REMSYN088AAXX  03121 01245 11460 82703 11057 21121 39258 49993 53006 6//// 77071 8802/ 333 4////;
0207012450999992008020318004+62600+009667FM-12+060699999V0203601N003010042019N0100001N1-00501-00801099871ADDAA112001091AY171061AY221061GF107991071001004501021999KA1120M-00461MA1999999092551MD1710031+9999MW1711REMSYN094AAXX  03181 01245 11460 73603 11050 21080 39255 49987 57003 69992 77172 8702/ 333 11046 4////;
0224012450999992008020406004+62600+009667FM-12+060699999V0200901N005010150019N0300001N1+00051-00841100071ADDAA112000021AA224001091AY171061AY221061GF107991071001017501011999KA1120N-00591MA1999999092871MD1010031+9999MW1031REMSYN100AAXX  04061 01245 11780 70905 10005 21084 39287 40007 50003 69902 70372 8701/ 333 21059 4//// 70009;
0171012450999992008020409004+62600+009667FM-12+060699999V0201501N005010150019N0300001N1+00111-01031100051ADDAY121031AY221031GF107991071001017501071999MA1999999092871MD1010001+9999MW1021REMSYN082AAXX  04091 01245 41780 71505 10011 21103 39287 40005 50000 70222 8707/ 333 4////;
0177012450999992008020412004+62600+009667FM-12+060699999V0202401N005010150019N0300001N1-00031-00991100151ADDAY121061AY221061GF107991071001017501071999MA1999999092921MD1110081+9999MW1021REMSYN088AAXX  04121 01245 11780 72405 11003 21099 39292 40015 51008 6//// 70222 8707/ 333 4////;
0226012450999992008020418004+62600+009667FM-12+060699999V0201601N007010150019N0300001N1-00081-00761100121ADDAA112000091AY121061AY221061GF107991071001017501071999KA1120M+00301MA1999999092881MD1510041+9999MW1021REMSYN094AAXX  04181 01245 11780 71607 11008 21076 39288 40012 55004 60002 70222 8707/ 333 10030 4////;EQDQ01  00002PRCP12
0282012450999992008020506004+62600+009667FM-12+060699999V0203201N003012200019N0300001N1-00041-00721099971ADDAA112000091AA224000091AJ100739199999999AY131061AY211061GF103991031011012501001001IA1239KA1120N-00141MA1999999092761MD1310071+9999MW1031REMSYN100AAXX  05061 01245 11680 33203 11004 21072 39276 49997 53007 60002 70331 83100 333 21014 47073 70000;EQDQ01  00002PRCP24Q02  00002PRCP12
0171012450999992008020509004+62600+009667FM-12+060699999V0203201N003010750019N0300001N1-00121-00781100071ADDAY121031AY201031GF105991021021012501001091MA1999999092821MD1310081+9999MW1031REMSYN082AAXX  05091 01245 41680 53203 11012 21078 39282 40007 53008 70320 82209 333 4////;
0177012450999992008020512004+62600+009667FM-12+060699999V0202301N003012200019N0300001N1+00111-00761100051ADDAY121061AY211061GF102991021011012501001001MA1999999092871MD1010021+9999MW1011REMSYN088AAXX  05121 01245 11680 22303 10011 21076 39287 40005 50002 6//// 70121 82100 333 4////;
0226012450999992008020518004+62600+009667FM-12+060699999V0202301N003012200019N0300001N1+00041-00621100151ADDAA112000091AY101061AY201061GF103991031011012501001001KA1120M+00161MA1999999092951MD1010031+9999MW1031REMSYN094AAXX  05181 01245 11680 32303 10004 21062 39295 40015 50003 60002 70300 83100 333 10016 4////;EQDQ01  00002PRCP12
0282012450999992008020606004+62600+009667FM-12+060699999V0201401N007010120019N0300001N1+00141-00611099691ADDAA112000091AA224000091AJ100719199999999AY121061AY201061GF105991051011012501001001IA1239KA1120N+00001MA1999999092551MD1810101+9999MW1031REMSYN100AAXX  06061 01245 11680 51407 10014 21061 39255 49969 58010 60002 70320 85100 333 20000 47071 70000;EQDQ01  00002PRCP24Q02  00002PRCP12
0161012450999992008020609004+62600+009667FM-12+060699999V0202301N007010120019N0300001N1+00101-00561099741ADDAY121031AY221031GF106991061011012501001001MA1999999092571MD1310051+9999MW1031REMSYN072AAXX  06091 01245 41680 62307 10010 21056 39257 49974 53005 70322 86100;
0167012450999992008020612004+62600+009667FM-12+060699999V0200301N001010120019N0300001N1+00121-00521099881ADDAY121061AY221061GF107991051041012501021001MA1999999092721MD1110161+9999MW1031REMSYN078AAXX  06121 01245 11680 70301 10012 21052 39272 49988 51016 6//// 70322 85420;
0201012450999992008020618004+62600+009667FM-12+060699999V0203201N001010042019N0150001N1-00031-00171100581ADDAA112001091AY171061AY221061GF107991071051004501999999KA1999M+00291MA1999999093321MD1310381+9999MW1011REMSYN088AAXX  06181 01245 11465 73201 11003 21017 39332 40058 53038 60012 70172 875// 333 10029;
0228012450999992008020706004+62600+009667FM-12+060699999V0203601N001012200019N0300001N1-00411-00711102301ADDAA112002091AA224003391AY171061AY211061GA1001+999999999GF100991001001999999001001KA1120N-00411MA1999999094821MD1310191+9999MW1011REMSYN088AAXX  07061 01245 11980 03601 11041 21071 39482 40230 53019 60022 70171 333 21041 70033;
0171012450999992008020709004+62600+009667FM-12+060699999V0202701N001012200019N0300001N1-00391-01141102341ADDAY101031AY201031GF103991001001999999001051MA1999999094871MD1010051+9999MW1031REMSYN082AAXX  07091 01245 41980 32701 11039 21114 39487 40234 50005 70300 80005 333 4////;
0177012450999992008020712004+62600+009667FM-12+060699999V0203601N003010210019N0300001N1-00041-01191102071ADDAY121061AY201061GF107991071001022501011999MA1999999094711MD1810161+9999MW1031REMSYN088AAXX  07121 01245 11880 73603 11004 21119 39471 40207 58016 6//// 70320 8701/ 333 4////;
0226012450999992008020718004+62600+009667FM-12+060699999V0201501N007012200019N0300001N1+00081-00761101651ADDAA112000091AY131061AY211061GF103991031011012501001001KA1120M+00161MA1999999094351MD1810081+9999MW1011REMSYN094AAXX  07181 01245 11680 31507 10008 21076 39435 40165 58008 60002 70131 83100 333 10016 4////;EQDQ01  00002PRCP12
0282012450999992008020806004+62600+009667FM-12+060699999V0200901N001012200019N0300001N1-00091-00601102481ADDAA112000091AA224000091AJ100709199999999AY101061AY201061GF101991011011012501001001IA1239KA1120N-00481MA1999999095071MD1110111+9999MW1021REMSYN100AAXX  08061 01245 11680 10901 11009 21060 39507 40248 51011 60002 70200 81100 333 21048 47070 70000;EQDQ01  00002PRCP24Q02  00002PRCP12
0171012450999992008020809004+62600+009667FM-12+060699999V0203201N005010300019N0300001N1+00281-00581102281ADDAY121031AY201031GF106991031051012501031091MA1999999094981MD1810081+9999MW1011REMSYN082AAXX  08091 01245 41680 63205 10028 21058 39498 40228 58008 70120 83539 333 4////;
0177012450999992008020812004+62600+009667FM-12+060699999V0203201N005010150019N0300001N1+00391-00431102071ADDAY121061AY201061GF106991061001017501071001MA1999999094821MD1810181+9999MW1011REMSYN088AAXX  08121 01245 11780 63205 10039 21043 39482 40207 58018 6//// 70120 86070 333 4////;
0226012450999992008020818004+62600+009667FM-12+060699999V0202101N007010120019N0300001N1+00471-00191101781ADDAA112000091AY121061AY221061GF105991051041012501001001KA1120M+00581MA1999999094571MD1810121+9999MW1011REMSYN094AAXX  08181 01245 11680 52107 10047 21019 39457 40178 58012 60002 70122 85400 333 10058 4////;EQDQ01  00002PRCP12
0282012450999992008020906004+62600+009667FM-12+060699999V0202601N001010120019N0300001N1+00431-00031102021ADDAA112000091AA224000091AJ100619199999999AY161061AY221061GF105991051031012501001001IA1239KA1120N+00421MA1999999094771MD1310211+9999MW1021REMSYN100AAXX  09061 01245 11680 52601 10043 21003 39477 40202 53021 69912 70262 85300 333 20042 47061 70001;EQDQ01  00002PRCP24Q02  00002PRCP12
0171012450999992008020909004+62600+009667FM-12+060699999V0201801N001012200019N0300001N1+00251-00111102321ADDAY121031AY201031GF103991031011012501001001MA1999999095021MD1310241+9999MW1011REMSYN082AAXX  09091 01245 41680 31801 10025 21011 39502 40232 53024 70120 83100 333 4////;
0226012450999992008020918004+62600+009667FM-12+060699999V0209999C000012200019N0300001N1+00401-00521102481ADDAA112000091AY101061AY201061GF101991001001999999001051KA1120M+00691MA1999999095201MD1410001+9999MW1021REMSYN094AAXX  09181 01245 11980 10000 10040 21052 39520 40248 54001 60002 70200 80005 333 10069 4////;EQDQ01  00002PRCP12
0247012450999992008021006004+62600+009667FM-12+060699999V0203201N001010075019N0200001N1+00031-00241102851ADDAA112000021AA224000021AJ100609199999999AY181061AY221061GF108991081031008001999999IA1239KA1120N-00011MA1999999095451MD1310171+9999MW1801REMSYN100AAXX  10061 01245 11570 83201 10003 21024 39545 40285 53017 69902 78082 883// 333 21001 47060 70000;
0171012450999992008021009004+62600+009667FM-12+060699999V0200901N001010042019N0200001N1+00011-00101103161ADDAY181031AY221031GF107991071031004501001001MA1999999095721MD1110281+9999MW1011REMSYN082AAXX  10091 01245 41470 70901 10001 21010 39572 40316 51028 70182 87300 333 4////;
0177012450999992008021012004+62600+009667FM-12+060699999V0200901N001010042019N0200001N1+00181-00011103311ADDAY121061AY221061GF106991061031004501001001MA1999999095921MD1210191+9999MW1011REMSYN088AAXX  10121 01245 11470 60901 10018 21001 39592 40331 52019 6//// 70122 86300 333 4////;
0207012450999992008021018004+62600+009667FM-12+060699999V0203201N001012200019N0300001N1-00131-00471103701ADDAA112000891AY121061AY201061GF101991011011012501001001KA1120M+00371MA1999999096201MD1210131+9999MW1011REMSYN094AAXX  10181 01245 11680 13201 11013 21047 39620 40370 52013 69982 70120 81100 333 10037 4////;
0266012450999992008021106004+62600+009667FM-12+060699999V0203201N001012200019N0300001N1-00871-01211103881ADDAA112000091AA224000891AJ100609199999999AY101061AY201061GF101991011011012501001001IA1239KA1120N-00941MA1999999096171MD1810071+9999MW1021REMSYN100AAXX  11061 01245 11680 13201 11087 21121 39617 40388 58007 60002 70200 81100 333 21094 47060 70008;EQDQ01  00002PRCP12
0171012450999992008021109004+62600+009667FM-12+060699999V0209999C000012200019N0300001N1-00891-01201103891ADDAY101031AY201031GF103991001001999999001011MA1999999096171MD1410001+9999MW1031REMSYN082AAXX  11091 01245 41980 30000 11089 21120 39617 40389 54000 70300 80001 333 4////;
0177012450999992008021112004+62600+009667FM-12+060699999V0209999C000012200019N0300001N1-00381-00951103711ADDAY101061AY201061GF102991001001999999001011MA1999999096131MD1710031+9999MW1011REMSYN088AAXX  11121 01245 11980 20000 11038 21095 39613 40371 57003 6//// 70100 80001 333 4////;
0226012450999992008021118004+62600+009667FM-12+060699999V0203601N001012200019N0300001N1-00101-01161103461ADDAA112000091AY101061AY201061GF103991031001022501031001KA1120M-00061MA1999999095971MD1710071+9999MW1031REMSYN094AAXX  11181 01245 11880 33601 11010 21116 39597 40346 57007 60002 70300 83030 333 11006 4////;EQDQ01  00002PRCP12
0282012450999992008021206004+62600+009667FM-12+060699999V0203201N001012200019N0300001N1+00141-01071102981ADDAA112000091AA224000091AJ100609199999999AY101061AY201061GF101991011011012501001001IA1239KA1120N-00621MA1999999095601MD1710111+9999MW1011REMSYN100AAXX  12061 01245 11680 13201 10014 21107 39560 40298 57011 60002 70100 81100 333 21062 47060 70000;EQDQ01  00002PRCP24Q02  00002PRCP12
0171012450999992008021209004+62600+009667FM-12+060699999V0203301N001012200019N0300001N1+00481-00761102791ADDAY101031AY201031GF103991031001022501031001MA1999999095511MD1810091+9999MW1031REMSYN082AAXX  12091 01245 41880 33301 10048 21076 39551 40279 58009 70300 83030 333 4////;
0177012450999992008021212004+62600+009667FM-12+060699999V0202701N001010210019N0300001N1+00691-00711102581ADDAY121061AY201061GF106991061001022501071001MA1999999095371MD1710131+9999MW1031REMSYN088AAXX  12121 01245 11880 62701 10069 21071 39537 40258 57013 6//// 70320 86070 333 4////;
0226012450999992008021218004+62600+009667FM-12+060699999V0203201N001010210019N0300001N1-00071-00561102781ADDAA112000091AY121061AY221061GF106991061001022501071001KA1120M+00851MA1999999095361MD1310061+9999MW1021REMSYN094AAXX  12181 01245 11880 63201 11007 21056 39536 40278 53006 60002 70222 86070 333 10085 4////;EQDQ01  00002PRCP12
0247012450999992008021306004+62600+009667FM-12+060699999V0203201N010010120019N0300001N1+00041-00621103171ADDAA112000391AA224000391AJ100609199999999AY171061AY261061GF105991051051012501001001IA1239KA1120N-00101MA1999999095751MD1010051+9999MW1011REMSYN100AAXX  13061 01245 11680 53210 10004 21062 39575 40317 50005 69932 70176 85500 333 21010 47060 70003;
0171012450999992008021309004+62600+009667FM-12+060699999V0202401N010010042019N0100001N1-00081-00301103391ADDAY181031AY221031GF106991061021004501001001MA1999999095921MD1310171+9999MW1851REMSYN082AAXX  13091 01245 41460 62410 11008 21030 39592 40339 53017 78582 86200 333 4////;
0177012450999992008021312004+62600+009667FM-12+060699999V0203001N010010042019N0100001N1-00151-00521103521ADDAY181061AY221061GF107991071021004501999999MA1999999096021MD1110121+9999MW1851REMSYN088AAXX  13121 01245 11460 73010 11015 21052 39602 40352 51012 6//// 78582 872// 333 4////;
0207012450999992008021318004+62600+009667FM-12+060699999V0203001N003010021019N0060001N1-00451-00611103911ADDAA112003091AY181061AY281061GF107991071021002501999999KA1120M+00181MA1999999096311MD1210161+9999MW1851REMSYN094AAXX  13181 01245 11356 73003 11045 21061 39631 40391 52016 60032 78588 872// 333 10018 4////;
0247012450999992008021406004+62600+009667FM-12+060699999V0200901N001010021019N0060001N1-00421-00581104171ADDAA112003091AA224005891AJ100719199999999AY181061AY221061GF107991071021002501999999IA1239KA1120N-00501MA1999999096561MD1410001+9999MW1851REMSYN100AAXX  14061 01245 11356 70901 11042 21058 39656 40417 54001 60032 78582 872// 333 21050 47071 70058;
0171012450999992008021409004+62600+009667FM-12+060699999V0201401N001010021019N0060001N1-00441-00621104211ADDAY181031AY281031GF107991071021002501999999MA1999999096581MD1210031+9999MW1851REMSYN082AAXX  14091 01245 41356 71401 11044 21062 39658 40421 52003 78588 872// 333 4////;
0177012450999992008021412004+62600+009667FM-12+060699999V0203001N001010042019N0100001N1-00401-00601104161ADDAY181061AY281061GF106991061021004501001001MA1999999096551MD1810041+9999MW1851REMSYN088AAXX  14121 01245 11460 63001 11040 21060 39655 40416 58004 6//// 78588 86200 333 4////;
0207012450999992008021418004+62600+009667FM-12+060699999V0203601N003010042019N0100001N1-00371-00831104161ADDAA112002091AY181061AY221061GF106991061021004501001001KA1120M-00301MA1999999096561MD1310071+9999MW1851REMSYN094AAXX  14181 01245 11460 63603 11037 21083 39656 40416 53007 60022 78582 86200 333 11030 4////;
0247012450999992008021506004+62600+009667FM-12+060699999V0209999C000010075019N0200001N1-00681-00911104501ADDAA112000021AA224001591AJ100729199999999AY181061AY221061GF106991061021008001001001IA1239KA1120N-00731MA1999999096781MD1310031+9999MW1851REMSYN100AAXX  15061 01245 11570 60000 11068 21091 39678 40450 53003 69912 78582 86200 333 21073 47072 70016;
0171012450999992008021509004+62600+009667FM-12+060699999V0209999C000010120019N0300001N1-00491-00811104451ADDAY181031AY221031GF106991061011012501001001MA1999999096801MD1210021+9999MW1011REMSYN082AAXX  15091 01245 41680 60000 11049 21081 39680 40445 52002 70182 86100 333 4////;
0177012450999992008021512004+62600+009667FM-12+060699999V0209999C000010120019N0300001N1-00411-00891104401ADDAY181061AY221061GF107991071051012501999999MA1999999096771MD1710031+9999MW1031REMSYN088AAXX  15121 01245 11680 70000 11041 21089 39677 40440 57003 6//// 70382 875// 333 4////;
0207012450999992008021518004+62600+009667FM-12+060699999V0209999C000012200019N0300001N1-00931-01461104351ADDAA112000021AY121061AY201061GF104991001001999999001051KA1120M-00281MA1999999096571MD1710041+9999MW1031REMSYN094AAXX  15181 01245 11980 40000 11093 21146 39657 40435 57004 69902 70320 80005 333 11028 4////;
0266012450999992008021606004+62600+009667FM-12+060699999V0209999C000010210019N0300001N1-00701-01241103561ADDAA112000091AA224000021AJ100699199999999AY121061AY201061GF105991051001022501011001IA1239KA1120N-01061MA1999999095921MD1810261+9999MW1031REMSYN100AAXX  16061 01245 11880 50000 11070 21124 39592 40356 58026 60002 70320 85010 333 21106 47069 70000;EQDQ01  00002PRCP12
0171012450999992008021609004+62600+009667FM-12+060699999V0203301N001010210019N0300001N1-00621-01181103341ADDAY121031AY221031GF107991071001022501071999MA1999999095721MD1610181+9999MW1031REMSYN082AAXX  16091 01245 41880 73301 11062 21118 39572 40334 56018 70322 8707/ 333 4////;
0177012450999992008021612004+62600+009667FM-12+060699999V0209999C000010210019N0300001N1-00551-01031103161ADDAY121061AY221061GF107991071001022501071999MA1999999095581MD1610131+9999MW1021REMSYN088AAXX  16121 01245 11880 70000 11055 21103 39558 40316 56013 6//// 70222 8707/ 333 4////;
0226012450999992008021618004+62600+009667FM-12+060699999V0202701N003010021019N0100001N1+00081-00051102262ADDAA112000021AY171061AY221061GF107991071001002501021999KA1120M+00211MA1999999094921MD1710271+9999MW1711REMSYN094AAXX  16181 01245 11360 72703 10008 21005 39492 40226 57027 69912 77172 8702/ 333 10021 4////;EQDQ01+102263APOSLP
0247012450999992008021706004+62600+009667FM-12+060699999V0202601N003010042019N0200001N1+00131+00001101371ADDAA112005191AA224005191AJ100639199999999AY181061AY221061GF108991081031004501999999IA1239KA1120N+00051MA1999999094101MD1510051+9999MW1841REMSYN100AAXX  17061 01245 11470 82603 10013 21000 39410 40137 55005 60052 78482 883// 333 20005 47063 70051;
0171012450999992008021709004+62600+009667FM-12+060699999V0203201N003010021019N0060001N1+00051-00031101411ADDAY181031AY281031GF108991081031002501999999MA1999999094121MD1210031+9999MW1851REMSYN082AAXX  17091 01245 41356 83203 10005 21003 39412 40141 52003 78588 883// 333 4////;
0177012450999992008021712004+62600+009667FM-12+060699999V0203201N003010021019N0100001N1+00211+00121101331ADDAY181061AY281061GF107991071031002501999999MA1999999094081MD1710041+9999MW1841REMSYN088AAXX  17121 01245 11360 73203 10021 20012 39408 40133 57004 6//// 78488 873// 333 4////;
0207012450999992008021718004+62600+009667FM-12+060699999V0202701N007010075019N0200001N1+00361-00081101391ADDAA112016091AY181061AY221061GF106991061021008001001001KA1120M+00441MA1999999094171MD1310101+9999MW1801REMSYN094AAXX  17181 01245 11570 62707 10036 21008 39417 40139 53010 60162 78082 86200 333 10044 4////;
0247012450999992008021806004+62600+009667FM-12+060699999V0202701N005010021019N0100001N1+00081-00081101701ADDAA112000591AA224016591AJ100639199999999AY181061AY221061GF107991071031002501999999IA1239KA1120N+00081MA1999999094401MD1510041+9999MW1851REMSYN100AAXX  18061 01245 11360 72705 10008 21008 39440 40170 55004 69942 78582 873// 333 20008 47063 70166;
0171012450999992008021809004+62600+009667FM-12+060699999V0203001N001010012019N0060001N1+00061-00051101681ADDAY181031AY271031GF108991081001001501021999MA1999999094371MD1710021+9999MW1711REMSYN082AAXX  18091 01245 41256 83001 10006 21005 39437 40168 57002 77187 8802/ 333 4////;
0177012450999992008021812004+62600+009667FM-12+060699999V0202701N001010021019N0060001N1+00051-00021101701ADDAY181061AY271061GF108991081001002501021999MA1999999094381MD1210011+9999MW1711REMSYN088AAXX  18121 01245 11356 82701 10005 21002 39438 40170 52001 6//// 77187 8802/ 333 4////;
0207012450999992008021818004+62600+009667FM-12+060699999V0203201N003010042019N0100001N1+00251-00091101771ADDAA112015091AY171061AY261061GF106991061051004501001001KA1120M+00281MA1999999094511MD1110081+9999MW1601REMSYN094AAXX  18181 01245 11460 63203 10025 21009 39451 40177 51008 60152 76076 86500 333 10028 4////;
0247012450999992008021906004+62600+009667FM-12+060699999V0209999C000010021019N0060001N1+00031-00081101891ADDAA112002091AA224016891AJ100689199999999AY171061AY261061GF108991081001002501021999IA1239KA1120N+00031MA1999999094561MD1710031+9999MW1711REMSYN100AAXX  19061 01245 11356 80000 10003 21008 39456 40189 57003 60022 77176 8802/ 333 20003 47068 70167;
0171012450999992008021909004+62600+009667FM-12+060699999V0203001N003010075019N0200001N1+00181-00041101851ADDAY171031AY261031GF106991051051008001031001MA1999999094561MD1710011+9999MW1011REMSYN082AAXX  19091 01245 41570 63003 10018 21004 39456 40185 57001 70176 85530 333 4////;
0177012450999992008021912004+62600+009667FM-12+060699999V0203001N003010075019N0200001N1+00331-00091101751ADDAY171061AY221061GF105991051051008001001001MA1999999094511MD1810061+9999MW1011REMSYN088AAXX  19121 01245 11570 53003 10033 21009 39451 40175 58006 6//// 70172 85500 333 4////;
0207012450999992008021918004+62600+009667FM-12+060699999V0203301N001010300019N0300001N1+00161-00081101651ADDAA112000891AY121061AY221061GF106991011011012501071001KA1120M+00421MA1999999094371MD1710101+9999MW1021REMSYN094AAXX  19181 01245 11680 63301 10016 21008 39437 40165 57010 69982 70222 81170 333 10042 4////;
0266012450999992008022006004+62600+009667FM-12+060699999V0200901N001010120019N0300001N1+00021-00281101351ADDAA112000091AA224000891AJ100669199999999AY121061AY201061GF106991061051012501001001IA1239KA1120N-00041MA1999999094061MD1710061+9999MW1031REMSYN100AAXX  20061 01245 11680 60901 10002 21028 39406 40135 57006 60002 70320 86500 333 21004 47066 70008;EQDQ01  00002PRCP12
0171012450999992008022009004+62600+009667FM-12+060699999V0209999C000010075019N0200001N1+00041-00091101271ADDAY121031AY221031GF106991061051008001001001MA1999999093981MD1710071+9999MW1011REMSYN082AAXX  20091 01245 41570 60000 10004 21009 39398 40127 57007 70122 86500 333 4////;
0177012450999992008022012004+62600+009667FM-12+060699999V0200901N001010075019N0300001N1+00371-00291100941ADDAY121061AY221061GF106991061051008001001001MA1999999093761MD1810231+9999MW1011REMSYN088AAXX  20121 01245 11580 60901 10037 21029 39376 40094 58023 6//// 70122 86500 333 4////;
0226012450999992008022018004+62600+009667FM-12+060699999V0202301N001010120019N0300001N1+00231-00581100481ADDAA112000091AY121061AY221061GF106991061051012501001001KA1120M+00481MA1999999093301MD1610221+9999MW1021REMSYN094AAXX  20181 01245 11680 62301 10023 21058 39330 40048 56022 60002 70222 86500 333 10048 4////;EQDQ01  00002PRCP12
0282012450999992008022106004+62600+009667FM-12+060699999V0202301N003010120019N0300001N1-00031-00711099341ADDAA112000091AA224000091AJ100659199999999AY121061AY221061GF106991061051012501001001IA1239KA1120N-00031MA1999999092171MD1810361+9999MW1021REMSYN100AAXX  21061 01245 11680 62303 11003 21071 39217 49934 58036 60002 70222 86500 333 21003 47065 70000;EQDQ01  00002PRCP24Q02  00002PRCP12
0171012450999992008022109004+62600+009667FM-12+060699999V0202301N005012200019N0300001N1+00211-00691098991ADDAY121031AY201031GF104991031011012501001081MA1999999091911MD1610291+9999MW1011REMSYN082AAXX  21091 01245 41680 42305 10021 21069 39191 49899 56029 70120 83108 333 4////;
0177012450999992008022112004+62600+009667FM-12+060699999V0202301N007010120019N0300001N1+00331-00561098641ADDAY121061AY201061GF107991051081008001011999MA1999999091621MD1810281+9999MW1031REMSYN088AAXX  21121 01245 11580 72307 10033 21056 39162 49864 58028 6//// 70320 8581/ 333 4////;
0274012450999992008022118004+62600+009667FM-12+060699999V0202901N010010120019N0300001N1+00571-00311097592ADDAA112000091AY121061AY221061GF107991071081008001999999KA1120M+00611MA1999999090702MD1810552+9999MW1021REMSYN094AAXX  21181 01245 11580 72910 10057 21031 39070 49759 58055 60002 70222 878// 333 10061 4////;EQDQ01+090703APOSP Q02+097593APOSLPQ03+000552APC3  Q04  00002PRCP12
0247012450999992008022206004+62600+009667FM-12+060699999V0202701N001010012019N0060001N1-00191-00261097891ADDAA112007991AA224007991AJ100729199999999AY181061AY221061GF108991081001001501021999IA1239KA1120N-00191MA1999999090781MD1110281+9999MW1731REMSYN100AAXX  22061 01245 11256 82701 11019 21026 39078 49789 51028 60082 77382 8802/ 333 21019 47072 70080;
0171012450999992008022209004+62600+009667FM-12+060699999V0203001N001010021019N0060001N1-00101-00241097721ADDAY171031AY221031GF108991081001002501021999MA1999999090661MD1510121+9999MW1701REMSYN082AAXX  22091 01245 41356 83001 11010 21024 39066 49772 55012 77072 8802/ 333 4////;
0177012450999992008022212004+62600+009667FM-12+060699999V0203001N001010042019N0100001N1+00001-00271097581ADDAY171061AY221061GF107991071051004501999999MA1999999090551MD1610111+9999MW1701REMSYN088AAXX  22121 01245 11460 73001 10000 21027 39055 49758 56011 6//// 77072 875// 333 4////;
0207012450999992008022218004+62600+009667FM-12+060699999V0202701N001010021019N0060001N1-00141-00271097711ADDAA112003091AY181061AY271061GF107991071021002501999999KA1120M+00101MA1999999090631MD1310131+9999MW1851REMSYN094AAXX  22181 01245 11356 72701 11014 21027 39063 49771 53013 60032 78587 872// 333 10010 4////;
0247012450999992008022306004+62600+009667FM-12+060699999V0203001N007010021019N0060001N1-00271-00371099301ADDAA112008991AA224012291AJ100909199999999AY181061AY281061GF107991071031002501999999IA1239KA1120N-00311MA1999999092071MD1310341+9999MW1851REMSYN100AAXX  23061 01245 11356 73007 11027 21037 39207 49930 53034 60092 78588 873// 333 21031 47090 70121;
0171012450999992008022309004+62600+009667FM-12+060699999V0202301N005010042019N0100001N1-00211-00491099671ADDAY181031AY211031GF106991061021004501001001MA1999999092431MD1310381+9999MW1011REMSYN082AAXX  23091 01245 41460 62305 11021 21049 39243 49967 53038 70181 86200 333 4////;
0177012450999992008022312004+62600+009667FM-12+060699999V0202701N003012200019N0300001N1+00021-00541099881ADDAY121061AY201061GF104991031021008001051001MA1999999092681MD1310231+9999MW1011REMSYN088AAXX  23121 01245 11580 42703 10002 21054 39268 49988 53023 6//// 70120 83250 333 4////;
0207012450999992008022318004+62600+009667FM-12+060699999V0203001N001010075019N0300001N1-00031-00621099701ADDAA112000391AY121061AY201061GF107991071021008001999999KA1120M+00041MA1999999092511MD1810211+9999MW1031REMSYN094AAXX  23181 01245 11580 73001 11003 21062 39251 49970 58021 69932 70320 872// 333 10004 4////;
0266012450999992008022406004+62600+009667FM-12+060699999V0202701N010012200019N0300001N1+00301-00471098781ADDAA112000091AA224000391AJ100859199999999AY121061AY201061GF104991041021008001001001IA1239KA1120N-00011MA1999999091731MD1510001+9999MW1021REMSYN100AAXX  24061 01245 11580 42710 10030 21047 39173 49878 55000 60002 70220 84200 333 21001 47085 70003;EQDQ01  00002PRCP12
0171012450999992008022409004+62600+009667FM-12+060699999V0202401N012012200019N0400001N1+00281-00601098751ADDAY111031AY201031GF103991001001999999001011MA1999999091711MD1510021+9999MW1011REMSYN082AAXX  24091 01245 41982 32412 10028 21060 39171 49875 55002 70110 80001 333 4////;
0177012450999992008022412004+62600+009667FM-12+060699999V0203001N003010042019N0150001N1+00071-00141099041ADDAY121061AY221061GF107991071031004501999999MA1999999091921MD1310221+9999MW1851REMSYN088AAXX  24121 01245 11465 73003 10007 21014 39192 49904 53022 6//// 78522 873// 333 4////;
0207012450999992008022418004+62600+009667FM-12+060699999V0202701N003010150019N0300001N1+00011-00381099001ADDAA112000391AY181061AY221061GF107991071001017501011999KA1120M+00441MA1999999091871MD1310041+9999MW1011REMSYN094AAXX  24181 01245 11780 72703 10001 21038 39187 49900 53004 69932 70182 8701/ 333 10044 4////;
0247012450999992008022506004+62600+009667FM-12+060699999V0203001N001012200019N0300001N1-00301-00721099521ADDAA112006192AA224005892AJ100919199999999AY181061AY211061GF104991041011012501001001IA1239KA1120N-00301MA1999999092271MD1110201+9999MW1011REMSYN100AAXX  25061 01245 11680 43001 11030 21072 39227 49952 51020 60062 70181 84100 333 21030 47091 70059;
0171012450999992008022509004+62600+009667FM-12+060699999V0203001N001010075019N0300001N1-00321-00661099701ADDAY181031AY211031GF105991051021008001001001MA1999999092431MD1310171+9999MW1031REMSYN082AAXX  25091 01245 41580 53001 11032 21066 39243 49970 53017 70381 85200 333 4////;
0177012450999992008022512004+62600+009667FM-12+060699999V0202701N003010075019N0300001N1-00181-00441099811ADDAY181061AY211061GF105991051021008001001001MA1999999092571MD1210131+9999MW1851REMSYN088AAXX  25121 01245 11580 52703 11018 21044 39257 49981 52013 6//// 78581 85200 333 4////;
0207012450999992008022518004+62600+009667FM-12+060699999V0203601N001012200019N0300001N1-00421-00831100091ADDAA112000021AY181061AY211061GF103991021011012501001011KA1120M-00181MA1999999092771MD1310121+9999MW1011REMSYN094AAXX  25181 01245 11680 33601 11042 21083 39277 40009 53012 69902 70181 82101 333 11018 4////;
0266012450999992008022606004+62600+009667FM-12+060699999V0202401N001010075019N0200001N1-00121-00591098841ADDAA112000091AA224000021AJ100869199999999AY171061AY221061GF107991071051008001999999IA1239KA1120N-00601MA1999999091681MD1810451+9999MW1011REMSYN100AAXX  26061 01245 11570 72401 11012 21059 39168 49884 58045 69912 70172 875// 333 21060 47086 70001;EQDQ01  00002PRCP12
0171012450999992008022609004+62600+009667FM-12+060699999V0202401N005010120019N0300001N1+00101-00651098451ADDAY121031AY201031GF106991051051012501001091MA1999999091381MD1610291+9999MW1031REMSYN082AAXX  26091 01245 41680 62405 10010 21065 39138 49845 56029 70320 85509 333 4////;
0177012450999992008022612004+62600+009667FM-12+060699999V0203601N003010750019N0300001N1+00351-00491098091ADDAY121061AY201061GF105991041051012501001091MA1999999091111MD1810281+9999MW1011REMSYN088AAXX  26121 01245 11680 53603 10035 21049 39111 49809 58028 6//// 70120 84509 333 4////;
0226012450999992008022618004+62600+009667FM-12+060699999V0203001N001010120019N0300001N1+00231-00441097631ADDAA112000091AY171061AY221061GF106991061051012501001001KA1120M+00431MA1999999090661MD1710211+9999MW1011REMSYN094AAXX  26181 01245 11680 63001 10023 21044 39066 49763 57021 69912 70172 86500 333 10043 4////;EQDQ01  00002PRCP12
0282012450999992008022706004+62600+009667FM-12+060699999V0209999C000012200019N0300001N1-00481-00661097971ADDAA112000091AA224000091AJ100849199999999AY121061AY201061GF104991041041012501001001IA1239KA1120N-00511MA1999999090801MD1310141+9999MW1031REMSYN100AAXX  27061 01245 11680 40000 11048 21066 39080 49797 53014 60002 70320 84400 333 21051 47084 70001;EQDQ01  00002PRCP24Q02  00002PRCP12
0171012450999992008022709004+62600+009667FM-12+060699999V0209999C000012200019N0300001N1-00471-00661098161ADDAY111031AY201031GF104991031041012501001011MA1999999090971MD1310161+9999MW1011REMSYN082AAXX  27091 01245 41680 40000 11047 21066 39097 49816 53016 70110 83401 333 4////;
0177012450999992008022712004+62600+009667FM-12+060699999V0202701N001010075019N0200001N1+00101-00271098211ADDAY171061AY211061GF106991061051008001001001MA1999999091161MD1310191+9999MW1701REMSYN088AAXX  27121 01245 11570 62701 10010 21027 39116 49821 53019 6//// 77071 86500 333 4////;
0207012450999992008022718004+62600+009667FM-12+060699999V0202701N007010042019N0060001N1-00061-00311098821ADDAA112002091AY171061AY221061GF107991071051004501999999KA1120M+00201MA1999999091681MD1310271+9999MW1711REMSYN094AAXX  27181 01245 11456 72707 11006 21031 39168 49882 53027 60022 77172 875// 333 10020 4////;
0247012450999992008022806004+62600+009667FM-12+060699999V0209999C000010120019N0300001N1-00471-00771100121ADDAA112000891AA224003091AJ100879199999999AY171061AY221061GF105991051051012501001001IA1239KA1120N-00471MA1999999092781MD1210141+9999MW1011REMSYN100AAXX  28061 01245 11680 50000 11047 21077 39278 40012 52014 69972 70172 85500 333 21047 47087 70031;
0171012450999992008022809004+62600+009667FM-12+060699999V0209999C000010042019N0100001N1-00421-00901100211ADDAY171031AY221031GF107991071051004501999999MA1999999092881MD1210101+9999MW1701REMSYN082AAXX  28091 01245 41460 70000 11042 21090 39288 40021 52010 77072 875// 333 4////;
0177012450999992008022812004+62600+009667FM-12+060699999V0203001N001012200019N0300001N1-00061-00661100091ADDAY171061AY211061GF103991031011012501001001MA1999999092871MD1810031+9999MW1011REMSYN088AAXX  28121 01245 11680 33001 11006 21066 39287 40009 58003 6//// 70171 83100 333 4////;
0207012450999992008022818004+62600+009667FM-12+060699999V0209999C000010300019N0300001N1-00161-00861099751ADDAA112000021AY121061AY201061GF107991011011012501011999KA1120M+00081MA1999999092521MD1810261+9999MW1031REMSYN094AAXX  28181 01245 11680 70000 11016 21086 39252 49975 58026 69912 70320 8111/ 333 10008 4////;
0247012450999992008022906004+62600+009667FM-12+060699999V0209999C000010042019N0100001N1-00281-00601099711ADDAA112001091AA224001091AJ100869199999999AY171061AY221061GF107991071051004501999999IA1239KA1120N-00331MA1999999092461MD1510191+9999MW1711REMSYN100AAXX  29061 01245 11460 70000 11028 21060 39246 49971 55019 69992 77172 875// 333 21033 47086 70010;
0171012450999992008022909004+62600+009667FM-12+060699999V0209999C000010150019N0300001N1-00161-00671099451ADDAY171031AY221031GF108991081001017501021999MA1999999092251MD1610211+9999MW1021REMSYN082AAXX  29091 01245 41780 80000 11016 21067 39225 49945 56021 70272 8802/ 333 4////;
0177012450999992008022912004+62600+009667FM-12+060699999V0202701N001010750019N0300001N1+00231-00701099141ADDAY171061AY221061GF106991011011012501001081MA1999999092061MD1810191+9999MW1011REMSYN088AAXX  29121 01245 11680 62701 10023 21070 39206 49914 58019 6//// 70172 81108 333 4////;
0258012450999992008022918004+62600+009667FM-12+060699999V0202201N007010120019N0300001N1+00081-00791098252ADDAA112000021AY121061AY221061GF107991071011012501001001KA1120M+00401MA1999999091202MD1810532+9999MW1031REMSYN094AAXX  29181 01245 11680 72207 10008 21079 39120 49825 58053 69902 70322 87100 333 10040 4////;EQDQ01+091203APOSP Q02+098253APOSLPQ03+000532APC3  
0266012450999992008030106004+62600+009667FM-12+060699999V0203401N003010075019N0200001N1+00041-00521096771ADDAA112000091AA224000021AJ100839199999999AY121061AY221061GF106991061051008001999999IA1239KA1120N+00001MA1999999089811MD1510071+9999MW1011REMSYN100AAXX  01061 01245 11570 63403 10004 21052 38981 49677 55007 60002 70122 865// 333 20000 47083 70000;EQDQ01  00002PRCP12
0171012450999992008030109004+62600+009667FM-12+060699999V0202301N001010300019N0300001N1+00111-00551096861ADDAY121031AY221031GF108991021011012501011999MA1999999089911MD1310101+9999MW1031REMSYN082AAXX  01091 01245 41680 82301 10011 21055 38991 49686 53010 70322 8211/ 333 4////;
0197012450999992008030112004+62600+009667FM-12+060699999V0202301N007010150019N0300001N1+00241-00541999999ADDAY121061AY221061GF106991061081012501001001MD1210061+9999MW1011REMSYN088AAXX  01121 01245 11680 62307 10024 21054 39887 40647 52006 6//// 70122 86800 333 4////;EQDQ01+098873APOSP Q02+106473APOSLP
0226012450999992008030118004+62600+009667FM-12+060699999V0209999C000010300019N0300001N1+00081-00361097201ADDAA112000091AY171061AY221061GF107991041051012501021999KA1120M+00331MA1999999090221MD1210191+9999MW1011REMSYN094AAXX  01181 01245 11680 70000 10008 21036 39022 49720 52019 69902 70172 8452/ 333 10033 4////;EQDQ01  00002PRCP12
0282012450999992008030206004+62600+009667FM-12+060699999V0201401N001019999999N0300001N1-00381-00991097761ADDAA112000091AA224000091AJ100829199999999AY121061AY221061GF108991081999017501011999IA1239KA1120N-00381MA1999999090621MD1210121+9999MW1031REMSYN100AAXX  02061 01245 11780 81401 11038 21099 39062 49776 52012 60002 70322 88/1/ 333 21038 47082 70000;EQDQ01  00002PRCP24Q02  00002PRCP12
0171012450999992008030209004+62600+009667FM-12+060699999V0202701N001010300019N0300001N1-00291-00961097901ADDAY121031AY211031GF105991021051012501031001MA1999999090771MD1210151+9999MW1031REMSYN082AAXX  02091 01245 41680 52701 11029 21096 39077 49790 52015 70321 82530 333 4////;
0177012450999992008030212004+62600+009667FM-12+060699999V0202901N001010120019N0300001N1+00011-00761097961ADDAY121061AY211061GF106991051051012501031001MA1999999090911MD1210141+9999MW1031REMSYN088AAXX  02121 01245 11680 62901 10001 21076 39091 49796 52014 6//// 70321 85530 333 4////;
0242012450999992008030218004+62600+009667FM-12+060699999V0202301N001010042019N0100001N1-00151-00421098772ADDAA112000591AY181061AY221061GF107991071021004501999999KA1120M+00151MA1999999091621MD1310512+9999MW1851REMSYN094AAXX  02181 01245 11460 72301 11015 21042 39162 49877 53051 69942 78582 872// 333 10015 4////;EQDQ01+098773APOSLPQ02+000512APC3  
0247012450999992008030306004+62600+009667FM-12+060699999V0203201N001010075019N0200001N1-00621-00781099461ADDAA112002091AA224002391AJ100879199999999AY181061AY221061GF105991051021008001001001IA1239KA1120N-00621MA1999999092131MD1310091+9999MW1011REMSYN100AAXX  03061 01245 11570 53201 11062 21078 39213 49946 53009 60022 70182 85200 333 21062 47087 70023;
0171012450999992008030309004+62600+009667FM-12+060699999V0203201N001010075019N0200001N1-00531-00831099611ADDAY181031AY221031GF106991061021008001001001MA1999999092301MD1310151+9999MW1851REMSYN082AAXX  03091 01245 41570 63201 11053 21083 39230 49961 53015 78582 86200 333 4////;
0177012450999992008030312004+62600+009667FM-12+060699999V0202701N001010075019N0200001N1-00331-00961099711ADDAY181061AY221061GF106991061021008001001001MA1999999092451MD1310151+9999MW1011REMSYN088AAXX  03121 01245 11570 62701 11033 21096 39245 49971 53015 6//// 70182 86200 333 4////;
0207012450999992008030318004+62600+009667FM-12+060699999V0209999C000010042019N0100001N1-00711-01181100171ADDAA112000021AY181061AY221061GF107991071021004501999999KA1120M-00241MA1999999092771MD1310231+9999MW1851REMSYN094AAXX  03181 01245 11460 70000 11071 21118 39277 40017 53023 69912 78582 872// 333 11024 4////;
0247012450999992008030406004+62600+009667FM-12+060699999V0203001N003010042019N0060001N1-00661-00891100421ADDAA112002092AA224001892AJ100879199999999AY181061AY271061GF108991081001004501021999IA1239KA1120N-00801MA1999999093021MD1310111+9999MW1701REMSYN100AAXX  04061 01245 11456 83003 11066 21089 39302 40042 53011 60022 77087 8802/ 333 21080 47087 70019;
0171012450999992008030409004+62600+009667FM-12+060699999V0203001N003010042019N0100001N1-00671-00951100601ADDAY181031AY271031GF106991061021004501001001MA1999999093171MD1110161+9999MW1851REMSYN082AAXX  04091 01245 41460 63003 11067 21095 39317 40060 51016 78587 86200 333 4////;
0177012450999992008030412004+62600+009667FM-12+060699999V0202401N003010006019N0020001N1-00711-00821100771ADDAY181061AY271061GF107991071031000751999999MA1999999093321MD1110161+9999MW1861REMSYN088AAXX  04121 01245 11120 72403 11071 21082 39332 40077 51016 6//// 78687 873// 333 4////;
0207012450999992008030418004+62600+009667FM-12+060699999V0203001N003010021019N0060001N1-00601-00761101051ADDAA112014091AY181061AY281061GF107991071031002501999999KA1120M-00481MA1999999093621MD1010051+9999MW1851REMSYN094AAXX  04181 01245 11356 73003 11060 21076 39362 40105 50005 60142 78588 873// 333 11048 4////;
0247012450999992008030506004+62600+009667FM-12+060699999V0203001N005010021019N0100001N1-00451-00801101461ADDAA112017091AA224031591AJ101299199999999AY181061AY221061GF106991061021002501001001IA1239KA1120N-00621MA1999999094031MD1010021+9999MW1851REMSYN100AAXX  05061 01245 11360 63005 11045 21080 39403 40146 50002 60172 78582 86200 333 21062 47129 70314;
0171012450999992008030509004+62600+009667FM-12+060699999V0203201N001010210019N0300001N1-00421-01131101041ADDAY181031AY211031GF108991081001022501011999MA1999999093661MD1810371+9999MW1031REMSYN082AAXX  05091 01245 41880 83201 11042 21113 39366 40104 58037 70381 8801/ 333 4////;
0177012450999992008030512004+62600+009667FM-12+060699999V0202701N007010300019N0100001N1-00311-00871100341ADDAY181061AY271061GF108991041071004501021999MA1999999093031MD1810621+9999MW1701REMSYN088AAXX  05121 01245 11460 82707 11031 21087 39303 40034 58062 6//// 77087 8472/ 333 4////;
0242012450999992008030518004+62600+009667FM-12+060699999V0202301N001010300019N0300001N1+00011-00651099062ADDAA112000021AY171061AY221061GF107991041071012501021999KA1120M+00101MA1999999091922MD1610471+9999MW1011REMSYN094AAXX  05181 01245 11680 72301 10001 21065 39192 49906 56047 69922 70172 8472/ 333 10010 4////;EQDQ01+091923APOSP Q02+099063APOSLP
0247012450999992008030606004+62600+009667FM-12+060699999V0203001N012010021019N0010001N1-00221-00401098911ADDAA112002091AA224002091AJ101219199999999AY181061AY221061GF107991071031002501999999IA1239KA1120N-00221MA1999999091721MD1310171+9999MW1851REMSYN100AAXX  06061 01245 11310 73012 11022 21040 39172 49891 53017 60022 78582 873// 333 21022 47121 70020;
0171012450999992008030609004+62600+009667FM-12+060699999V0203201N012010021019N0030001N1-00281-00541099301ADDAY181031AY281031GF107991071031002501999999MA1999999092071MD1310341+9999MW1851REMSYN082AAXX  06091 01245 41330 73212 11028 21054 39207 49930 53034 78588 873// 333 4////;
0177012450999992008030612004+62600+009667FM-12+060699999V0203001N019010006019N0003001N1-00381-00541099591ADDAY181061AY281061GF107991071031000751999999MA1999999092321MD1310241+9999MW1861REMSYN088AAXX  06121 01245 11103 73019 11038 21054 39232 49959 53024 6//// 78688 873// 333 4////;
0207012450999992008030618004+62600+009667FM-12+060699999V0203001N005012200019N0200001N1-00421-00801100191ADDAA112002091AY181061AY211061GF104991041081008001001001KA1120M-00051MA1999999092871MD1110221+9999MW1011REMSYN094AAXX  06181 01245 11570 43005 11042 21080 39287 40019 51022 60022 70181 84800 333 11005 4////;
0266012450999992008030706004+62600+009667FM-12+060699999V0203601N001010750019N0300001N1-00621-00921100581ADDAA112000091AA224001591AJ101149199999999AY181061AY211061GF106991031011008001001081IA1239KA1120N-00641MA1999999093171MD1310011+9999MW1011REMSYN100AAXX  07061 01245 11580 63601 11062 21092 39317 40058 53001 69912 70181 83108 333 21064 47114 70016;EQDQ01  00002PRCP12
0171012450999992008030709004+62600+009667FM-12+060699999V0203001N001010750019N0300001N1-00301-01081100411ADDAY121031AY221031GF106991041001022501011091MA1999999093101MD1810081+9999MW1031REMSYN082AAXX  07091 01245 41880 63001 11030 21108 39310 40041 58008 70322 84019 333 4////;
0177012450999992008030712004+62600+009667FM-12+060699999V0203401N001010750019N0300001N1+00041-01191100071ADDAY121061AY221061GF106991041001022501011091MA1999999092871MD1810221+9999MW1021REMSYN088AAXX  07121 01245 11880 63401 10004 21119 39287 40007 58022 6//// 70222 84019 333 4////;
0226012450999992008030718004+62600+009667FM-12+060699999V0201801N003010750019N0300001N1+00171-00611099641ADDAA112000091AY121061AY221061GF106991041001017501011091KA1120M+00291MA1999999092511MD1610201+9999MW1021REMSYN094AAXX  07181 01245 11780 61803 10017 21061 39251 49964 56020 60002 70222 84019 333 10029 4////;EQDQ01  00002PRCP12
0282012450999992008030806004+62600+009667FM-12+060699999V0202801N001012200019N0300001N1-00181-00761099181ADDAA112000091AA224000091AJ101099199999999AY121061AY211061GF103991021011012501031001IA1239KA1120N-00181MA1999999091981MD1510081+9999MW1011REMSYN100AAXX  08061 01245 11680 32801 11018 21076 39198 49918 55008 60002 70121 82130 333 21018 47109 70000;EQDQ01  00002PRCP24Q02  00002PRCP12
0171012450999992008030809004+62600+009667FM-12+060699999V0202301N001012200019N0300001N1+00111-00741099131ADDAY101031AY201031GF104991011011012501001081MA1999999092021MD1310021+9999MW1031REMSYN082AAXX  08091 01245 41680 42301 10011 21074 39202 49913 53002 70300 81108 333 4////;
0177012450999992008030812004+62600+009667FM-12+060699999V0202201N003010750019N0300001N1+00201-00681099091ADDAY111061AY201061GF106991041011012501001081MA1999999092001MD1810021+9999MW1031REMSYN088AAXX  08121 01245 11680 62203 10020 21068 39200 49909 58002 6//// 70310 84108 333 4////;
0226012450999992008030818004+62600+009667FM-12+060699999V0201401N005010075019N0200001N1+00281-00461098711ADDAA112000091AY121061AY221061GF108991051051008001021999KA1120M+00341MA1999999091671MD1810261+9999MW1031REMSYN094AAXX  08181 01245 11570 81405 10028 21046 39167 49871 58026 60002 70322 8552/ 333 10034 4////;EQDQ01  00002PRCP12
0282012450999992008030906004+62600+009667FM-12+060699999V0200501N007010300019N0300001N1+00301-00381097951ADDAA112000091AA224000091AJ101059199999999AY121061AY221061GF106991031011012501071001IA1239KA1120N+00221MA1999999090971MD1810131+9999MW1011REMSYN100AAXX  09061 01245 11680 60507 10030 21038 39097 49795 58013 60002 70122 83170 333 20022 47105 70000;EQDQ01  00002PRCP24Q02  00002PRCP12
0171012450999992008030909004+62600+009667FM-12+060699999V0203001N003010120019N0300001N1+00411-00341097971ADDAY121031AY221031GF106991061081008001001001MA1999999091021MD1310071+9999MW1011REMSYN082AAXX  09091 01245 41580 63003 10041 21034 39102 49797 53007 70122 86800 333 4////;
0177012450999992008030912004+62600+009667FM-12+060699999V0202301N005010150019N0300001N1+00591-00371098111ADDAY121061AY221061GF105991051081012501001001MA1999999091181MD1210191+9999MW1011REMSYN088AAXX  09121 01245 11680 52305 10059 21037 39118 49811 52019 6//// 70122 85800 333 4////;
0226012450999992008030918004+62600+009667FM-12+060699999V0202301N001019999999N0300001N1+00361-00481098501ADDAA112000091AY121061AY211061GF106991061001008001071001KA1120M+00651MA1999999091501MD1310131+9999MW1021REMSYN094AAXX  09181 01245 11580 62301 10036 21048 39150 49850 53013 60002 70221 86070 333 10065 4////;EQDQ01  00002PRCP12
0282012450999992008031006004+62600+009667FM-12+060699999V0202301N001010300019N0300001N1+00121-00631098711ADDAA112000091AA224000091AJ100959199999999AY121061AY221061GF107991011071012501071001IA1239KA1120N+00001MA1999999091621MD1810051+9999MW1021REMSYN100AAXX  10061 01245 11680 72301 10012 21063 39162 49871 58005 60002 70222 81770 333 20000 47095 70000;EQDQ01  00002PRCP24Q02  00002PRCP12
0171012450999992008031009004+62600+009667FM-12+060699999V0203201N001010150019N0300001N1+00191-00521098671ADDAY121031AY221031GF107991071001017501071001MA1999999091611MD1810021+9999MW1021REMSYN082AAXX  10091 01245 41780 73201 10019 21052 39161 49867 58002 70222 87070 333 4////;
0177012450999992008031012004+62600+009667FM-12+060699999V0209999C000010300019N0300001N1+00361-00461098591ADDAY121061AY221061GF107991031011012501011001MA1999999091571MD1710021+9999MW1021REMSYN088AAXX  10121 01245 11680 70000 10036 21046 39157 49859 57002 6//// 70222 83110 333 4////;
0226012450999992008031018004+62600+009667FM-12+060699999V0209999C000012200019N0300001N1+00151-00541098821ADDAA112000091AY121061AY201061GF102991021011012501001001KA1120M+00531MA1999999091731MD1210111+9999MW1011REMSYN094AAXX  10181 01245 11680 20000 10015 21054 39173 49882 52011 60002 70120 82100 333 10053 4////;EQDQ01  00002PRCP12
0282012450999992008031106004+62600+009667FM-12+060699999V0203201N003010300019N0300001N1+00131-00491098931ADDAA112000091AA224000091AJ100949199999999AY121061AY201061GF106991041011008001041001IA1239KA1120N-00051MA1999999091831MD1010011+9999MW1031REMSYN100AAXX  11061 01245 11580 63203 10013 21049 39183 49893 50001 60002 70320 84140 333 21005 47094 70000;EQDQ01  00002PRCP24Q02  00002PRCP12
0171012450999992008031109004+62600+009667FM-12+060699999V0201201N007010300019N0300001N1+00341-00431098781ADDAY121031AY221031GF105991031021008001041001MA1999999091751MD1810071+9999MW1011REMSYN082AAXX  11091 01245 41580 51207 10034 21043 39175 49878 58007 70122 83240 333 4////;
0177012450999992008031112004+62600+009667FM-12+060699999V0201201N010010042019N0200001N1+00261-00251098671ADDAY181061AY221061GF107991071021004501999999MA1999999091621MD1810111+9999MW1851REMSYN088AAXX  11121 01245 11470 71210 10026 21025 39162 49867 58011 6//// 78582 872// 333 4////;
0207012450999992008031118004+62600+009667FM-12+060699999V0201201N012010042019N0200001N1+00441-00141098261ADDAA112000021AY181061AY221061GF107991051021004501011999KA1120M+00901MA1999999091281MD1810201+9999MW1801REMSYN094AAXX  11181 01245 11470 71212 10044 21014 39128 49826 58020 69902 78082 8521/ 333 10090 4////;
0247012450999992008031206004+62600+009667FM-12+060699999V0201401N019010042019N0200001N1+00231-00151097671ADDAA112000021AA224000021AJ100839199999999AY181061AY221061GF107991071021004501999999IA1239KA1120N+00201MA1999999090681MD1510031+9999MW1801REMSYN100AAXX  12061 01245 11470 71419 10023 21015 39068 49767 55003 69902 78082 872// 333 20020 47083 70000;
0171012450999992008031209004+62600+009667FM-12+060699999V0200901N003010120019N0200001N1+00411-00251097741ADDAY181031AY221031GF106991061081008001001001MA1999999090801MD1310121+9999MW1011REMSYN082AAXX  12091 01245 41570 60903 10041 21025 39080 49774 53012 70182 86800 333 4////;
0177012450999992008031212004+62600+009667FM-12+060699999V0201401N005010120019N0200001N1+00371-00311097891ADDAY181061AY221061GF106991061081008001001001MA1999999090921MD1210111+9999MW1021REMSYN088AAXX  12121 01245 11570 61405 10037 21031 39092 49789 52011 6//// 70282 86800 333 4////;
0207012450999992008031218004+62600+009667FM-12+060699999V0202401N001010120019N0200001N1+00241-00331098181ADDAA112000021AY121061AY221061GF107991071081008001999999KA1120M+00551MA1999999091171MD1210111+9999MW1021REMSYN094AAXX  12181 01245 11570 72401 10024 21033 39117 49818 52011 69902 70222 878// 333 10055 4////;
0266012450999992008031306004+62600+009667FM-12+060699999V0209999C000010300019N0300001N1+00021-00421098821ADDAA112000091AA224000021AJ100809199999999AY121061AY201061GF107991021011012501011999IA1239KA1120N+00021MA1999999091711MD1210141+9999MW1021REMSYN100AAXX  13061 01245 11680 70000 10002 21042 39171 49882 52014 60002 70220 8211/ 333 20002 47080 70000;EQDQ01  00002PRCP12
0171012450999992008031309004+62600+009667FM-12+060699999V0209999C000012200019N0300001N1+00321-00361098891ADDAY121031AY201031GF103991001001999999001021MA1999999091851MD1210151+9999MW1011REMSYN082AAXX  13091 01245 41980 30000 10032 21036 39185 49889 52015 70120 80002 333 4////;
0177012450999992008031312004+62600+009667FM-12+060699999V0202101N001012200019N0300001N1+00311-00411099071ADDAY121061AY201061GF104991011011012501041011MA1999999092011MD1210141+9999MW1031REMSYN088AAXX  13121 01245 11680 42101 10031 21041 39201 49907 52014 6//// 70320 81141 333 4////;
0226012450999992008031318004+62600+009667FM-12+060699999V0203601N001010210019N0300001N1+00151-00581099301ADDAA112000091AY121061AY201061GF105991051001022501031001KA1120M+00421MA1999999092181MD1210091+9999MW1031REMSYN094AAXX  13181 01245 11880 53601 10015 21058 39218 49930 52009 60002 70320 85030 333 10042 4////;EQDQ01  00002PRCP12
0282012450999992008031406004+62600+009667FM-12+060699999V0209999C000010075019N0200001N1-00201-00591099711ADDAA112000091AA224000091AJ100809199999999AY121061AY221061GF107991071001008001021999IA1239KA1120N-00261MA1999999092471MD1310141+9999MW1031REMSYN100AAXX  14061 01245 11570 70000 11020 21059 39247 49971 53014 60002 70322 8702/ 333 21026 47080 70000;EQDQ01  00002PRCP24Q02  00002PRCP12
0171012450999992008031409004+62600+009667FM-12+060699999V0209999C000010075019N0200001N1-00221-00351099861ADDAY171031AY221031GF107991071051008001999999MA1999999092611MD1210141+9999MW1701REMSYN082AAXX  14091 01245 41570 70000 11022 21035 39261 49986 52014 77072 875// 333 4////;
0177012450999992008031412004+62600+009667FM-12+060699999V0209999C000010042019N0200001N1+00091-00181099911ADDAY171061AY221061GF107991071051004501999999MA1999999092731MD1310141+9999MW1701REMSYN088AAXX  14121 01245 11470 70000 10009 21018 39273 49991 53014 6//// 77072 875// 333 4////;
0207012450999992008031418004+62600+009667FM-12+060699999V0202401N001010042019N0100001N1+00011-00211100211ADDAA112000591AY171061AY221061GF108991051051004501021999KA1120M+00251MA1999999093001MD1310141+9999MW1711REMSYN094AAXX  14181 01245 11460 82401 10001 21021 39300 40021 53014 69962 77172 8552/ 333 10025 4////;
0225012450999992008031506004+62600+009667FM-12+060699999V0209999C000012200019N0300001N1-00511-00751100671ADDAA112000021AA224000891AJ100789199999999GF105991021001022501041041IA1239KA1120N-00511MA1999999093281MD1210041+9999REMSYN100AAXX  15061 01245 11880 50000 11051 21075 39328 40067 52004 69922 7//72 82044 333 21051 47078 70008;
0171012450999992008031509004+62600+009667FM-12+060699999V0209999C000012200019N0300001N1-00341-00571100671ADDAY121031AY201031GF104991001001999999001081MA1999999093321MD1210051+9999MW1011REMSYN082AAXX  15091 01245 41980 40000 11034 21057 39332 40067 52005 70120 80008 333 4////;
0177012450999992008031512004+62600+009667FM-12+060699999V0203001N001019999999N0300001N1+00111-00691100531ADDAY121061AY201061GF105991001001999999001081MA1999999093321MD1410001+9999MW1031REMSYN088AAXX  15121 01245 11980 53001 10011 21069 39332 40053 54001 6//// 70320 80008 333 4////;
0207012450999992008031518004+62600+009667FM-12+060699999V0203001N003010021019N0060001N1+00041-00371100531ADDAA112000021AY171061AY221061GF108991081001002501021999KA1120M+00341MA1999999093301MD1310021+9999MW1711REMSYN094AAXX  15181 01245 11356 83003 10004 21037 39330 40053 53002 69912 77172 8802/ 333 10034 4////;
0247012450999992008031606004+62600+009667FM-12+060699999V0202701N001010042019N0100001N1+00001-00361100471ADDAA112002091AA224002391AJ100809199999999AY171061AY221061GF106991051031004501031001IA1239KA1120N-00151MA1999999093231MD1810121+9999MW1011REMSYN100AAXX  16061 01245 11460 62701 10000 21036 39323 40047 58012 60022 70172 85330 333 21015 47080 70022;
0171012450999992008031609004+62600+009667FM-12+060699999V0202701N001010012019N0060001N1-00121-00231100381ADDAY181031AY221031GF108991081031001501999999MA1999999093121MD1710121+9999MW1861REMSYN082AAXX  16091 01245 41256 82701 11012 21023 39312 40038 57012 78682 883// 333 4////;
0177012450999992008031612004+62600+009667FM-12+060699999V0203201N007010021019N0060001N1-00191-00471100281ADDAY181061AY221061GF107991071031002501999999MA1999999093011MD1610111+9999MW1851REMSYN088AAXX  16121 01245 11356 73207 11019 21047 39301 40028 56011 6//// 78582 873// 333 4////;
0207012450999992008031618004+62600+009667FM-12+060699999V0202701N003010300019N0200001N1-00441-00771100241ADDAA112001091AY181061AY221061GF108991041071008001021999KA1120M+00191MA1999999092911MD1710141+9999MW1011REMSYN094AAXX  16181 01245 11570 82703 11044 21077 39291 40024 57014 60012 70182 8472/ 333 10019 4////;
0247012450999992008031706004+62600+009667FM-12+060699999V0202801N003010021019N0060001N1-00621-00861100561ADDAA112004191AA224005191AJ100849199999999AY181061AY221061GF107991071031002501001001IA1239KA1120N-00701MA1999999093161MD1310031+9999MW1861REMSYN100AAXX  17061 01245 11356 72803 11062 21086 39316 40056 53003 60042 78682 87300 333 21070 47084 70052;
0171012450999992008031709004+62600+009667FM-12+060699999V0202701N001010075019N0200001N1-00591-00881100551ADDAY181031AY221031GF106991061021008001001001MA1999999093161MD1410001+9999MW1011REMSYN082AAXX  17091 01245 41570 62701 11059 21088 39316 40055 54000 70182 86200 333 4////;
0177012450999992008031712004+62600+009667FM-12+060699999V0202401N005010300019N0300001N1-00281-00951100341ADDAY181061AY221061GF105991031021012501041001MA1999999093031MD1810121+9999MW1011REMSYN088AAXX  17121 01245 11680 52405 11028 21095 39303 40034 58012 6//// 70182 83240 333 4////;
0207012450999992008031718004+62600+009667FM-12+060699999V0209999C000010021019N0060001N1-00381-00451100171ADDAA112007191AY181061AY221061GF107991071031002501999999KA1120M-00221MA1999999092861MD1310121+9999MW1861REMSYN094AAXX  17181 01245 11356 70000 11038 21045 39286 40017 53012 60072 78682 873// 333 11022 4////;
0247012450999992008031806004+62600+009667FM-12+060699999V0203301N001010021019N0060001N1-00641-00791100691ADDAA112002091AA224008991AJ100999199999999AY181061AY221061GF107991071031002501999999IA1259KA1120N-00691MA1999999093271MD1710071+9999MW1861REMSYN100AAXX  18061 01245 11356 73301 11064 21079 39327 40069 57007 60022 78682 873// 333 21069 41099 70090;
0171012450999992008031809004+62600+009667FM-12+060699999V0202701N001010042019N0170001N1-00461-00561100561ADDAY181031AY221031GF105991051031004501999999MA1999999093201MD1510071+9999MW1861REMSYN082AAXX  18091 01245 41467 52701 11046 21056 39320 40056 55007 78682 853// 333 4////;
0177012450999992008031812004+62600+009667FM-12+060699999V0203001N003010012019N0060001N1-00241-00491100551ADDAY181061AY221061GF108991081031001501999999MA1999999093251MD1110051+9999MW1861REMSYN088AAXX  18121 01245 11256 83003 11024 21049 39325 40055 51005 6//// 78682 883// 333 4////;
0207012450999992008031818004+62600+009667FM-12+060699999V0203001N005010021019N0100001N1-00341-00521100771ADDAA112005191AY181061AY221061GF106991061021002501001001KA1120M-00141MA1999999093421MD1310091+9999MW1011REMSYN094AAXX  18181 01245 11360 63005 11034 21052 39342 40077 53009 60052 70182 86200 333 11014 4////;
0247012450999992008031906004+62600+009667FM-12+060699999V0202801N001010021019N0060001N1-00621-00721101071ADDAA112003091AA224008491AJ100919199999999AY181061AY221061GF107991071031002501999999IA1239KA1120N-00621MA1999999093621MD1710041+9999MW1851REMSYN100AAXX  19061 01245 11356 72801 11062 21072 39362 40107 57004 60032 78582 873// 333 21062 47091 70084;
0171012450999992008031909004+62600+009667FM-12+060699999V0202401N001010021019N0100001N1-00441-00801100961ADDAY181031AY221031GF107991071031002501999999MA1999999093571MD1810051+9999MW1851REMSYN082AAXX  19091 01245 41360 72401 11044 21080 39357 40096 58005 78582 873// 333 4////;
0177012450999992008031912004+62600+009667FM-12+060699999V0202801N001010042019N0100001N1-00321-00861100991ADDAY181061AY221061GF105991051031004501001001MA1999999093631MD1310071+9999MW1011REMSYN088AAXX  19121 01245 11460 52801 11032 21086 39363 40099 53007 6//// 70182 85300 333 4////;
0207012450999992008031918004+62600+009667FM-12+060699999V0202701N001012200019N0400001N1-00611-01191101251ADDAA112001091AY111061AY201061GF103991021041017501041001KA1120M-00151MA1999999093801MD1310071+9999MW1011REMSYN094AAXX  19181 01245 11782 32701 11061 21119 39380 40125 53007 60012 70110 82440 333 11015 4////;
0266012450999992008032006004+62600+009667FM-12+060699999V0202901N001010210019N0400001N1-00671-01301100271ADDAA112000091AA224001391AJ101089199999999AY121061AY201061GF105991051001022501071001IA1239KA1120N-01051MA1999999092871MD1810381+9999MW1021REMSYN100AAXX  20061 01245 11882 52901 11067 21130 39287 40027 58038 60002 70220 85070 333 21105 47108 70013;EQDQ01  00002PRCP12
0171012450999992008032009004+62600+009667FM-12+060699999V0200501N001012200019N0400001N1-00451-01181099771ADDAY121031AY201031GF104991031091017501071001MA1999999092471MD1810401+9999MW1011REMSYN082AAXX  20091 01245 41782 40501 11045 21118 39247 49977 58040 70120 83970 333 4////;
0177012450999992008032012004+62600+009667FM-12+060699999V0203001N001010120019N0300001N1-00181-01011099271ADDAY121061AY201061GF106991051001012501071071MA1999999092071MD1810411+9999MW1031REMSYN088AAXX  20121 01245 11680 63001 11018 21101 39207 49927 58041 6//// 70320 85077 333 4////;
0226012450999992008032018004+62600+009667FM-12+060699999V0202101N010010075019N0200001N1-00381-01011098501ADDAA112000091AY121061AY221061GF108991051051008001011999KA1120M-00051MA1999999091311MD1610281+9999MW1031REMSYN094AAXX  20181 01245 11570 82110 11038 21101 39131 49850 56028 60002 70322 8551/ 333 11005 4////;EQDQ01  00002PRCP12
0282012450999992008032106004+62600+009667FM-12+060699999V0201501N001010075019N0200001N1-00641-01061098991ADDAA112000091AA224000091AJ100999199999999AY181061AY221061GF107991071031008001999999IA1239KA1120N-00641MA1999999091701MD1310331+9999MW1021REMSYN100AAXX  21061 01245 11570 71501 11064 21106 39170 49899 53033 69902 70282 873// 333 21064 47099 70000;EQDQ01  00002PRCP24Q02  00002PRCP12
0171012450999992008032109004+62600+009667FM-12+060699999V0200601N003010075019N0150001N1-00621-01181099401ADDAY171031AY221031GF107991071051008001999999MA1999999092071MD1310411+9999MW1701REMSYN082AAXX  21091 01245 41565 70603 11062 21118 39207 49940 53041 77072 875// 333 4////;
0177012450999992008032112004+62600+009667FM-12+060699999V0200801N003010042019N0100001N1-00651-01061099731ADDAY171061AY221061GF107991071051004501999999MA1999999092371MD1110311+9999MW1701REMSYN088AAXX  21121 01245 11460 70803 11065 21106 39237 49973 51031 6//// 77072 875// 333 4////;
0207012450999992008032118004+62600+009667FM-12+060699999V0203001N001010300019N0300001N1-00981-01441100281ADDAA112000021AY171061AY221061GF105991041051012501021001KA1120M-00511MA1999999092801MD1310221+9999MW1011REMSYN094AAXX  21181 01245 11680 53001 11098 21144 39280 40028 53022 69912 70172 84520 333 11051 4////;
0276012450999992008032206004+62600+009667FM-12+060699999V0209999C000012200019N0400001N1-01741-02081100711ADDAA112000091AA224000021AJ100959199999999AY101061AY201061GA1001+999999999GF100991001001999999001001IA1239KA1120N-01861MA1999999092981MD1710021+9999MW1011REMSYN094AAXX  22061 01245 11982 00000 11174 21208 39298 40071 57002 60002 70100 333 21186 47095 70001;EQDQ01  00002PRCP12
0171012450999992008032209004+62600+009667FM-12+060699999V0209999C000012200019N0500001N1-01361-01891100541ADDAY101031AY201031GF101991011001022501041001MA1999999092931MD1710041+9999MW1031REMSYN082AAXX  22091 01245 41884 10000 11136 21189 39293 40054 57004 70300 81040 333 4////;
0177012450999992008032212004+62600+009667FM-12+060699999V0209999C000012200019N0500001N1-00661-01761100191ADDAY101061AY201061GF101991011001022501041011MA1999999092811MD1710131+9999MW1021REMSYN088AAXX  22121 01245 11884 10000 11066 21176 39281 40019 57013 6//// 70200 81041 333 4////;
0236012450999992008032218004+62600+009667FM-12+060699999V0201401N001012200019N0400001N1-00991-02061100071ADDAA112000091AY101061AY201061GA1001+999999999GF100991001001999999001001KA1120M-00521MA1999999092611MD1710031+9999MW1011REMSYN088AAXX  22181 01245 11982 01401 11099 21206 39261 40007 57003 60002 70100 333 11052 4////;EQDQ01  00002PRCP12
0282012450999992008032306004+62600+009667FM-12+060699999V0209999C000012200019N0400001N1-01801-02531099731ADDAA112000091AA224000091AJ100949199999999AY101061AY201061GF101991001001999999001041IA1239KA1120N-01801MA1999999092071MD1710191+9999MW1021REMSYN100AAXX  23061 01245 11982 10000 11180 21253 39207 49973 57019 60002 70200 80004 333 21180 47094 70000;EQDQ01  00002PRCP24Q02  00002PRCP12
0171012450999992008032309004+62600+009667FM-12+060699999V0200901N001012200019N0400001N1-01261-02211099411ADDAY101031AY201031GF101991001001999999001071MA1999999091921MD1810121+9999MW1021REMSYN082AAXX  23091 01245 41982 10901 11126 21221 39192 49941 58012 70200 80007 333 4////;
0177012450999992008032312004+62600+009667FM-12+060699999V0203001N001012200019N0400001N1-00541-01811099011ADDAY101061AY201061GF103991031001017501051001MA1999999091731MD1610171+9999MW1031REMSYN088AAXX  23121 01245 11782 33001 11054 21181 39173 49901 56017 6//// 70300 83050 333 4////;
0226012450999992008032318004+62600+009667FM-12+060699999V0203201N001012200019N0400001N1-00841-01931098961ADDAA112000091AY101061AY201061GF104991001001999999001081KA1120M-00371MA1999999091621MD1510011+9999MW1031REMSYN094AAXX  23181 01245 11982 43201 11084 21193 39162 49896 55001 60002 70300 80008 333 11037 4////;EQDQ01  00002PRCP12
0282012450999992008032406004+62600+009667FM-12+060699999V0209999C000012200019N0300001N1-01251-01541098951ADDAA112000091AA224000091AJ100929199999999AY171061AY221061GF106991041001022501031011IA1239KA1120N-01431MA1999999091501MD1710051+9999MW1011REMSYN100AAXX  24061 01245 11880 60000 11125 21154 39150 49895 57005 69902 70172 84031 333 21143 47092 70000;EQDQ01  00002PRCP24Q02  00002PRCP12
0171012450999992008032409004+62600+009667FM-12+060699999V0203201N001012200019N0400001N1-00891-01371098831ADDAY121031AY201031GF104991001001999999001081MA1999999091481MD1010011+9999MW1011REMSYN082AAXX  24091 01245 41982 43201 11089 21137 39148 49883 50001 70120 80008 333 4////;
0177012450999992008032412004+62600+009667FM-12+060699999V0202701N001019999999N0400001N1-00491-01261098741ADDAY121061AY201061GF105991001001999999001081MA1999999091511MD1310031+9999MW1031REMSYN088AAXX  24121 01245 11982 52701 11049 21126 39151 49874 53003 6//// 70320 80008 333 4////;
0226012450999992008032418004+62600+009667FM-12+060699999V0203301N001012200019N0400001N1-00721-01471098971ADDAA112000091AY101061AY201061GF102991001001999999001081KA1120M-00211MA1999999091661MD1310131+9999MW1011REMSYN094AAXX  24181 01245 11982 23301 11072 21147 39166 49897 53013 60002 70100 80008 333 11021 4////;EQDQ01  00002PRCP12
0282012450999992008032506004+62600+009667FM-12+060699999V0203201N001010210019N0300001N1-01391-01921099461ADDAA112000091AA224000091AJ100909199999999AY121061AY201061GF106991061001022501011001IA1239KA1120N-01431MA1999999091921MD1210121+9999MW1021REMSYN100AAXX  25061 01245 11880 63201 11139 21192 39192 49946 52012 60002 70220 86010 333 21143 47090 70000;EQDQ01  00002PRCP24Q02  00002PRCP12
0171012450999992008032509004+62600+009667FM-12+060699999V0209999C000012200019N0300001N1-01171-01781099521ADDAY121031AY201031GF103991011011012501011001MA1999999092051MD1210121+9999MW1011REMSYN082AAXX  25091 01245 41680 30000 11117 21178 39205 49952 52012 70120 81110 333 4////;
0177012450999992008032512004+62600+009667FM-12+060699999V0209999C000010300019N0300001N1-00671-01431099461ADDAY111061AY201061GF105991031011012501011001MA1999999092121MD1210081+9999MW1031REMSYN088AAXX  25121 01245 11680 50000 11067 21143 39212 49946 52008 6//// 70310 83110 333 4////;
0226012450999992008032518004+62600+009667FM-12+060699999V0200901N001012200019N0300001N1-00681-01331099701ADDAA112000091AY111061AY201061GF103991031001022501031001KA1120M-00191MA1999999092351MD1210151+9999MW1011REMSYN094AAXX  25181 01245 11880 30901 11068 21133 39235 49970 52015 60002 70110 83030 333 11019 4////;EQDQ01  00002PRCP12
0292012450999992008032606004+62600+009667FM-12+060699999V0203001N001012200019N0400001N1-01061-01451100031ADDAA112000091AA224000091AJ100899199999999AY121061AY201061GA1001+999999999GF100991001001999999001001IA1239KA1120N-01301MA1999999092551MD1210031+9999MW1011REMSYN094AAXX  26061 01245 11982 03001 11106 21145 39255 40003 52003 60002 70120 333 21130 47089 70000;EQDQ01  00002PRCP24Q02  00002PRCP12
0181012450999992008032609004+62600+009667FM-12+060699999V0209999C000012200019N0400001N1-00791-01331099951ADDAY101031AY201031GA1001+999999999GF100991001001999999001001MA1999999092551MD1010011+9999MW1021REMSYN076AAXX  26091 01245 41982 00000 11079 21133 39255 49995 50001 70200 333 4////;
0187012450999992008032612004+62600+009667FM-12+060699999V0203001N001012200019N0400001N1-00381-01171099751ADDAY101061AY201061GA1001+999999999GF100991001001999999001001MA1999999092471MD1810091+9999MW1021REMSYN082AAXX  26121 01245 11982 03001 11038 21117 39247 49975 58009 6//// 70200 333 4////;
0226012450999992008032618004+62600+009667FM-12+060699999V0203601N001012200019N0400001N1-00451-01311099791ADDAA112000091AY101061AY201061GF101991011011012501001001KA1120M-00121MA1999999092481MD1210041+9999MW1031REMSYN094AAXX  26181 01245 11682 13601 11045 21131 39248 49979 52004 60002 70300 81100 333 11012 4////;EQDQ01  00002PRCP12
0282012450999992008032706004+62600+009667FM-12+060699999V0209999C000012200019N0400001N1-01321-01521100181ADDAA112000091AA224000091AJ100899199999999AY101061AY201061GF104991041041012501001001IA1239KA1120N-01401MA1999999092621MD1210061+9999MW1031REMSYN100AAXX  27061 01245 11682 40000 11132 21152 39262 40018 52006 60002 70300 84400 333 21140 47089 70000;EQDQ01  00002PRCP24Q02  00002PRCP12
0171012450999992008032709004+62600+009667FM-12+060699999V0209999C000012200019N0400001N1-00641-01131100071ADDAY101031AY201031GF104991041041012501001001MA1999999092701MD1210081+9999MW1021REMSYN082AAXX  27091 01245 41682 40000 11064 21113 39270 40007 52008 70200 84400 333 4////;
0177012450999992008032712004+62600+009667FM-12+060699999V0203201N001012200019N0400001N1-00171-00981100001ADDAY101061AY201061GF103991021001022501031011MA1999999092761MD1210061+9999MW1011REMSYN088AAXX  27121 01245 11882 33201 11017 21098 39276 40000 52006 6//// 70100 82031 333 4////;
0226012450999992008032718004+62600+009667FM-12+060699999V0203601N001012200019N0400001N1-00441-01321100341ADDAA112000091AY101061AY201061GF102991001001999999001081KA1120M+00011MA1999999093001MD1310111+9999MW1011REMSYN094AAXX  27181 01245 11982 23601 11044 21132 39300 40034 53011 60002 70100 80008 333 10001 4////;EQDQ01  00002PRCP12
0282012450999992008032806004+62600+009667FM-12+060699999V0203201N001012200019N0400001N1-00651-01361100431ADDAA112000091AA224000091AJ100899199999999AY101061AY201061GF102991021001022501041001IA1239KA1120N-01001MA1999999093021MD1710021+9999MW1031REMSYN100AAXX  28061 01245 11882 23201 11065 21136 39302 40043 57002 60002 70300 82040 333 21100 47089 70000;EQDQ01  00002PRCP24Q02  00002PRCP12
0171012450999992008032809004+62600+009667FM-12+060699999V0203001N001010300019N0400001N1-00261-01041100241ADDAY121031AY201031GF105991031041017501041011MA1999999092961MD1710071+9999MW1031REMSYN082AAXX  28091 01245 41782 53001 11026 21104 39296 40024 57007 70320 83441 333 4////;
0177012450999992008032812004+62600+009667FM-12+060699999V0202301N005010300019N0400001N1-00141-00901100141ADDAY121061AY201061GF106991021011012501031001MA1999999092881MD1810071+9999MW1031REMSYN088AAXX  28121 01245 11682 62305 11014 21090 39288 40014 58007 6//// 70320 82130 333 4////;
0226012450999992008032818004+62600+009667FM-12+060699999V0202101N005010150019N0400001N1+00051-00651100131ADDAA112000091AY121061AY221061GF107991071001017501071001KA1120M+00201MA1999999092921MD1210021+9999MW1021REMSYN094AAXX  28181 01245 11782 72105 10005 21065 39292 40013 52002 60002 70222 87070 333 10020 4////;EQDQ01  00002PRCP12
0282012450999992008032906004+62600+009667FM-12+060699999V0201801N003010042019N0100001N1+00101-00351099741ADDAA112000091AA224000091AJ100869199999999AY121061AY221061GF107991061071004501041001IA1239KA1120N-00051MA1999999092571MD1610141+9999MW1021REMSYN100AAXX  29061 01245 11460 71803 10010 21035 39257 49974 56014 60002 70222 86740 333 21005 47086 70000;EQDQ01  00002PRCP24Q02  00002PRCP12
0171012450999992008032909004+62600+009667FM-12+060699999V0202301N007010042019N0100001N1+00201-00371099701ADDAY171031AY221031GF107991061051004501041001MA1999999092571MD1710021+9999MW1701REMSYN082AAXX  29091 01245 41460 72307 10020 21037 39257 49970 57002 77072 86540 333 4////;
0177012450999992008032912004+62600+009667FM-12+060699999V0202301N007010075019N0200001N1+00361-00321099691ADDAY171061AY221061GF106991061051008001001001MA1999999092601MD1010041+9999MW1151REMSYN088AAXX  29121 01245 11570 62307 10036 21032 39260 49969 50004 6//// 71572 86500 333 4////;
0207012450999992008032918004+62600+009667FM-12+060699999V0202701N003010750019N0300001N1+00261-00411099871ADDAA112000021AY121061AY221061GF105991021011012501041041KA1120M+00411MA1999999092731MD1310111+9999MW1011REMSYN094AAXX  29181 01245 11680 52703 10026 21041 39273 49987 53011 69902 70122 82144 333 10041 4////;
0266012450999992008033006004+62600+009667FM-12+060699999V0200501N001012200019N0400001N1-00181-00761100421ADDAA112000091AA224000391AJ100869199999999AY171061AY211061GF103991021011012501061001IA1239KA1120N-00261MA1999999093131MD1010021+9999MW1011REMSYN100AAXX  30061 01245 11682 30501 11018 21076 39313 40042 50002 69922 70171 82160 333 21026 47086 70002;EQDQ01  00002PRCP12
0171012450999992008033009004+62600+009667FM-12+060699999V0203201N003012200019N0400001N1+00301-00611100241ADDAY101031AY201031GF104991031011012501061001MA1999999093101MD1810041+9999MW1031REMSYN082AAXX  30091 01245 41682 43203 10030 21061 39310 40024 58004 70300 83160 333 4////;
0177012450999992008033012004+62600+009667FM-12+060699999V0201801N005010300019N0400001N1+00451-00371100221ADDAY121061AY201061GF107991041011012501011999MA1999999093121MD1010021+9999MW1031REMSYN088AAXX  30121 01245 11682 71805 10045 21037 39312 40022 50002 6//// 70320 8411/ 333 4////;
0226012450999992008033018004+62600+009667FM-12+060699999V0201501N010010042019N0100001N1+00401-00261099811ADDAA112000091AY161061AY221061GF106991051051004501011999KA1120M+00601MA1999999092721MD1810161+9999MW1151REMSYN094AAXX  30181 01245 11460 61510 10040 21026 39272 49981 58016 69902 71562 8551/ 333 10060 4////;EQDQ01  00002PRCP12
0282012450999992008033106004+62600+009667FM-12+060699999V0202301N005012200019N0400001N1+00331-00351100391ADDAA112000091AA224000091AJ100849199999999AY161061AY211061GF104991021011012501031001IA1239KA1120N+00231MA1999999093231MD1310171+9999MW1011REMSYN100AAXX  31061 01245 11682 42305 10033 21035 39323 40039 53017 69902 70161 82130 333 20023 47084 70000;EQDQ01  00002PRCP24Q02  00002PRCP12
0171012450999992008033109004+62600+009667FM-12+060699999V0202301N003012200019N0400001N1+00561-00321100581ADDAY111031AY201031GF103991011011012501031001MA1999999093471MD1310221+9999MW1011REMSYN082AAXX  31091 01245 41682 32303 10056 21032 39347 40058 53022 70110 81130 333 4////;
0177012450999992008033112004+62600+009667FM-12+060699999V0202401N003012200019N0400001N1+00601-00391100761ADDAY111061AY201061GF103991021011012501031001MA1999999093651MD1210161+9999MW1021REMSYN088AAXX  31121 01245 11682 32403 10060 21039 39365 40076 52016 6//// 70210 82130 333 4////;
0226012450999992008033118004+62600+009667FM-12+060699999V0202701N005010300019N0400001N1+00561-00421100971ADDAA112000091AY121061AY201061GF105991041041012501041001KA1120M+00771MA1999999093831MD1310111+9999MW1031REMSYN094AAXX  31181 01245 11682 52705 10056 21042 39383 40097 53011 60002 70320 84440 333 10077 4////;EQDQ01  00002PRCP12
0282012450999992008040106004+62600+009667FM-12+060699999V0202301N001012200019N0400001N1+00301-00721101271ADDAA112000091AA224000091AJ100809199999999AY121061AY201061GF103991021001022501041011IA1239KA1120N+00201MA1999999094051MD1410001+9999MW1031REMSYN100AAXX  01061 01245 11882 32301 10030 21072 39405 40127 54000 60002 70320 82041 333 20020 47080 70000;EQDQ01  00002PRCP24Q02  00002PRCP12
0171012450999992008040109004+62600+009667FM-12+060699999V0202301N005010300019N0400001N1+00371-00571101261ADDAY121031AY201031GF106991041011012501011001MA1999999094061MD1010021+9999MW1031REMSYN082AAXX  01091 01245 41682 62305 10037 21057 39406 40126 50002 70320 84110 333 4////;
0177012450999992008040112004+62600+009667FM-12+060699999V0202301N007010750019N0400001N1+00501-00431101211ADDAY121061AY201061GF105991021011012501041011MA1999999094051MD1710021+9999MW1021REMSYN088AAXX  01121 01245 11682 52307 10050 21043 39405 40121 57002 6//// 70220 82141 333 4////;
0226012450999992008040118004+62600+009667FM-12+060699999V0201501N010010120019N0400001N1+00391-00401101051ADDAA112000091AY121061AY221061GF107991051011012501011999KA1120M+00601MA1999999093871MD1610101+9999MW1031REMSYN094AAXX  01181 01245 11682 71510 10039 21040 39387 40105 56010 60002 70322 8511/ 333 10060 4////;EQDQ01  00002PRCP12
0282012450999992008040206004+62600+009667FM-12+060699999V0209999C000010120019N0300001N1+00351-00221101161ADDAA112000091AA224000091AJ100769199999999AY121061AY221061GF107991071051012501999999IA1239KA1120N+00281MA1999999093961MD1210081+9999MW1021REMSYN100AAXX  02061 01245 11680 70000 10035 21022 39396 40116 52008 60002 70222 875// 333 20028 47076 70000;EQDQ01  00002PRCP24Q02  00002PRCP12
0171012450999992008040209004+62600+009667FM-12+060699999V0209999C000010120019N0300001N1+00461-00141101231ADDAY121031AY221031GF107991051051012501011999MA1999999094061MD1310101+9999MW1021REMSYN082AAXX  02091 01245 41680 70000 10046 21014 39406 40123 53010 70222 8551/ 333 4////;
0177012450999992008040212004+62600+009667FM-12+060699999V0202301N001010120019N0300001N1+00571-00121101311ADDAY121061AY221061GF106991051051012501011001MA1999999094161MD1210091+9999MW1011REMSYN088AAXX  02121 01245 11680 62301 10057 21012 39416 40131 52009 6//// 70122 85510 333 4////;
0226012450999992008040218004+62600+009667FM-12+060699999V0209999C000010750019N0300001N1+00441-00241101561ADDAA112000091AY121061AY221061GF105991011051012501011011KA1120M+00691MA1999999094361MD1310101+9999MW1011REMSYN094AAXX  02181 01245 11680 50000 10044 21024 39436 40156 53010 60002 70122 81511 333 10069 4////;EQDQ01  00002PRCP12
0282012450999992008040306004+62600+009667FM-12+060699999V0209999C000010120019N0300001N1+00001-00171102241ADDAA112000091AA224000091AJ100749199999999AY121061AY221061GF106991061051012501001001IA1239KA1120N-00061MA1999999094871MD1310071+9999MW1021REMSYN100AAXX  03061 01245 11680 60000 10000 21017 39487 40224 53007 60002 70222 86500 333 21006 47074 70000;EQDQ01  00002PRCP24Q02  00002PRCP12
0171012450999992008040309004+62600+009667FM-12+060699999V0209999C000012200019N0400001N1+00331-00161102221ADDAY121031AY201031GF103991031001022501031001MA1999999094931MD1310061+9999MW1011REMSYN082AAXX  03091 01245 41882 30000 10033 21016 39493 40222 53006 70120 83030 333 4////;
0177012450999992008040312004+62600+009667FM-12+060699999V0203001N001010150019N0300001N1+00461-00161102151ADDAY181061AY211061GF107991071081012501999999MA1999999094911MD1710031+9999MW1031REMSYN088AAXX  03121 01245 11680 73001 10046 21016 39491 40215 57003 6//// 70381 878// 333 4////;
0226012450999992008040318004+62600+009667FM-12+060699999V0209999C000012200019N0300001N1+00261-00011102161ADDAA112000091AY181061AY211061GF104991041021008001001001KA1120M+00631MA1999999094871MD1710061+9999MW1011REMSYN094AAXX  03181 01245 11580 40000 10026 21001 39487 40216 57006 69902 70181 84200 333 10063 4////;EQDQ01  00002PRCP12
0247012450999992008040406004+62600+009667FM-12+060699999V0202301N001010021019N0100001N1+00191-00361101101ADDAA112000021AA224000021AJ100729199999999AY171061AY211061GF108991071051002501021999IA1239KA1120N-00101MA1999999093871MD1610441+9999MW1701REMSYN100AAXX  04061 01245 11360 82301 10019 21036 39387 40110 56044 69902 77071 8752/ 333 21010 47072 70000;
0171012450999992008040409004+62600+009667FM-12+060699999V0202301N001010300019N0300001N1+00441-00311100511ADDAY171031AY221031GF107991031071012501021001MA1999999093371MD1610511+9999MW1011REMSYN082AAXX  04091 01245 41680 72301 10044 21031 39337 40051 56051 70172 83720 333 4////;
0177012450999992008040412004+62600+009667FM-12+060699999V0202301N003010300019N0300001N1+00631-00181100151ADDAY171061AY221061GF106991041051012501041001MA1999999093081MD1610281+9999MW1011REMSYN088AAXX  04121 01245 11680 62303 10063 21018 39308 40015 56028 6//// 70172 84540 333 4////;
0207012450999992008040418004+62600+009667FM-12+060699999V0203201N001012200019N0400001N1+00331-00181100111ADDAA112000591AY171061AY211061GF103991021011012501041001KA1120M+00761MA1999999092971MD1610171+9999MW1011REMSYN094AAXX  04181 01245 11682 33201 10033 21018 39297 40011 56017 69942 70171 82140 333 10076 4////;
0266012450999992008040506004+62600+009667FM-12+060699999V0202101N001010075019N0100001N1-00081-00761099771ADDAA112000091AA224000591AJ100709199999999AY121061AY201061GF108991081051008001999999IA1239KA1120N-00201MA1999999092571MD1710101+9999MW1031REMSYN100AAXX  05061 01245 11560 82101 11008 21076 39257 49977 57010 60002 70320 885// 333 21020 47070 70004;EQDQ01  00002PRCP12
0171012450999992008040509004+62600+009667FM-12+060699999V0203201N001010075019N0200001N1-00041-00401099841ADDAY171031AY221031GF108991051051008001021999MA1999999092631MD1310071+9999MW1701REMSYN082AAXX  05091 01245 41570 83201 11004 21040 39263 49984 53007 77072 8552/ 333 4////;
0177012450999992008040512004+62600+009667FM-12+060699999V0203001N001010042019N0100001N1+00041-00311100011ADDAY181061AY271061GF106991061021004501001001MA1999999092821MD1310191+9999MW1851REMSYN088AAXX  05121 01245 11460 63001 10004 21031 39282 40001 53019 6//// 78587 86200 333 4////;
0207012450999992008040518004+62600+009667FM-12+060699999V0202701N003010075019N0200001N1-00041-00351100211ADDAA112000021AY181061AY221061GF105991051021008001001001KA1120M+00211MA1999999092971MD1310071+9999MW1011REMSYN094AAXX  05181 01245 11570 52703 11004 21035 39297 40021 53007 69922 70182 85200 333 10021 4////;
0247012450999992008040606004+62600+009667FM-12+060699999V0209999C000010075019N0200001N1-00171-00341100481ADDAA112000591AA224000591AJ100689199999999AY171061AY221061GF105991051051008001001001IA1239KA1120N-00241MA1999999093201MD1210081+9999MW1701REMSYN100AAXX  06061 01245 11570 50000 11017 21034 39320 40048 52008 69942 77072 85500 333 21024 47068 70006;
0171012450999992008040609004+62600+009667FM-12+060699999V0209999C000010120019N0300001N1+00061-00501100521ADDAY171031AY221031GF106991061051012501001001MA1999999093301MD1210101+9999MW1011REMSYN082AAXX  06091 01245 41680 60000 10006 21050 39330 40052 52010 70172 86500 333 4////;
0177012450999992008040612004+62600+009667FM-12+060699999V0200901N003010120019N0300001N1+00201-00701100521ADDAY121061AY221061GF106991061051012501001001MA1999999093321MD1210031+9999MW1021REMSYN088AAXX  06121 01245 11680 60903 10020 21070 39332 40052 52003 6//// 70222 86500 333 4////;
0207012450999992008040618004+62600+009667FM-12+060699999V0200901N005010300019N0200001N1+00031-00411100641ADDAA112000021AY171061AY221061GF107991031051004501021999KA1120M+00421MA1999999093401MD1310021+9999MW1701REMSYN094AAXX  06181 01245 11470 70905 10003 21041 39340 40064 53002 69902 77072 8352/ 333 10042 4////;
0247012450999992008040706004+62600+009667FM-12+060699999V0200601N005010042019N0200001N1+00061-00351100731ADDAA112000021AA224000021AJ100689199999999AY171061AY221061GF107991051051004501021999IA1239KA1120N-00071MA1999999093481MD1210031+9999MW1701REMSYN100AAXX  07061 01245 11470 70605 10006 21035 39348 40073 52003 69902 77072 8552/ 333 21007 47068 70000;
0171012450999992008040709004+62600+009667FM-12+060699999V0201201N005010021019N0060001N1-00031-00131100721ADDAY171031AY271031GF107991061051002501021999MA1999999093461MD1810021+9999MW1711REMSYN082AAXX  07091 01245 41356 71205 11003 21013 39346 40072 58002 77177 8652/ 333 4////;
0177012450999992008040712004+62600+009667FM-12+060699999V0201201N003010012019N0060001N1-00021-00121100621ADDAY171061AY271061GF107991071001001501021999MA1999999093371MD1710091+9999MW1711REMSYN088AAXX  07121 01245 11256 71203 11002 21012 39337 40062 57009 6//// 77177 8702/ 333 4////;
0207012450999992008040718004+62600+009667FM-12+060699999V0200501N010010300019N0200001N1+00001-00301100501ADDAA112002091AY171061AY221061GF105991031021008001041001KA1120M+00191MA1999999093261MD1510051+9999MW1011REMSYN094AAXX  07181 01245 11570 50510 10000 21030 39326 40050 55005 60022 70172 83240 333 10019 4////;
0266012450999992008040806004+62600+009667FM-12+060699999V0202701N003012200019N0400001N1+00021-00841100491ADDAA112000091AA224001591AJ100709199999999AY121061AY201061GF102991011011012501001041IA1239KA1120N-00071MA1999999093261MD1310011+9999MW1011REMSYN100AAXX  08061 01245 11682 22703 10002 21084 39326 40049 53001 60002 70120 81104 333 21007 47070 70016;EQDQ01  00002PRCP12
0171012450999992008040809004+62600+009667FM-12+060699999V0202301N003012200019N0400001N1+00291-00781100461ADDAY101031AY201031GF103991001001999999001041MA1999999093301MD1310051+9999MW1031REMSYN082AAXX  08091 01245 41982 32303 10029 21078 39330 40046 53005 70300 80004 333 4////;
0177012450999992008040812004+62600+009667FM-12+060699999V0202301N001012200019N0400001N1+00511-00441100391ADDAY101061AY201061GF104991001001999999001081MA1999999093281MD1710011+9999MW1031REMSYN088AAXX  08121 01245 11982 42301 10051 21044 39328 40039 57001 6//// 70300 80008 333 4////;
0226012450999992008040818004+62600+009667FM-12+060699999V0200301N005010300019N0400001N1+00261-00751100371ADDAA112000091AY121061AY201061GF105991031011012501011001KA1120M+00591MA1999999093211MD1710061+9999MW1031REMSYN094AAXX  08181 01245 11682 50305 10026 21075 39321 40037 57006 60002 70320 83110 333 10059 4////;EQDQ01  00002PRCP12
0247012450999992008040906004+62600+009667FM-12+060699999V0209999C000010075019N0200001N1+00001-00311100091ADDAA112000021AA224000021AJ100709199999999AY171061AY221061GF108991051071008001021999IA1239KA1120N-00051MA1999999092871MD1710121+9999MW1701REMSYN100AAXX  09061 01245 11570 80000 10000 21031 39287 40009 57012 69902 77072 8572/ 333 21005 47070 70000;
0171012450999992008040909004+62600+009667FM-12+060699999V0209999C000010075019N0200001N1+00051-00201100021ADDAY171031AY221031GF108991051071008001021999MA1999999092821MD1710051+9999MW1711REMSYN082AAXX  09091 01245 41570 80000 10005 21020 39282 40002 57005 77172 8572/ 333 4////;
0177012450999992008040912004+62600+009667FM-12+060699999V0200601N003010075019N0200001N1+00171-00391099881ADDAY171061AY221061GF107991061071008001021999MA1999999092721MD1710101+9999MW1011REMSYN088AAXX  09121 01245 11570 70603 10017 21039 39272 49988 57010 6//// 70172 8672/ 333 4////;
0207012450999992008040918004+62600+009667FM-12+060699999V0201201N001010012019N0050001N1-00071-00171099761ADDAA112000021AY171061AY221061GF108991081001001501021999KA1120M+00301MA1999999092561MD1610081+9999MW1711REMSYN094AAXX  09181 01245 11250 81201 11007 21017 39256 49976 56008 69912 77172 8802/ 333 10030 4////;
0247012450999992008041006004+62600+009667FM-12+060699999V0200601N001010075019N0200001N1-00181-00571099601ADDAA112007191AA224007191AJ100779199999999AY171061AY221061GF107991061071008001021999IA1239KA1120N-00311MA1999999092371MD1610051+9999MW1011REMSYN100AAXX  10061 01245 11570 70601 11018 21057 39237 49960 56005 60072 70172 8672/ 333 21031 47077 70070;
0171012450999992008041009004+62600+009667FM-12+060699999V0200901N001010075019N0200001N1-00051-00621099631ADDAY121031AY221031GF107991051071008001021999MA1999999092431MD1210061+9999MW1021REMSYN082AAXX  10091 01245 41570 70901 11005 21062 39243 49963 52006 70222 8572/ 333 4////;
0177012450999992008041012004+62600+009667FM-12+060699999V0201801N001012200019N0400001N1+00381-00541099611ADDAY121061AY201061GF104991041011012501001001MA1999999092521MD1210091+9999MW1011REMSYN088AAXX  10121 01245 11682 41801 10038 21054 39252 49961 52009 6//// 70120 84100 333 4////;
0226012450999992008041018004+62600+009667FM-12+060699999V0200901N001012200019N0400001N1+00191-00841099841ADDAA112000091AY121061AY201061GF104991021011012501041011KA1120M+00501MA1999999092701MD1310081+9999MW1021REMSYN094AAXX  10181 01245 11682 40901 10019 21084 39270 49984 53008 60002 70220 82141 333 10050 4////;EQDQ01  00002PRCP12
0282012450999992008041106004+62600+009667FM-12+060699999V0203301N001012200019N0400001N1-00021-00571100191ADDAA112000091AA224000091AJ100729199999999AY101061AY201061GF103991021011012501001011IA1239KA1120N-00071MA1999999092971MD1310051+9999MW1021REMSYN100AAXX  11061 01245 11682 33301 11002 21057 39297 40019 53005 60002 70200 82101 333 21007 47072 70000;EQDQ01  00002PRCP24Q02  00002PRCP12
0190012450999992008041109004+62600+009667FM-12+060699999V0203201N001012200019N0400001N1+99999+99999999999ADDAY101031AY201031GF103991021011012501001011MA1999999093101MD1210141+9999MW1021REMSYN082AAXX  11091 01245 41682 33201 1//// 2//// 39310 49955 52014 70200 82101 333 4////;EQDQ01+099553APOSLP
0177012450999992008041112004+62600+009667FM-12+060699999V0201801N001012200019N0400001N1+00431-00811100351ADDAY101061AY201061GF103991031011012501001001MA1999999093221MD1210121+9999MW1031REMSYN088AAXX  11121 01245 11682 31801 10043 21081 39322 40035 52012 6//// 70300 83100 333 4////;
0242012450999992008041118004+62600+009667FM-12+060699999V0202301N001012200019N0400001N1+00341-03762100531ADDAA112000091AY101061AY201061GF103991031011012501001001KA1120M+00641MA1999999093371MD1310071+9999MW1021REMSYN094AAXX  11181 01245 11682 32301 10034 21376 39337 40053 53007 60002 70200 83100 333 10064 4////;EQDQ01-003763ATOD  Q02  00002PRCP12
0282012450999992008041206004+62600+009667FM-12+060699999V0209999C000010210019N0400001N1-00451-00931100881ADDAA112000091AA224000091AJ100689199999999AY121061AY201061GF106991061001022501011001IA1239KA1120N-00501MA1999999093501MD1710071+9999MW1031REMSYN100AAXX  12061 01245 11882 60000 11045 21093 39350 40088 57007 60002 70320 86010 333 21050 47068 70000;EQDQ01  00002PRCP24Q02  00002PRCP12
0171012450999992008041209004+62600+009667FM-12+060699999V0203601N001010300019N0300001N1+00141-00531100721ADDAY121031AY221031GF108991021011008001011999MA1999999093501MD1010011+9999MW1031REMSYN082AAXX  12091 01245 41580 83601 10014 21053 39350 40072 50001 70322 8211/ 333 4////;
0177012450999992008041212004+62600+009667FM-12+060699999V0200301N003010300019N0300001N1+00231-00421100661ADDAY121061AY221061GF107991031011008001011999MA1999999093471MD1710031+9999MW1011REMSYN088AAXX  12121 01245 11580 70303 10023 21042 39347 40066 57003 6//// 70122 8311/ 333 4////;
0226012450999992008041218004+62600+009667FM-12+060699999V0200301N001010075019N0300001N1+00111-00551100641ADDAA112000091AY121061AY221061GF105991051011008001001001KA1120M+00381MA1999999093421MD1510001+9999MW1011REMSYN094AAXX  12181 01245 11580 50301 10011 21055 39342 40064 55000 60002 70122 85100 333 10038 4////;EQDQ01  00002PRCP12
0282012450999992008041306004+62600+009667FM-12+060699999V0201901N001012200019N0300001N1+00141-00571100541ADDAA112000091AA224000091AJ100689199999999AY121061AY211061GF103991031011012501001001IA1239KA1120N-00051MA1999999093331MD1210041+9999MW1011REMSYN100AAXX  13061 01245 11680 31901 10014 21057 39333 40054 52004 60002 70121 83100 333 21005 47068 70000;EQDQ01  00002PRCP24Q02  00002PRCP12
0171012450999992008041309004+62600+009667FM-12+060699999V0201401N001012200019N0300001N1+00261-00621100521ADDAY101031AY201031GF103991031011012501001001MA1999999093351MD1210011+9999MW1021REMSYN082AAXX  13091 01245 41680 31401 10026 21062 39335 40052 52001 70200 83100 333 4////;
0177012450999992008041312004+62600+009667FM-12+060699999V0202301N001012200019N0400001N1+00491-00461100451ADDAY101061AY201061GF103991031011012501001001MA1999999093331MD1710011+9999MW1021REMSYN088AAXX  13121 01245 11682 32301 10049 21046 39333 40045 57001 6//// 70200 83100 333 4////;
0226012450999992008041318004+62600+009667FM-12+060699999V0202301N003012200019N0400001N1+00351-00541100451ADDAA112000091AY101061AY201061GF103991031011012501001001KA1120M+00551MA1999999093301MD1510031+9999MW1021REMSYN094AAXX  13181 01245 11682 32303 10035 21054 39330 40045 55003 60002 70200 83100 333 10055 4////;EQDQ01  00002PRCP12
0282012450999992008041406004+62600+009667FM-12+060699999V0209999C000012200019N0400001N1-00241-00711100621ADDAA112000091AA224000091AJ100649199999999AY101061AY201061GF103991031001022501031001IA1239KA1120N-00361MA1999999093311MD1510001+9999MW1031REMSYN100AAXX  14061 01245 11882 30000 11024 21071 39331 40062 55000 60002 70300 83030 333 21036 47064 70000;EQDQ01  00002PRCP24Q02  00002PRCP12
0171012450999992008041409004+62600+009667FM-12+060699999V0203001N001010120019N0400001N1+00161-00511100561ADDAY121031AY201031GF106991061051012501001001MA1999999093361MD1210051+9999MW1031REMSYN082AAXX  14091 01245 41682 63001 10016 21051 39336 40056 52005 70320 86500 333 4////;
0177012450999992008041412004+62600+009667FM-12+060699999V0203001N001010150019N0400001N1+00411-00461100571ADDAY121061AY201061GF106991061081012501001001MA1999999093421MD1210061+9999MW1021REMSYN088AAXX  14121 01245 11682 63001 10041 21046 39342 40057 52006 6//// 70220 86800 333 4////;
0226012450999992008041418004+62600+009667FM-12+060699999V0202701N003010120019N0300001N1+00181-00331100901ADDAA112000091AY181061AY221061GF106991061081008001001001KA1120M+00491MA1999999093671MD1110171+9999MW1011REMSYN094AAXX  14181 01245 11580 62703 10018 21033 39367 40090 51017 69902 70182 86800 333 10049 4////;EQDQ01  00002PRCP12
0247012450999992008041506004+62600+009667FM-12+060699999V0203201N001010075019N0200001N1-00091-00391101641ADDAA112000591AA224000591AJ100629199999999AY181061AY221061GF106991061021008001001001IA1239KA1120N-00121MA1999999094301MD1310131+9999MW1851REMSYN100AAXX  15061 01245 11570 63201 11009 21039 39430 40164 53013 69942 78582 86200 333 21012 47062 70004;
0171012450999992008041509004+62600+009667FM-12+060699999V0203001N001010120019N0300001N1+00081-00541101771ADDAY181031AY221031GF105991051021012501001001MA1999999094461MD1210161+9999MW1011REMSYN082AAXX  15091 01245 41680 53001 10008 21054 39446 40177 52016 70182 85200 333 4////;
0177012450999992008041512004+62600+009667FM-12+060699999V0209999C000010120019N0300001N1+00191-00711101861ADDAY181061AY221061GF106991061021012501001001MA1999999094571MD1210101+9999MW1031REMSYN088AAXX  15121 01245 11680 60000 10019 21071 39457 40186 52010 6//// 70382 86200 333 4////;
0207012450999992008041518004+62600+009667FM-12+060699999V0200601N001010075019N0300001N1-00041-00351102101ADDAA112000021AY181061AY221061GF106991061021008001001001KA1120M+00251MA1999999094731MD1210091+9999MW1011REMSYN094AAXX  15181 01245 11580 60601 11004 21035 39473 40210 52009 69912 70182 86200 333 10025 4////;
0266012450999992008041606004+62600+009667FM-12+060699999V0209999C000012200019N0400001N1-00341-00621102421ADDAA112000091AA224000391AJ100639199999999AY181061AY211061GF104991031001017501031011IA1239KA1120N-00441MA1999999094961MD1210021+9999MW1031REMSYN100AAXX  16061 01245 11782 40000 11034 21062 39496 40242 52002 69912 70381 83031 333 21044 47063 70002;EQDQ01  00002PRCP12
0171012450999992008041609004+62600+009667FM-12+060699999V0202401N001012200019N0400001N1-00021-00511102431ADDAY101031AY201031GF103991011011012501031011MA1999999095051MD1210091+9999MW1011REMSYN082AAXX  16091 01245 41682 32401 11002 21051 39505 40243 52009 70100 81131 333 4////;
0177012450999992008041612004+62600+009667FM-12+060699999V0203001N001010750019N0400001N1+00231-00681102381ADDAY121061AY201061GF106991021011012501001071MA1999999095071MD1210011+9999MW1031REMSYN088AAXX  16121 01245 11682 63001 10023 21068 39507 40238 52001 6//// 70320 82107 333 4////;
0226012450999992008041618004+62600+009667FM-12+060699999V0203001N001012200019N0400001N1+00141-00921102441ADDAA112000091AY101061AY201061GF104991001001999999001081KA1120M+00391MA1999999095101MD1210021+9999MW1021REMSYN094AAXX  16181 01245 11982 43001 10014 21092 39510 40244 52002 60002 70200 80008 333 10039 4////;EQDQ01  00002PRCP12
0282012450999992008041706004+62600+009667FM-12+060699999V0209999C000012200019N0400001N1-00541-01031102681ADDAA112000091AA224000091AJ100639199999999AY101061AY201061GF103991001001999999001081IA1239KA1120N-00641MA1999999095131MD1510061+9999MW1021REMSYN100AAXX  17061 01245 11982 30000 11054 21103 39513 40268 55006 60002 70200 80008 333 21064 47063 70000;EQDQ01  00002PRCP24Q02  00002PRCP12
0171012450999992008041709004+62600+009667FM-12+060699999V0209999C000012200019N0400001N1+00041-00851102491ADDAY101031AY201031GF101991001001999999001011MA1999999095121MD1710021+9999MW1011REMSYN082AAXX  17091 01245 41982 10000 10004 21085 39512 40249 57002 70100 80001 333 4////;
0177012450999992008041712004+62600+009667FM-12+060699999V0203001N001012200019N0400001N1+00411-00671102241ADDAY101061AY201061GF101991001001999999001011MA1999999094971MD1710131+9999MW1011REMSYN088AAXX  17121 01245 11982 13001 10041 21067 39497 40224 57013 6//// 70100 80001 333 4////;
0226012450999992008041718004+62600+009667FM-12+060699999V0209999C000012200019N0400001N1+00311-00651102071ADDAA112000091AY101061AY201061GF103991011001022501041091KA1120M+00561MA1999999094801MD1710091+9999MW1031REMSYN094AAXX  17181 01245 11882 30000 10031 21065 39480 40207 57009 60002 70300 81049 333 10056 4////;EQDQ01  00002PRCP12
0282012450999992008041806004+62600+009667FM-12+060699999V0209999C000010120019N0400001N1-00301-00531101941ADDAA112000091AA224000091AJ100629199999999AY121061AY201061GF106991061051012501001001IA1239KA1120N-00351MA1999999094521MD1710111+9999MW1011REMSYN100AAXX  18061 01245 11682 60000 11030 21053 39452 40194 57011 60002 70120 86500 333 21035 47062 70000;EQDQ01  00002PRCP24Q02  00002PRCP12
0171012450999992008041809004+62600+009667FM-12+060699999V0203001N001010120019N0400001N1-00031-00471101791ADDAY121031AY221031GF107991071051012501999999MA1999999094451MD1810061+9999MW1031REMSYN082AAXX  18091 01245 41682 73001 11003 21047 39445 40179 58006 70322 875// 333 4////;
0177012450999992008041812004+62600+009667FM-12+060699999V0203001N001012200019N0400001N1+00061-00691101611ADDAY121061AY201061GF103991011011012501031011MA1999999094311MD1810151+9999MW1011REMSYN088AAXX  18121 01245 11682 33001 10006 21069 39431 40161 58015 6//// 70120 81131 333 4////;
0226012450999992008041818004+62600+009667FM-12+060699999V0203301N001012200019N0400001N1+00231-00551101331ADDAA112000091AY101061AY201061GF103991031051012501001001KA1120M+00441MA1999999094081MD1710101+9999MW1021REMSYN094AAXX  18181 01245 11682 33301 10023 21055 39408 40133 57010 60002 70200 83500 333 10044 4////;EQDQ01  00002PRCP12
0282012450999992008041906004+62600+009667FM-12+060699999V0201401N001010075019N0200001N1-00201-00541101381ADDAA112000091AA224000091AJ100609199999999AY121061AY201061GF107991071051008001999999IA1239KA1120N-00231MA1999999094021MD1510031+9999MW1031REMSYN100AAXX  19061 01245 11570 71401 11020 21054 39402 40138 55003 60002 70320 875// 333 21023 47060 70000;EQDQ01  00002PRCP24Q02  00002PRCP12
0171012450999992008041909004+62600+009667FM-12+060699999V0209999C000010120019N0400001N1+00121-00461101361ADDAY121031AY221031GF106991061051012501001001MA1999999094081MD1210051+9999MW1011REMSYN082AAXX  19091 01245 41682 60000 10012 21046 39408 40136 52005 70122 86500 333 4////;
0187012450999992008041912004+62600+009667FM-12+060699999V0209999C000012200019N0400001N1+00491-00381101231ADDAY111061AY201061GA1001+999999999GF100991001001999999001001MA1999999094061MD1710031+9999MW1011REMSYN082AAXX  19121 01245 11982 00000 10049 21038 39406 40123 57003 6//// 70110 333 4////;
0236012450999992008041918004+62600+009667FM-12+060699999V0203001N001012200019N0400001N1+00511-00391101231ADDAA112000091AY101061AY201061GA1001+999999999GF100991001001999999001001KA1120M+00751MA1999999094071MD1310021+9999MW1021REMSYN088AAXX  19181 01245 11982 03001 10051 21039 39407 40123 53002 60002 70200 333 10075 4////;EQDQ01  00002PRCP12
0282012450999992008042006004+62600+009667FM-12+060699999V0203201N001012200019N0300001N1-00301-00491101661ADDAA112000091AA224000091AJ100559199999999AY101061AY201061GF101991011051012501001001IA1239KA1120N-00321MA1999999094261MD1510011+9999MW1031REMSYN100AAXX  20061 01245 11680 13201 11030 21049 39426 40166 55001 60002 70300 81500 333 21032 47055 70000;EQDQ01  00002PRCP24Q02  00002PRCP12
0171012450999992008042009004+62600+009667FM-12+060699999V0202801N001012200019N0500001N1+00351-00291101531ADDAY101031AY201031GF101991011011012501001001MA1999999094311MD1210051+9999MW1021REMSYN082AAXX  20091 01245 41684 12801 10035 21029 39431 40153 52005 70200 81100 333 4////;
0177012450999992008042012004+62600+009667FM-12+060699999V0203001N001012200019N0400001N1+00651-00241101501ADDAY101061AY201061GF101991011011012501001001MA1999999094351MD1210041+9999MW1021REMSYN088AAXX  20121 01245 11682 13001 10065 21024 39435 40150 52004 6//// 70200 81100 333 4////;
0236012450999992008042018004+62600+009667FM-12+060699999V0200901N001012200019N0400001N1+00421-00161101611ADDAA112000091AY101061AY201061GA1001+999999999GF100991001001999999001001KA1120M+00841MA1999999094401MD1210031+9999MW1021REMSYN088AAXX  20181 01245 11982 00901 10042 21016 39440 40161 52003 60002 70200 333 10084 4////;EQDQ01  00002PRCP12
0292012450999992008042106004+62600+009667FM-12+060699999V0209999C000012200019N0400001N1-00331-00681102051ADDAA112000091AA224000091AJ100549199999999AY101061AY201061GA1001+999999999GF100991001001999999001001IA1309KA1120N-00481MA1999999094621MD1410001+9999MW1021REMSYN094AAXX  21061 01245 11982 00000 11033 21068 39462 40205 54000 60002 70200 333 21048 42054 70000;EQDQ01  00002PRCP24Q02  00002PRCP12
0181012450999992008042109004+62600+009667FM-12+060699999V0200901N001012200019N0400001N1+00281-00421101931ADDAY101031AY201031GA1001+999999999GF100991001001999999001001MA1999999094661MD1210041+9999MW1021REMSYN076AAXX  21091 01245 41982 00901 10028 21042 39466 40193 52004 70200 333 4////;
0187012450999992008042112004+62600+009667FM-12+060699999V0200901N001012200019N0400001N1+00541-00391101851ADDAY101061AY201061GA1001+999999999GF100991001001999999001001MA1999999094651MD1710011+9999MW1021REMSYN082AAXX  21121 01245 11982 00901 10054 21039 39465 40185 57001 6//// 70200 333 4////;
0236012450999992008042118004+62600+009667FM-12+060699999V0200601N001012200019N0400001N1+00641-00461101891ADDAA112000091AY101061AY201061GA1001+999999999GF100991001001999999001001KA1120M+00761MA1999999094711MD1210051+9999MW1021REMSYN088AAXX  21181 01245 11982 00601 10064 21046 39471 40189 52005 60002 70200 333 10076 4////;EQDQ01  00002PRCP12
0292012450999992008042206004+62600+009667FM-12+060699999V0209999C000012200019N0400001N1-00131-00671102221ADDAA112000091AA224000091AJ100519199999999AY101061AY201061GA1001+999999999GF100991001001999999001001IA1309KA1120N-00311MA1999999094821MD1710011+9999MW1021REMSYN094AAXX  22061 01245 11982 00000 11013 21067 39482 40222 57001 60002 70200 333 21031 42051 70000;EQDQ01  00002PRCP24Q02  00002PRCP12
0181012450999992008042209004+62600+009667FM-12+060699999V0202701N001012200019N0400001N1+00491-00571102111ADDAY101031AY201031GA1001+999999999GF100991001001999999001001MA1999999094871MD1210051+9999MW1021REMSYN076AAXX  22091 01245 41982 02701 10049 21057 39487 40211 52005 70200 333 4////;
0187012450999992008042212004+62600+009667FM-12+060699999V0209999C000012200019N0400001N1+00931-00571102001ADDAY101061AY201061GA1001+999999999GF100991001001999999001001MA1999999094881MD1210011+9999MW1021REMSYN082AAXX  22121 01245 11982 00000 10093 21057 39488 40200 52001 6//// 70200 333 4////;
0226012450999992008042218004+62600+009667FM-12+060699999V0209999C000012200019N0400001N1+00751-00551102121ADDAA112000091AY101061AY201061GF101991001001999999001011KA1120M+01081MA1999999094951MD1310061+9999MW1031REMSYN094AAXX  22181 01245 11982 10000 10075 21055 39495 40212 53006 60002 70300 80001 333 10108 4////;EQDQ01  00002PRCP12
0282012450999992008042306004+62600+009667FM-12+060699999V0209999C000012200019N0400001N1+00071-00551102431ADDAA112000091AA224000091AJ100499199999999AY101061AY201061GF101991001001999999001011IA1309KA1120N-00191MA1999999095071MD1510021+9999MW1021REMSYN100AAXX  23061 01245 11982 10000 10007 21055 39507 40243 55002 60002 70200 80001 333 21019 42049 70000;EQDQ01  00002PRCP24Q02  00002PRCP12
0171012450999992008042309004+62600+009667FM-12+060699999V0209999C000012200019N0400001N1+00591-00341102311ADDAY101031AY201031GF102991001001999999001011MA1999999095081MD1210011+9999MW1031REMSYN082AAXX  23091 01245 41982 20000 10059 21034 39508 40231 52001 70300 80001 333 4////;
0177012450999992008042312004+62600+009667FM-12+060699999V0203201N001012200019N0400001N1+00941-00161102221ADDAY101061AY201061GF101991011011012501001011MA1999999095081MD1410001+9999MW1011REMSYN088AAXX  23121 01245 11682 13201 10094 21016 39508 40222 54000 6//// 70100 81101 333 4////;
0236012450999992008042318004+62600+009667FM-12+060699999V0203201N001012200019N0400001N1+00741-00261102251ADDAA112000091AY101061AY201061GA1001+999999999GF100991001001999999001001KA1120M+01041MA1999999095071MD1410001+9999MW1011REMSYN088AAXX  23181 01245 11982 03201 10074 21026 39507 40225 54001 60002 70100 333 10104 4////;EQDQ01  00002PRCP12
0292012450999992008042406004+62600+009667FM-12+060699999V0209999C000012200019N0400001N1+00161-00571102381ADDAA112000091AA224000091AJ100459199999999AY101061AY201061GA1001+999999999GF100991001001999999001001IA1309KA1120N+00001MA1999999095051MD1710051+9999MW1021REMSYN094AAXX  24061 01245 11982 00000 10016 21057 39505 40238 57005 60002 70200 333 20000 42045 70000;EQDQ01  00002PRCP24Q02  00002PRCP12
0181012450999992008042409004+62600+009667FM-12+060699999V0209999C000012200019N0400001N1+00761-00241102131ADDAY101031AY201031GA1001+999999999GF100991001001999999001001MA1999999094971MD1810081+9999MW1021REMSYN076AAXX  24091 01245 41982 00000 10076 21024 39497 40213 58008 70200 333 4////;
0177012450999992008042412004+62600+009667FM-12+060699999V0209999C000012200019N0400001N1+00981-00311101891ADDAY101061AY201061GF101991001001999999001011MA1999999094801MD1710161+9999MW1031REMSYN088AAXX  24121 01245 11982 10000 10098 21031 39480 40189 57016 6//// 70300 80001 333 4////;
0226012450999992008042418004+62600+009667FM-12+060699999V0202701N001012200019N0400001N1+00881-00301101761ADDAA112000091AY101061AY201061GF103991001001999999001081KA1120M+01201MA1999999094651MD1710051+9999MW1031REMSYN094AAXX  24181 01245 11982 32701 10088 21030 39465 40176 57005 60002 70300 80008 333 10120 4////;EQDQ01  00002PRCP12
0282012450999992008042506004+62600+009667FM-12+060699999V0209999C000012200019N0400001N1+00131-00471101901ADDAA112000091AA224000091AJ100419199999999AY101061AY201061GF102991011011012501001011IA1309KA1120N-00141MA1999999094601MD1710011+9999MW1021REMSYN100AAXX  25061 01245 11682 20000 10013 21047 39460 40190 57001 60002 70200 81101 333 21014 42041 70000;EQDQ01  00002PRCP24Q02  00002PRCP12
0171012450999992008042509004+62600+009667FM-12+060699999V0209999C000012200019N0400001N1+00701-00271101751ADDAY101031AY201031GF102991021011012501001001MA1999999094601MD1510011+9999MW1031REMSYN082AAXX  25091 01245 41682 20000 10070 21027 39460 40175 55001 70300 82100 333 4////;
0177012450999992008042512004+62600+009667FM-12+060699999V0209999C000012200019N0400001N1+01151+00001101641ADDAY101061AY201061GF104991041021012501001001MA1999999094601MD1410001+9999MW1031REMSYN088AAXX  25121 01245 11682 40000 10115 20000 39460 40164 54000 6//// 70300 84200 333 4////;
0226012450999992008042518004+62600+009667FM-12+060699999V0209999C000010120019N0300001N1+00931-00171101711ADDAA112000091AY121061AY201061GF105991051011012501001001KA1120M+01291MA1999999094621MD1210031+9999MW1031REMSYN094AAXX  25181 01245 11680 50000 10093 21017 39462 40171 52003 60002 70320 85100 333 10129 4////;EQDQ01  00002PRCP12
0282012450999992008042606004+62600+009667FM-12+060699999V0209999C000012200019N0400001N1+00391-00181102041ADDAA112000091AA224000091AJ100349199999999AY121061AY201061GF102991021011012501001001IA1309KA1120N+00111MA1999999094781MD1510011+9999MW1011REMSYN100AAXX  26061 01245 11682 20000 10039 21018 39478 40204 55001 60002 70120 82100 333 20011 42034 70000;EQDQ01  00002PRCP24Q02  00002PRCP12
0171012450999992008042609004+62600+009667FM-12+060699999V0200901N001019999999N0400001N1+00751-00071101801ADDAY121031AY201031GF105991001001999999001081MA1999999094661MD1710131+9999MW1031REMSYN082AAXX  26091 01245 41982 50901 10075 21007 39466 40180 57013 70320 80008 333 4////;
0177012450999992008042612004+62600+009667FM-12+060699999V0201501N003010300019N0400001N1+00881-00101101651ADDAY121061AY201061GF107991021071012501011999MA1999999094551MD1710111+9999MW1031REMSYN088AAXX  26121 01245 11682 71503 10088 21010 39455 40165 57011 6//// 70320 8271/ 333 4////;
0207012450999992008042618004+62600+009667FM-12+060699999V0209999C000010075019N0300001N1+00741+00061101381ADDAA112000021AY161061AY221061GF108991081001008001021999KA1120M+00981MA1999999094261MD1810081+9999MW1601REMSYN094AAXX  26181 01245 11580 80000 10074 20006 39426 40138 58008 69902 76062 8802/ 333 10098 4////;
0247012450999992008042706004+62600+009667FM-12+060699999V0200901N001010120019N0300001N1+00651+00141101291ADDAA112000021AA224000021AJ100299199999999AY161061AY221061GF108991071011012501041999IA1309KA1120N+00601MA1999999094161MD1810041+9999MW1021REMSYN100AAXX  27061 01245 11680 80901 10065 20014 39416 40129 58004 69902 70262 8714/ 333 20060 42029 70000;
0171012450999992008042709004+62600+009667FM-12+060699999V0203201N001010120019N0400001N1+00861+00241101221ADDAY161031AY221031GF107991071051012501001001MA1999999094131MD1810041+9999MW1011REMSYN082AAXX  27091 01245 41682 73201 10086 20024 39413 40122 58004 70162 87500 333 4////;
0177012450999992008042712004+62600+009667FM-12+060699999V0202301N003010300019N0400001N1+01181+00311101081ADDAY161061AY221061GF105991031011012501061011MA1999999094081MD1810061+9999MW1011REMSYN088AAXX  27121 01245 11682 52303 10118 20031 39408 40108 58006 6//// 70162 83161 333 4////;
0226012450999992008042718004+62600+009667FM-12+060699999V0202301N003010300019N0400001N1+00941-00191101121ADDAA112000091AY121061AY211061GF107991011011012501011999KA1120M+01221MA1999999094071MD1510011+9999MW1031REMSYN094AAXX  27181 01245 11682 72303 10094 21019 39407 40112 55001 69902 70321 8111/ 333 10122 4////;EQDQ01  00002PRCP12
0247012450999992008042806004+62600+009667FM-12+060699999V0203601N001010300019N0300001N1+00681+00211100841ADDAA112000021AA224000021AJ100199199999999AY161061AY221061GF108991031071012501021999IA1259KA1120N+00591MA1999999093751MD1710111+9999MW1601REMSYN100AAXX  28061 01245 11680 83601 10068 20021 39375 40084 57011 69902 76062 8372/ 333 20059 41019 70000;
0171012450999992008042809004+62600+009667FM-12+060699999V0203001N003010120019N0300001N1+00901+00261100791ADDAY161031AY221031GF106991051071012501021001MA1999999093751MD1010001+9999MW1011REMSYN082AAXX  28091 01245 41680 63003 10090 20026 39375 40079 50000 70162 85720 333 4////;
0177012450999992008042812004+62600+009667FM-12+060699999V0203601N005010120019N0300001N1+01061+00341100671ADDAY161061AY221061GF106991061051012501001001MA1999999093671MD1710091+9999MW1021REMSYN088AAXX  28121 01245 11680 63605 10106 20034 39367 40067 57009 6//// 70262 86500 333 4////;
0207012450999992008042818004+62600+009667FM-12+060699999V0201401N005010150019N0300001N1+00921+00301100681ADDAA112000021AY121061AY221061GF106991061001017501071001KA1120M+01091MA1999999093661MD1810111+9999MW1021REMSYN094AAXX  28181 01245 11780 61405 10092 20030 39366 40068 58011 69902 70222 86070 333 10109 4////;
0266012450999992008042906004+62600+009667FM-12+060699999V0201801N001010300019N0300001N1+00941+00231100591ADDAA112000091AA224000021AJ100059199999999AY121061AY221061GF105991041011012501041001IA1259KA1120N+00771MA1999999093571MD1010031+9999MW1011REMSYN100AAXX  29061 01245 11680 51801 10094 20023 39357 40059 50003 60002 70122 84140 333 20077 41005 70000;EQDQ01  00002PRCP12
0171012450999992008042909004+62600+009667FM-12+060699999V0201801N003010300019N0300001N1+01141+00301100631ADDAY121031AY221031GF105991031011012501031001MA1999999093661MD1210071+9999MW1021REMSYN082AAXX  29091 01245 41680 51803 10114 20030 39366 40063 52007 70222 83130 333 4////;
0177012450999992008042912004+62600+009667FM-12+060699999V0202001N005010300019N0300001N1+01321+00191100601ADDAY121061AY221061GF105991021011012501041001MA1999999093671MD1210011+9999MW1021REMSYN088AAXX  29121 01245 11680 52005 10132 20019 39367 40060 52001 6//// 70222 82140 333 4////;
0226012450999992008042918004+62600+009667FM-12+060699999V0201201N005012200019N0400001N1+01291+00001100711ADDAA112000091AY121061AY201061GF103991031011012501001001KA1120M+01531MA1999999093771MD1310021+9999MW1011REMSYN094AAXX  29181 01245 11682 31205 10129 20000 39377 40071 53002 60002 70120 83100 333 10153 4////;EQDQ01  00002PRCP12
0298012450999992008043006004+62600+009667FM-12+060699999V0200901N005010300019N0300001N1+00971+00011101111ADDAA112000091AA224000091AJ199992999999999AY121061AY221061GF105991041051012501031001IA1259KA1120N+00811MA1999999094071MD1210081+9999MW1021REMSYN100AAXX  30061 01245 11680 50905 10097 20001 39407 40111 52008 60002 70222 84530 333 20081 41998 70000;EQDQ01  00002PRCP24Q02  00002PRCP12Q03  09982SNDP  
0171012450999992008043009004+62600+009667FM-12+060699999V0200501N010010150019N0300001N1+01121-00031101221ADDAY121031AY221031GF105991051081012501001001MA1999999094211MD1310151+9999MW1021REMSYN082AAXX  30091 01245 41680 50510 10112 21003 39421 40122 53015 70222 85800 333 4////;
0177012450999992008043012004+62600+009667FM-12+060699999V0201401N007012200019N0400001N1+01331+00131101181ADDAY121061AY201061GF104991041041012501001001MA1999999094221MD1010041+9999MW1011REMSYN088AAXX  30121 01245 11682 41407 10133 20013 39422 40118 50004 6//// 70120 84400 333 4////;
0226012450999992008043018004+62600+009667FM-12+060699999V0201801N003010120019N0300001N1+01031+00291101441ADDAA112000091AY121061AY201061GF106991061041012501001001KA1120M+01391MA1999999094381MD1010111+9999MW1031REMSYN094AAXX  30181 01245 11680 61803 10103 20029 39438 40144 50011 60002 70320 86400 333 10139 4////;EQDQ01  00002PRCP12
0298012450999992008050106004+62600+009667FM-12+060699999V0200901N003010150019N0300001N1+00841+00241101351ADDAA112000091AA224000091AJ199992999999999AY121061AY221061GF105991051001017501071001IA1259KA1120N+00701MA1999999094261MD1610051+9999MW1031REMSYN100AAXX  01061 01245 11780 50903 10084 20024 39426 40135 56005 60002 70322 85070 333 20070 41998 70000;EQDQ01  00002PRCP24Q02  00002PRCP12Q03  09982SNDP  
0171012450999992008050109004+62600+009667FM-12+060699999V0200601N005010075019N0200001N1+00821+00351101321ADDAY161031AY221031GF107991071051008001999999MA1999999094221MD1510031+9999MW1031REMSYN082AAXX  01091 01245 41570 70605 10082 20035 39422 40132 55003 70362 875// 333 4////;
0177012450999992008050112004+62600+009667FM-12+060699999V0200901N005010075019N0200001N1+00821+00401101341ADDAY161061AY221061GF107991071051008001999999MA1999999094251MD1010021+9999MW1011REMSYN088AAXX  01121 01245 11570 70905 10082 20040 39425 40134 50002 6//// 70162 875// 333 4////;
0226012450999992008050118004+62600+009667FM-12+060699999V0200401N003010075019N0200001N1+00831+00321101401ADDAA112000091AY161061AY221061GF106991051051008001031001KA1120M+01001MA1999999094301MD1310061+9999MW1011REMSYN094AAXX  01181 01245 11570 60403 10083 20032 39430 40140 53006 69902 70162 85530 333 10100 4////;EQDQ01  00002PRCP12
0298012450999992008050206004+62600+009667FM-12+060699999V0200901N005010075019N0200001N1+00861+00421101611ADDAA112000091AA224000091AJ199992999999999AY121061AY221061GF106991061071008001001001IA1259KA1120N+00761MA1999999094511MD1110111+9999MW1021REMSYN100AAXX  02061 01245 11570 60905 10086 20042 39451 40161 51011 60002 70222 86700 333 20076 41998 70000;EQDQ01  00002PRCP24Q02  00002PRCP12Q03  09982SNDP  
0171012450999992008050209004+62600+009667FM-12+060699999V0201401N007010075019N0200001N1+00911+00471101761ADDAY121031AY221031GF106991061071008001001001MA1999999094661MD1310151+9999MW1021REMSYN082AAXX  02091 01245 41570 61407 10091 20047 39466 40176 53015 70222 86700 333 4////;
0177012450999992008050212004+62600+009667FM-12+060699999V0201401N005010075019N0200001N1+00931+00451101851ADDAY121061AY221061GF107991071071008001999999MA1999999094751MD1310111+9999MW1031REMSYN088AAXX  02121 01245 11570 71405 10093 20045 39475 40185 53011 6//// 70322 877// 333 4////;
0226012450999992008050218004+62600+009667FM-12+060699999V0201201N003010120019N0300001N1+00931+00451101951ADDAA112000091AY121061AY221061GF107991071071012501999999KA1120M+01061MA1999999094831MD1310011+9999MW1021REMSYN094AAXX  02181 01245 11680 71203 10093 20045 39483 40195 53001 60002 70222 877// 333 10106 4////;EQDQ01  00002PRCP12
0266012450999992008050306004+62600+009667FM-12+060699999V0203201N001010021019N0100001N1+00361+00241102611ADDAA112002091AA224002091AJ199992999999999AY161061AY221061GF108991061071002501021999IA1259KA1120N+00351MA1999999095311MD1310181+9999MW1611REMSYN100AAXX  03061 01245 11360 83201 10036 20024 39531 40261 53018 60022 76162 8672/ 333 20035 41998 70021;EQDQ01  09982SNDP  
0171012450999992008050309004+62600+009667FM-12+060699999V0202301N001010021019N0100001N1+00541+00411102651ADDAY161031AY221031GF108991071071002501021999MA1999999095401MD1210081+9999MW1611REMSYN082AAXX  03091 01245 41360 82301 10054 20041 39540 40265 52008 76162 8772/ 333 4////;
0177012450999992008050312004+62600+009667FM-12+060699999V0202301N001010021019N0100001N1+00601+00371102701ADDAY161061AY221061GF108991071071002501021999MA1999999095461MD1310091+9999MW1611REMSYN088AAXX  03121 01245 11360 82301 10060 20037 39546 40270 53009 6//// 76162 8772/ 333 4////;
0207012450999992008050318004+62600+009667FM-12+060699999V0200901N001010042019N0100001N1+00561+00311102891ADDAA112001091AY161061AY221061GF108991061071004501021999KA1120M+00691MA1999999095621MD1210061+9999MW1011REMSYN094AAXX  03181 01245 11460 80901 10056 20031 39562 40289 52006 60012 70162 8672/ 333 10069 4////;
0282012450999992008050406004+62600+009667FM-12+060699999V0203201N001012200019N0200001N1+00321+00141103001ADDAA112000091AA224001591AJ199992999999999AY161061AY221061GF102991021071004501001081IA1259KA1120N+00251MA1999999095671MD1410001+9999MW1011REMSYN100AAXX  04061 01245 11470 23201 10032 20014 39567 40300 54001 69912 70162 82708 333 20025 41998 70015;EQDQ01  00002PRCP12Q02  09982SNDP  
0171012450999992008050409004+62600+009667FM-12+060699999V0202701N001012200019N0400001N1+00791-00081102841ADDAY121031AY201031GF104991021011012501031001MA1999999095621MD1710041+9999MW1031REMSYN082AAXX  04091 01245 41682 42701 10079 21008 39562 40284 57004 70320 82130 333 4////;
0177012450999992008050412004+62600+009667FM-12+060699999V0203201N001010300019N0400001N1+01111-00191102681ADDAY121061AY201061GF105991011011012501051001MA1999999095561MD1710081+9999MW1031REMSYN088AAXX  04121 01245 11682 53201 10111 21019 39556 40268 57008 6//// 70320 81150 333 4////;
0226012450999992008050418004+62600+009667FM-12+060699999V0200901N001010210019N0400001N1+00911-00221102721ADDAA112000091AY121061AY221061GF106991061001022501051001KA1120M+01271MA1999999095551MD1510011+9999MW1031REMSYN094AAXX  04181 01245 11882 60901 10091 21022 39555 40272 55001 60002 70322 86050 333 10127 4////;EQDQ01  00002PRCP12
0266012450999992008050506004+62600+009667FM-12+060699999V0202301N001010075019N0200001N1+00541+00171103061ADDAA112000021AA224000021AJ199992999999999AY161061AY221061GF108991081001008001021999IA1259KA1120N+00501MA1999999095771MD1210081+9999MW1601REMSYN100AAXX  05061 01245 11570 82301 10054 20017 39577 40306 52008 69912 76062 8802/ 333 20050 41998 70001;EQDQ01  09982SNDP  
0171012450999992008050509004+62600+009667FM-12+060699999V0202401N001010300019N0200001N1+00661+00251103071ADDAY161031AY221031GF108991031071008001021999MA1999999095821MD1210041+9999MW1611REMSYN082AAXX  05091 01245 41570 82401 10066 20025 39582 40307 52004 76162 8372/ 333 4////;
0177012450999992008050512004+62600+009667FM-12+060699999V0203201N001010120019N0300001N1+00841+00221102981ADDAY161061AY221061GF108991061071012501021999MA1999999095771MD1810041+9999MW1011REMSYN088AAXX  05121 01245 11680 83201 10084 20022 39577 40298 58004 6//// 70162 8672/ 333 4////;
0207012450999992008050518004+62600+009667FM-12+060699999V0203001N001010120019N0300001N1+00771+00481102991ADDAA112000591AY161061AY221061GF108991061051012501021999KA1120M+00941MA1999999095771MD1710011+9999MW1611REMSYN094AAXX  05181 01245 11680 83001 10077 20048 39577 40299 57001 69942 76162 8652/ 333 10094 4////;
0266012450999992008050606004+62600+009667FM-12+060699999V0203001N003010300019N0200001N1+00641+00421102961ADDAA112001091AA224001591AJ199992999999999AY161061AY221061GF106991041021004501011041IA1259KA1120N+00441MA1999999095711MD1510011+9999MW1011REMSYN100AAXX  06061 01245 11470 63003 10064 20042 39571 40296 55001 60012 70162 84214 333 20044 41998 70015;EQDQ01  09982SNDP  
0171012450999992008050609004+62600+009667FM-12+060699999V0202301N003012200019N0300001N1+00981+00271102871ADDAY121031AY221031GF105991021011012501001081MA1999999095711MD1410001+9999MW1011REMSYN082AAXX  06091 01245 41680 52303 10098 20027 39571 40287 54000 70122 82108 333 4////;
0177012450999992008050612004+62600+009667FM-12+060699999V0203001N003010750019N0300001N1+01041+00151102871ADDAY121061AY221061GF106991031011012501001081MA1999999095721MD1410001+9999MW1031REMSYN088AAXX  06121 01245 11680 63003 10104 20015 39572 40287 54001 6//// 70322 83108 333 4////;
0226012450999992008050618004+62600+009667FM-12+060699999V0202801N003010300019N0300001N1+01011+00051102701ADDAA112000091AY121061AY221061GF106991031011012501041081KA1120M+01201MA1999999095561MD1710071+9999MW1021REMSYN094AAXX  06181 01245 11680 62803 10101 20005 39556 40270 57007 60002 70222 83148 333 10120 4////;EQDQ01  00002PRCP12
0298012450999992008050706004+62600+009667FM-12+060699999V0209999C000012200019N0400001N1+00601+00151102481ADDAA112000091AA224000091AJ199992999999999AY121061AY201061GF102991011001022501041011IA1259KA1120N+00291MA1999999095251MD1710111+9999MW1011REMSYN100AAXX  07061 01245 11882 20000 10060 20015 39525 40248 57011 60002 70120 81041 333 20029 41998 70000;EQDQ01  00002PRCP24Q02  00002PRCP12Q03  09982SNDP  
0171012450999992008050709004+62600+009667FM-12+060699999V0202401N003012200019N0400001N1+01141-00101102241ADDAY101031AY201031GF104991001001999999001081MA1999999095161MD1710091+9999MW1031REMSYN082AAXX  07091 01245 41982 42403 10114 21010 39516 40224 57009 70300 80008 333 4////;
0177012450999992008050712004+62600+009667FM-12+060699999V0203201N003012200019N0400001N1+01331-00221102161ADDAY101061AY201061GF102991021001022501041001MA1999999095121MD1710031+9999MW1011REMSYN088AAXX  07121 01245 11882 23203 10133 21022 39512 40216 57003 6//// 70100 82040 333 4////;
0226012450999992008050718004+62600+009667FM-12+060699999V0203201N005010120019N0400001N1+01091+00091102101ADDAA112000091AY121061AY201061GF105991051011012501001001KA1120M+01431MA1999999095021MD1810041+9999MW1031REMSYN094AAXX  07181 01245 11682 53205 10109 20009 39502 40210 58004 60002 70320 85100 333 10143 4////;EQDQ01  00002PRCP12
0259012450999992008050806004+62600+009667FM-12+060699999V0209999C000012200019N0400001N1+00621+00251102151ADDAA112000091AA224000091AY121061AY201061GF101991011001022501031001KA1120N+00431MA1999999094951MD1810091+9999MW1021REMSYN100AAXX  08061 01245 11882 10000 10062 20025 39495 40215 58009 60002 70220 81030 333 20043 4//// 70000;EQDQ01  00002PRCP24Q02  00002PRCP12
0171012450999992008050809004+62600+009667FM-12+060699999V0203201N003012200019N0400001N1+01381+00271101911ADDAY101031AY201031GF101991011001022501041001MA1999999094911MD1710041+9999MW1021REMSYN082AAXX  08091 01245 41882 13203 10138 20027 39491 40191 57004 70200 81040 333 4////;
0177012450999992008050812004+62600+009667FM-12+060699999V0202701N003012200019N0400001N1+01541+00041101841ADDAY101061AY201061GF104991041001022501041001MA1999999094871MD1710031+9999MW1031REMSYN088AAXX  08121 01245 11882 42703 10154 20004 39487 40184 57003 6//// 70300 84040 333 4////;
0226012450999992008050818004+62600+009667FM-12+060699999V0203201N003010120019N0400001N1+01251+00321101961ADDAA112000091AY121061AY201061GF105991051011012501001001KA1120M+01631MA1999999094921MD1010011+9999MW1031REMSYN094AAXX  08181 01245 11682 53203 10125 20032 39492 40196 50001 60002 70320 85100 333 10163 4////;EQDQ01  00002PRCP12
0298012450999992008050906004+62600+009667FM-12+060699999V0209999C000012200019N0400001N1+00711+00341102091ADDAA112000091AA224000091AJ199992999999999AY121061AY201061GF103991011011012501001011IA1179KA1120N+00431MA1999999094921MD1710041+9999MW1031REMSYN100AAXX  09061 01245 11682 30000 10071 20034 39492 40209 57004 60002 70320 81101 333 20043 40998 70000;EQDQ01  00002PRCP24Q02  00002PRCP12Q03  09982SNDP  
0171012450999992008050909004+62600+009667FM-12+060699999V0202401N003012200019N0400001N1+01321+00361101891ADDAY101031AY201031GF102991011011012501001011MA1999999094871MD1810041+9999MW1011REMSYN082AAXX  09091 01245 41682 22403 10132 20036 39487 40189 58004 70100 81101 333 4////;
0177012450999992008050912004+62600+009667FM-12+060699999V0202701N001012200019N0400001N1+01541+00291101801ADDAY101061AY201061GF102991011011012501001011MA1999999094831MD1710041+9999MW1021REMSYN088AAXX  09121 01245 11682 22701 10154 20029 39483 40180 57004 6//// 70200 81101 333 4////;
0226012450999992008050918004+62600+009667FM-12+060699999V0203201N001012200019N0400001N1+01581+00081101751ADDAA112000091AY101061AY201061GF101991011011012501001001KA1120M+01831MA1999999094811MD1210011+9999MW1011REMSYN094AAXX  09181 01245 11682 13201 10158 20008 39481 40175 52001 60002 70100 81100 333 10183 4////;EQDQ01  00002PRCP12
0308012450999992008051006004+62600+009667FM-12+060699999V0209999C000012200019N0400001N1+00641+00231102221ADDAA112000091AA224000091AJ199992999999999AY101061AY201061GA1001+999999999GF100991001001999999001001IA1179KA1120N+00351MA1999999095021MD1210021+9999MW1021REMSYN094AAXX  10061 01245 11982 00000 10064 20023 39502 40222 52002 60002 70200 333 20035 40998 70000;EQDQ01  00002PRCP24Q02  00002PRCP12Q03  09982SNDP  
0171012450999992008051009004+62600+009667FM-12+060699999V0209999C000012200019N0400001N1+01381+00211102071ADDAY101031AY201031GF101991001001999999001011MA1999999095061MD1210051+9999MW1031REMSYN082AAXX  10091 01245 41982 10000 10138 20021 39506 40207 52005 70300 80001 333 4////;
0177012450999992008051012004+62600+009667FM-12+060699999V0209999C000012200019N0400001N1+01721+00321101931ADDAY101061AY201061GF101991001001999999001011MA1999999095011MD1710051+9999MW1021REMSYN088AAXX  10121 01245 11982 10000 10172 20032 39501 40193 57005 6//// 70200 80001 333 4////;
0236012450999992008051018004+62600+009667FM-12+060699999V0202301N001012200019N0500001N1+01681-00081101741ADDAA112000091AY101061AY201061GA1001+999999999GF100991001001999999001001KA1120M+01941MA1999999094821MD1710081+9999MW1011REMSYN088AAXX  10181 01245 11984 02301 10168 21008 39482 40174 57008 60002 70100 333 10194 4////;EQDQ01  00002PRCP12
0259012450999992008051106004+62600+009667FM-12+060699999V0202701N001010120019N0300001N1+01001+00521101761ADDAA112000091AA224000091AY121061AY211061GF107991061051012501031001KA1120N+01001MA1999999094671MD1310021+9999MW1031REMSYN100AAXX  11061 01245 11680 72701 10100 20052 39467 40176 53002 60002 70321 86530 333 20100 4//// 70000;EQDQ01  00002PRCP24Q02  00002PRCP12
0171012450999992008051109004+62600+009667FM-12+060699999V0202701N001010150019N0300001N1+01031+00451101781ADDAY121031AY221031GF106991051051017501041001MA1999999094711MD1210041+9999MW1011REMSYN082AAXX  11091 01245 41780 62701 10103 20045 39471 40178 52004 70122 85540 333 4////;
0177012450999992008051112004+62600+009667FM-12+060699999V0203201N007010300019N0300001N1+01161+00291101821ADDAY121061AY221061GF106991041011012501041091MA1999999094771MD1310061+9999MW1031REMSYN088AAXX  11121 01245 11680 63207 10116 20029 39477 40182 53006 6//// 70322 84149 333 4////;
0226012450999992008051118004+62600+009667FM-12+060699999V0203201N005010075019N0200001N1+00581+00171102261ADDAA112000091AY181061AY221061GF106991051021008001061001KA1120M+01231MA1999999095031MD1310221+9999MW1011REMSYN094AAXX  11181 01245 11570 63205 10058 20017 39503 40226 53022 69902 70182 85260 333 10123 4////;EQDQ01  00002PRCP12
0259012450999992008051206004+62600+009667FM-12+060699999V0200501N001010075019N0200001N1+00131-00541103041ADDAA112000091AA224000091AY181061AY221061GF107991071071008001001001KA1120N-00031MA1999999095651MD1110131+9999MW1011REMSYN100AAXX  12061 01245 11570 70501 10013 21054 39565 40304 51013 69902 70182 87700 333 21003 4//// 70000;EQDQ01  00002PRCP24Q02  00002PRCP12
0171012450999992008051209004+62600+009667FM-12+060699999V0200901N003012200019N0400001N1+00211-00441103061ADDAY121031AY201031GF103991031011012501001001MA1999999095681MD1210051+9999MW1011REMSYN082AAXX  12091 01245 41682 30903 10021 21044 39568 40306 52005 70120 83100 333 4////;
0177012450999992008051212004+62600+009667FM-12+060699999V0200901N001012200019N0400001N1+00521-00381102851ADDAY121061AY201061GF101991011011012501001001MA1999999095571MD1710111+9999MW1011REMSYN088AAXX  12121 01245 11682 10901 10052 21038 39557 40285 57011 6//// 70120 81100 333 4////;
0226012450999992008051218004+62600+009667FM-12+060699999V0200901N003012200019N0400001N1+00581-00351102671ADDAA112000091AY101061AY201061GF103991001001999999001081KA1120M+00731MA1999999095421MD1710061+9999MW1031REMSYN094AAXX  12181 01245 11982 30903 10058 21035 39542 40267 57006 60002 70300 80008 333 10073 4////;EQDQ01  00002PRCP12
0259012450999992008051306004+62600+009667FM-12+060699999V0200901N001010042019N0130001N1+00031-00241102791ADDAA112000091AA224000091AY121061AY201061GF107991071051004501999999KA1120N-00091MA1999999095401MD1210021+9999MW1031REMSYN100AAXX  13061 01245 11463 70901 10003 21024 39540 40279 52002 60002 70320 875// 333 21009 4//// 70000;EQDQ01  00002PRCP24Q02  00002PRCP12
0171012450999992008051309004+62600+009667FM-12+060699999V0201401N001010075019N0200001N1+00161-00291102751ADDAY121031AY221031GF107991071051008001999999MA1999999095381MD1710011+9999MW1021REMSYN082AAXX  13091 01245 41570 71401 10016 21029 39538 40275 57001 70222 875// 333 4////;
0177012450999992008051312004+62600+009667FM-12+060699999V0203201N001010120019N0400001N1+00501-00331102591ADDAY121061AY221061GF105991051051012501001001MA1999999095321MD1710051+9999MW1011REMSYN088AAXX  13121 01245 11682 53201 10050 21033 39532 40259 57005 6//// 70122 85500 333 4////;
0226012450999992008051318004+62600+009667FM-12+060699999V0201201N001010120019N0400001N1+00481-00301102381ADDAA112000091AY121061AY201061GF107991071051012501999999KA1120M+00731MA1999999095121MD1710101+9999MW1031REMSYN094AAXX  13181 01245 11682 71201 10048 21030 39512 40238 57010 60002 70320 875// 333 10073 4////;EQDQ01  00002PRCP12
0224012450999992008051406004+62600+009667FM-12+060699999V0202701N003010021019N0047001N1+00281+00151101681ADDAA112002092AA224001892AY161061AY221061GF108991081001002501021999KA1120N+00141MA1999999094421MD1610171+9999MW1611REMSYN100AAXX  14061 01245 11347 82703 10028 20015 39442 40168 56017 60022 76162 8802/ 333 20014 4//// 70017;
0171012450999992008051409004+62600+009667FM-12+060699999V0202301N005010042019N0100001N1+00501+00221101471ADDAY161031AY221031GF106991061071004501001001MA1999999094281MD1510151+9999MW1011REMSYN082AAXX  14091 01245 41460 62305 10050 20022 39428 40147 55015 70162 86700 333 4////;
0177012450999992008051412004+62600+009667FM-12+060699999V0203001N005010075019N0100001N1+00551-00101101441ADDAY161061AY221061GF107991071071008001001001MA1999999094271MD1510011+9999MW1151REMSYN088AAXX  14121 01245 11560 73005 10055 21010 39427 40144 55001 6//// 71562 87700 333 4////;
0207012450999992008051418004+62600+009667FM-12+060699999V0203201N001010075019N0100001N1+00521-00191101451ADDAA112000021AY161061AY221061GF106991061071008001001001KA1120M+00711MA1999999094271MD1410001+9999MW1011REMSYN094AAXX  14181 01245 11560 63201 10052 21019 39427 40145 54000 69922 70162 86700 333 10071 4////;
0243012450999992008051506004+62600+009667FM-12+060699999V0201201N001010021019N0100001N1+00061-00131101291ADDAA112000091AA224000391AY161061AY221061GF107991071061002501999999KA1120N+00001MA1999999094011MD1710111+9999MW1021REMSYN100AAXX  15061 01245 11360 71201 10006 21013 39401 40129 57011 69912 70262 876// 333 20000 4//// 70003;EQDQ01  00002PRCP12
0171012450999992008051509004+62600+009667FM-12+060699999V0200901N001010021019N0060001N1+00341-00061101071ADDAY171031AY261031GF107991071061002501999999MA1999999093871MD1710141+9999MW1611REMSYN082AAXX  15091 01245 41356 70901 10034 21006 39387 40107 57014 76176 876// 333 4////;
0177012450999992008051512004+62600+009667FM-12+060699999V0209999C000010021019N0060001N1+00251+00041100991ADDAY171061AY261061GF108991071071002501021999MA1999999093771MD1710101+9999MW1681REMSYN088AAXX  15121 01245 11356 80000 10025 20004 39377 40099 57010 6//// 76876 8772/ 333 4////;
0207012450999992008051518004+62600+009667FM-12+060699999V0201201N001010021019N0060001N1+00231+00111100781ADDAA112003091AY171061AY261061GF108991071071002501021999KA1120M+00381MA1999999093571MD1710091+9999MW1611REMSYN094AAXX  15181 01245 11356 81201 10023 20011 39357 40078 57009 60032 76176 8772/ 333 10038 4////;
0224012450999992008051606004+62600+009667FM-12+060699999V0200901N001010021019N0060001N1+00041-00071100711ADDAA112002091AA224004691AY171061AY261061GF108991071071002501021999KA1120N+00041MA1999999093471MD1410001+9999MW1681REMSYN100AAXX  16061 01245 11356 80901 10004 21007 39347 40071 54001 60022 76876 8772/ 333 20004 4//// 70045;
0171012450999992008051609004+62600+009667FM-12+060699999V0201201N001010075019N0200001N1+00301-00231100631ADDAY171031AY221031GF106991061021008001001001MA1999999093461MD1710011+9999MW1011REMSYN082AAXX  16091 01245 41570 61201 10030 21023 39346 40063 57001 70172 86200 333 4////;
0177012450999992008051612004+62600+009667FM-12+060699999V0200901N001010120019N0300001N1+00441-00461100591ADDAY171061AY221061GF107991071021012501999999MA1999999093461MD1410001+9999MW1031REMSYN088AAXX  16121 01245 11680 70901 10044 21046 39346 40059 54001 6//// 70372 872// 333 4////;
0207012450999992008051618004+62600+009667FM-12+060699999V0200901N003010075019N0300001N1+00321-00081100611ADDAA112000021AY181061AY221061GF106991061021008001001001KA1120M+00541MA1999999093451MD1210011+9999MW1151REMSYN094AAXX  16181 01245 11580 60903 10032 21008 39345 40061 52001 69912 71582 86200 333 10054 4////;
0224012450999992008051706004+62600+009667FM-12+060699999V0200901N003012200019N0300001N1+00261-00501100881ADDAA112000391AA224000591AY181061AY221061GF104991031021008001031001KA1120N+00081MA1999999093671MD1210071+9999MW1011REMSYN100AAXX  17061 01245 11580 40903 10026 21050 39367 40088 52007 69932 70182 83230 333 20008 4//// 70004;
0171012450999992008051709004+62600+009667FM-12+060699999V0201201N005012200019N0400001N1+00361-00581100931ADDAY101031AY201031GF103991031011012501001001MA1999999093751MD1210071+9999MW1011REMSYN082AAXX  17091 01245 41682 31205 10036 21058 39375 40093 52007 70100 83100 333 4////;
0177012450999992008051712004+62600+009667FM-12+060699999V0201201N005010075019N0300001N1+00481-00611100931ADDAY181061AY221061GF106991061011008001001001MA1999999093771MD1210031+9999MW1851REMSYN088AAXX  17121 01245 11580 61205 10048 21061 39377 40093 52003 6//// 78582 86100 333 4////;
0207012450999992008051718004+62600+009667FM-12+060699999V0203601N005010120019N0400001N1+00361-00691101001ADDAA112000021AY181061AY221061GF105991051011012501031001KA1120M+00571MA1999999093821MD1310021+9999MW1011REMSYN094AAXX  17181 01245 11682 53605 10036 21069 39382 40100 53002 69902 70182 85130 333 10057 4////;
0266012450999992008051806004+62600+009667FM-12+060699999V0202701N001010075019N0300001N1+00011-00241101281ADDAA112000391AA224000391AJ199993999999999AY181061AY221061GF106991061011008001001001IA1309KA1120N-00051MA1999999093981MD1410001+9999MW1031REMSYN100AAXX  18061 01245 11580 62701 10001 21024 39398 40128 54001 69932 70382 86100 333 21005 42997 70003;EQDQ01  09972SNDP  
0171012450999992008051809004+62600+009667FM-12+060699999V0203201N001010075019N0300001N1+00311-00581101171ADDAY121031AY221031GF106991061011008001001001MA1999999093961MD1710031+9999MW1021REMSYN082AAXX  18091 01245 41580 63201 10031 21058 39396 40117 57003 70222 86100 333 4////;
0177012450999992008051812004+62600+009667FM-12+060699999V0203201N001010075019N0300001N1+00471-00561101161ADDAY121061AY221061GF106991061021008001001001MA1999999093981MD1710031+9999MW1021REMSYN088AAXX  18121 01245 11580 63201 10047 21056 39398 40116 57003 6//// 70222 86200 333 4////;
0207012450999992008051818004+62600+009667FM-12+060699999V0203201N003012200019N0400001N1+00371-00571101111ADDAA112000591AY181061AY211061GF104991041021012501001001KA1120M+00601MA1999999093921MD1210041+9999MW1011REMSYN094AAXX  18181 01245 11682 43203 10037 21057 39392 40111 52004 69942 70181 84200 333 10060 4////;
0224012450999992008051906004+62600+009667FM-12+060699999V0203001N003010075019N0200001N1+00051-00301101161ADDAA112000021AA224000591AY171061AY221061GF108991051051008001021999KA1120N-00011MA1999999093881MD1510041+9999MW1701REMSYN100AAXX  19061 01245 11570 83003 10005 21030 39388 40116 55004 69912 77072 8552/ 333 21001 4//// 70005;
0171012450999992008051909004+62600+009667FM-12+060699999V0202701N003010042019N0100001N1+00141-00101101131ADDAY171031AY271031GF107991071001004501021999MA1999999093871MD1710021+9999MW1711REMSYN082AAXX  19091 01245 41460 72703 10014 21010 39387 40113 57002 77177 8702/ 333 4////;
0177012450999992008051912004+62600+009667FM-12+060699999V0202301N003010075019N0200001N1+00341-00231101081ADDAY171061AY221061GF107991051071008001021999MA1999999093881MD1210011+9999MW1011REMSYN088AAXX  19121 01245 11570 72303 10034 21023 39388 40108 52001 6//// 70172 8572/ 333 4////;
0207012450999992008051918004+62600+009667FM-12+060699999V0202701N003010042019N0100001N1+00291-00021101161ADDAA112001091AY171061AY221061GF108991071071004501021999KA1120M+00411MA1999999093951MD1210051+9999MW1701REMSYN094AAXX  19181 01245 11460 82703 10029 21002 39395 40116 52005 60012 77072 8772/ 333 10041 4////;
0224012450999992008052006004+62600+009667FM-12+060699999V0209999C000012200019N0400001N1+00181-00271101501ADDAA112000591AA224001591AY171061AY211061GF103991021011012501041001KA1120N+00031MA1999999094231MD1210061+9999MW1011REMSYN100AAXX  20061 01245 11682 30000 10018 21027 39423 40150 52006 69942 70171 82140 333 20003 4//// 70016;
0171012450999992008052009004+62600+009667FM-12+060699999V0202401N001010120019N0300001N1+00491-00381101451ADDAY121031AY201031GF106991061011012501001001MA1999999094271MD1210041+9999MW1031REMSYN082AAXX  20091 01245 41680 62401 10049 21038 39427 40145 52004 70320 86100 333 4////;
0177012450999992008052012004+62600+009667FM-12+060699999V0201801N001010075019N0200001N1+00521-00191101511ADDAY181061AY211061GF107991061071008001021999MA1999999094321MD1310061+9999MW1151REMSYN088AAXX  20121 01245 11570 71801 10052 21019 39432 40151 53006 6//// 71581 8672/ 333 4////;
0226012450999992008052018004+62600+009667FM-12+060699999V0203201N001010120019N0300001N1+00481-00321101651ADDAA112000091AY181061AY221061GF105991051021012501001001KA1120M+00701MA1999999094451MD1210091+9999MW1011REMSYN094AAXX  20181 01245 11680 53201 10048 21032 39445 40165 52009 69922 70182 85200 333 10070 4////;EQDQ01  00002PRCP12
0243012450999992008052106004+62600+009667FM-12+060699999V0209999C000012200019N0400001N1+00301-00311101981ADDAA112000091AA224000391AY181061AY211061GF104991011011012501031011KA1120N-00151MA1999999094711MD1210011+9999MW1031REMSYN100AAXX  21061 01245 11682 40000 10030 21031 39471 40198 52001 69912 70381 81131 333 21015 4//// 70003;EQDQ01  00002PRCP12
0171012450999992008052109004+62600+009667FM-12+060699999V0203201N001012200019N0400001N1+00721-00421101851ADDAY101031AY201031GF103991021011012501001011MA1999999094701MD1410001+9999MW1011REMSYN082AAXX  21091 01245 41682 33201 10072 21042 39470 40185 54000 70100 82101 333 4////;
0177012450999992008052112004+62600+009667FM-12+060699999V0203201N001010120019N0400001N1+00751-00421101851ADDAY121061AY201061GF106991061021012501001001MA1999999094701MD1410001+9999MW1031REMSYN088AAXX  21121 01245 11682 63201 10075 21042 39470 40185 54000 6//// 70320 86200 333 4////;
0226012450999992008052118004+62600+009667FM-12+060699999V0200901N003010075019N0200001N1+00321+00011102071ADDAA112000091AY121061AY221061GF107991071021008001999999KA1120M+00821MA1999999094801MD1110061+9999MW1151REMSYN094AAXX  21181 01245 11570 70903 10032 20001 39480 40207 51006 60002 71522 872// 333 10082 4////;EQDQ01  00002PRCP12
0224012450999992008052206004+62600+009667FM-12+060699999V0201201N001010021019N0100001N1+00351+00141102141ADDAA112001091AA224001091AY181061AY221061GF107991071061002501999999KA1120N+00171MA1999999094871MD1410001+9999MW1011REMSYN100AAXX  22061 01245 11360 71201 10035 20014 39487 40214 54001 69992 70182 876// 333 20017 4//// 70009;
0171012450999992008052209004+62600+009667FM-12+060699999V0200601N001010075019N0300001N1+00541-00111102121ADDAY121031AY211031GF106991061021008001001001MA1999999094901MD1210021+9999MW1011REMSYN082AAXX  22091 01245 41580 60601 10054 21011 39490 40212 52002 70121 86200 333 4////;
0177012450999992008052212004+62600+009667FM-12+060699999V0203201N001010120019N0400001N1+00941-00351101951ADDAY121061AY211061GF105991051021012501001001MA1999999094831MD1710061+9999MW1011REMSYN088AAXX  22121 01245 11682 53201 10094 21035 39483 40195 57006 6//// 70121 85200 333 4////;
0226012450999992008052218004+62600+009667FM-12+060699999V0200601N003010075019N0300001N1+00741-00081102011ADDAA112000091AY121061AY221061GF107991061071008001021999KA1120M+01041MA1999999094851MD1210041+9999MW1031REMSYN094AAXX  22181 01245 11580 70603 10074 21008 39485 40201 52004 60002 70322 8672/ 333 10104 4////;EQDQ01  00002PRCP12
0224012450999992008052306004+62600+009667FM-12+060699999V0201201N001012200019N0060001N1+00281+00161102291ADDAA112002092AA224001892AY181061AY241061GF104991041061001501001001KA1120N+00181MA1999999095001MD1210021+9999MW1401REMSYN100AAXX  23061 01245 11256 41201 10028 20016 39500 40229 52002 60022 74084 84600 333 20018 4//// 70017;
0171012450999992008052309004+62600+009667FM-12+060699999V0200901N001012200019N0300001N1+00741+00021102231ADDAY111031AY201031GF104991041021008001001001MA1999999095051MD1210051+9999MW1011REMSYN082AAXX  23091 01245 41580 40901 10074 20002 39505 40223 52005 70110 84200 333 4////;
0177012450999992008052312004+62600+009667FM-12+060699999V0201401N005010075019N0300001N1+00861+00031102221ADDAY111061AY201061GF105991051021008001001001MA1999999095071MD1410001+9999MW1151REMSYN088AAXX  23121 01245 11580 51405 10086 20003 39507 40222 54001 6//// 71510 85200 333 4////;
0226012450999992008052318004+62600+009667FM-12+060699999V0200901N003010120019N0300001N1+00691-00031102321ADDAA112000091AY121061AY221061GF106991061071012501001001KA1120M+00941MA1999999095121MD1510001+9999MW1021REMSYN094AAXX  23181 01245 11680 60903 10069 21003 39512 40232 55000 60002 70222 86700 333 10094 4////;EQDQ01  00002PRCP12
0224012450999992008052406004+62600+009667FM-12+060699999V0200901N003010120019N0300001N1+00561+00021102511ADDAA112002091AA224002391AY181061AY221061GF106991061051012501001001KA1120N+00401MA1999999095271MD1510011+9999MW1011REMSYN100AAXX  24061 01245 11680 60903 10056 20002 39527 40251 55001 60022 70182 86500 333 20040 4//// 70024;
0171012450999992008052409004+62600+009667FM-12+060699999V0201201N005010150019N0300001N1+00681+00091102531ADDAY121031AY221031GF106991061081012501001001MA1999999095321MD1110071+9999MW1021REMSYN082AAXX  24091 01245 41680 61205 10068 20009 39532 40253 51007 70222 86800 333 4////;
0177012450999992008052412004+62600+009667FM-12+060699999V0201801N003012200019N0400001N1+00911-00051102541ADDAY121061AY201061GF103991021011012501041001MA1999999095371MD1310061+9999MW1011REMSYN088AAXX  24121 01245 11682 31803 10091 21005 39537 40254 53006 6//// 70120 82140 333 4////;
0226012450999992008052418004+62600+009667FM-12+060699999V0201501N001012200019N0400001N1+00951-00041102511ADDAA112000091AY101061AY201061GF102991021011012501001001KA1120M+01131MA1999999095371MD1310021+9999MW1011REMSYN094AAXX  24181 01245 11682 21501 10095 21004 39537 40251 53002 60002 70100 82100 333 10113 4////;EQDQ01  00002PRCP12
0269012450999992008052506004+62600+009667FM-12+060699999V0209999C000012200019N0400001N1+00781-00041102671ADDAA112000091AA224000091AY101061AY201061GA1001+999999999GF100991001001999999001001KA1120N+00401MA1999999095471MD1210031+9999MW1011REMSYN094AAXX  25061 01245 11982 00000 10078 21004 39547 40267 52003 60002 70100 333 20040 4//// 70000;EQDQ01  00002PRCP24Q02  00002PRCP12
0171012450999992008052509004+62600+009667FM-12+060699999V0202401N001012200019N0400001N1+01111-00031102761ADDAY101031AY201031GF102991021011017501001001MA1999999095631MD1410001+9999MW1031REMSYN082AAXX  25091 01245 41782 22401 10111 21003 39563 40276 54001 70300 82100 333 4////;
0177012450999992008052512004+62600+009667FM-12+060699999V0200301N003012200019N0400001N1+01361+00031102441ADDAY101061AY201061GF103991031011012501001001MA1999999095401MD1710061+9999MW1031REMSYN088AAXX  25121 01245 11682 30303 10136 20003 39540 40244 57006 6//// 70300 83100 333 4////;
0226012450999992008052518004+62600+009667FM-12+060699999V0203201N005012200019N0400001N1+01091-00051102441ADDAA112000091AY101061AY201061GF104991021011012501001041KA1120M+01411MA1999999095321MD1710021+9999MW1031REMSYN094AAXX  25181 01245 11682 43205 10109 21005 39532 40244 57002 60002 70300 82104 333 10141 4////;EQDQ01  00002PRCP12
0224012450999992008052606004+62600+009667FM-12+060699999V0203001N003010075019N0200001N1+00541+00211102441ADDAA112000021AA224000021AY161061AY221061GF107991071071008001999999KA1120N+00461MA1999999095201MD1810071+9999MW1601REMSYN100AAXX  26061 01245 11570 73003 10054 20021 39520 40244 58007 69912 76062 877// 333 20046 4//// 70001;
0171012450999992008052609004+62600+009667FM-12+060699999V0203001N005010075019N0200001N1+00651+00201102321ADDAY161031AY221031GF107991071051008001999999MA1999999095121MD1610081+9999MW1011REMSYN082AAXX  26091 01245 41570 73005 10065 20020 39512 40232 56008 70162 875// 333 4////;
0177012450999992008052612004+62600+009667FM-12+060699999V0203001N003010075019N0300001N1+00711+00161102251ADDAY161061AY221061GF107991071051008001999999MA1999999095071MD1210041+9999MW1021REMSYN088AAXX  26121 01245 11580 73003 10071 20016 39507 40225 52004 6//// 70262 875// 333 4////;
0207012450999992008052618004+62600+009667FM-12+060699999V0202701N003010120019N0300001N1+00721+00021102281ADDAA112000021AY121061AY221061GF107991071071012501999999KA1120M+01001MA1999999095101MD1210101+9999MW1021REMSYN094AAXX  26181 01245 11680 72703 10072 20002 39510 40228 52010 69902 70222 877// 333 10100 4////;
0243012450999992008052706004+62600+009667FM-12+060699999V0209999C000010750019N0400001N1+00481-00061102531ADDAA112000091AA224000021AY121061AY201061GF106991021011012501001081KA1120N+00151MA1999999095271MD1510001+9999MW1031REMSYN100AAXX  27061 01245 11682 60000 10048 21006 39527 40253 55000 60002 70320 82108 333 20015 4//// 70000;EQDQ01  00002PRCP12
0171012450999992008052709004+62600+009667FM-12+060699999V0201201N001019999999N0400001N1+00841-00091102391ADDAY121031AY221031GF105991001001999999001071MA1999999095221MD1710041+9999MW1011REMSYN082AAXX  27091 01245 41982 51201 10084 21009 39522 40239 57004 70122 80007 333 4////;
0177012450999992008052712004+62600+009667FM-12+060699999V0202701N001012200019N0400001N1+01281-00221102211ADDAY121061AY201061GF103991001001999999001041MA1999999095171MD1710061+9999MW1011REMSYN088AAXX  27121 01245 11982 32701 10128 21022 39517 40221 57006 6//// 70120 80004 333 4////;
0226012450999992008052718004+62600+009667FM-12+060699999V0202701N003012200019N0400001N1+01281-00221102251ADDAA112000091AY101061AY201061GF103991001001999999001011KA1120M+01541MA1999999095201MD1210011+9999MW1021REMSYN094AAXX  27181 01245 11982 32703 10128 21022 39520 40225 52001 60002 70200 80001 333 10154 4////;EQDQ01  00002PRCP12
0259012450999992008052806004+62600+009667FM-12+060699999V0209999C000012200019N0400001N1+00641+00111102461ADDAA112000091AA224000091AY101061AY201061GF102991001001999999001011KA1120N+00131MA1999999095231MD1710051+9999MW1021REMSYN100AAXX  28061 01245 11982 20000 10064 20011 39523 40246 57005 60002 70200 80001 333 20013 4//// 70000;EQDQ01  00002PRCP24Q02  00002PRCP12
0171012450999992008052809004+62600+009667FM-12+060699999V0202301N001012200019N0400001N1+01381-00101102191ADDAY101031AY201031GF103991001001999999001011MA1999999095171MD1810071+9999MW1031REMSYN082AAXX  28091 01245 41982 32301 10138 21010 39517 40219 58007 70300 80001 333 4////;
0177012450999992008052812004+62600+009667FM-12+060699999V0202301N001019999999N0400001N1+01771-00421102001ADDAY121061AY201061GF105991001001999999001071MA1999999095071MD1710091+9999MW1031REMSYN088AAXX  28121 01245 11982 52301 10177 21042 39507 40200 57009 6//// 70320 80007 333 4////;
0226012450999992008052818004+62600+009667FM-12+060699999V0200901N001012200019N0400001N1+01671+00121101971ADDAA112000091AY111061AY201061GF104991011001022501031011KA1120M+02011MA1999999095021MD1810011+9999MW1031REMSYN094AAXX  28181 01245 11882 40901 10167 20012 39502 40197 58001 60002 70310 81031 333 10201 4////;EQDQ01  00002PRCP12
0259012450999992008052906004+62600+009667FM-12+060699999V0209999C000012200019N0400001N1+00991+00471102021ADDAA112000091AA224000091AY101061AY201061GF103991031001022501031001KA1120N+00541MA1999999094921MD1710101+9999MW1031REMSYN100AAXX  29061 01245 11882 30000 10099 20047 39492 40202 57010 60002 70300 83030 333 20054 4//// 70000;EQDQ01  00002PRCP24Q02  00002PRCP12
0171012450999992008052909004+62600+009667FM-12+060699999V0209999C000012200019N0400001N1+01761+00351101771ADDAY101031AY201031GF101991011001022501031001MA1999999094871MD1710051+9999MW1011REMSYN082AAXX  29091 01245 41882 10000 10176 20035 39487 40177 57005 70100 81030 333 4////;
0177012450999992008052912004+62600+009667FM-12+060699999V0202301N001012200019N0400001N1+02021+00261101681ADDAY101061AY201061GF101991011001022501031001MA1999999094831MD1710021+9999MW1021REMSYN088AAXX  29121 01245 11882 12301 10202 20026 39483 40168 57002 6//// 70200 81030 333 4////;
0226012450999992008052918004+62600+009667FM-12+060699999V0200501N001012200019N0400001N1+01941+00401101691ADDAA112000091AY121061AY201061GF105991021001022501011011KA1120M+02231MA1999999094821MD1310021+9999MW1031REMSYN094AAXX  29181 01245 11882 50501 10194 20040 39482 40169 53002 60002 70320 82011 333 10223 4////;EQDQ01  00002PRCP12
0259012450999992008053006004+62600+009667FM-12+060699999V0203201N001019999999N0400001N1+01111+00651102091ADDAA112000091AA224000091AY121061AY201061GF105991001001999999001081KA1120N+00671MA1999999095011MD1710041+9999MW1021REMSYN100AAXX  30061 01245 11982 53201 10111 20065 39501 40209 57004 60002 70220 80008 333 20067 4//// 70000;EQDQ01  00002PRCP24Q02  00002PRCP12
0171012450999992008053009004+62600+009667FM-12+060699999V0202701N001019999999N0400001N1+01791+00411101851ADDAY121031AY201031GF105991001001999999001081MA1999999094951MD1710061+9999MW1021REMSYN082AAXX  30091 01245 41982 52701 10179 20041 39495 40185 57006 70220 80008 333 4////;
0177012450999992008053012004+62600+009667FM-12+060699999V0202701N001019999999N0400001N1+02041+00231101741ADDAY121061AY201061GF107991001001999999001081MA1999999094901MD1710051+9999MW1031REMSYN088AAXX  30121 01245 11982 72701 10204 20023 39490 40174 57005 6//// 70320 80008 333 4////;
0226012450999992008053018004+62600+009667FM-12+060699999V0203001N001019999999N0400001N1+01971+00421101691ADDAA112000091AY121061AY201061GF106991001001999999001081KA1120M+02341MA1999999094831MD1310041+9999MW1011REMSYN094AAXX  30181 01245 11982 63001 10197 20042 39483 40169 53004 60002 70120 80008 333 10234 4////;EQDQ01  00002PRCP12
0259012450999992008053106004+62600+009667FM-12+060699999V0202901N001010210019N0400001N1+01301+00981101791ADDAA112000091AA224000091AY121061AY201061GF108991071001022501041081KA1120N+01151MA1999999094771MD1710031+9999MW1031REMSYN100AAXX  31061 01245 11882 82901 10130 20098 39477 40179 57003 60002 70320 87048 333 20115 4//// 70000;EQDQ01  00002PRCP24Q02  00002PRCP12
0171012450999992008053109004+62600+009667FM-12+060699999V0203001N001010210019N0400001N1+02131+00891101511ADDAY121031AY201031GF106991061001022501041081MA1999999094711MD1510031+9999MW1011REMSYN082AAXX  31091 01245 41882 63001 10213 20089 39471 40151 55003 70120 86048 333 4////;
0177012450999992008053112004+62600+009667FM-12+060699999V0202701N003012200019N0400001N1+02351+00841101411ADDAY121061AY201061GF104991001001999999001081MA1999999094661MD1810061+9999MW1011REMSYN088AAXX  31121 01245 11982 42703 10235 20084 39466 40141 58006 6//// 70120 80008 333 4////;
0226012450999992008053118004+62600+009667FM-12+060699999V0202701N001010210019N0400001N1+02151+00581101491ADDAA112000091AY121061AY201061GF106991061001022501041081KA1120M+02491MA1999999094681MD1210041+9999MW1031REMSYN094AAXX  31181 01245 11882 62701 10215 20058 39468 40149 52004 60002 70320 86048 333 10249 4////;EQDQ01  00002PRCP12
0259012450999992008060106004+62600+009667FM-12+060699999V0209999C000010150019N0400001N1+01141+00791101941ADDAA112000091AA224000091AY121061AY201061GF106991061001017501041061KA1120N+00971MA1999999094871MD1310021+9999MW1021REMSYN100AAXX  01061 01245 11782 60000 10114 20079 39487 40194 53002 60002 70220 86046 333 20097 4//// 70000;EQDQ01  00002PRCP24Q02  00002PRCP12
0171012450999992008060109004+62600+009667FM-12+060699999V0202201N001012200019N0400001N1+01741+00981101771ADDAY121031AY201031GF104991031041012501031001MA1999999094861MD1810031+9999MW1011REMSYN082AAXX  01091 01245 41682 42201 10174 20098 39486 40177 58003 70120 83430 333 4////;
0177012450999992008060112004+62600+009667FM-12+060699999V0209999C000010120019N0400001N1+01481+00901101951ADDAY121061AY201061GF107991061081008001051001MA1999999094971MD1210121+9999MW1601REMSYN088AAXX  01121 01245 11582 70000 10148 20090 39497 40195 52012 6//// 76020 86850 333 4////;
0207012450999992008060118004+62600+009667FM-12+060699999V0200901N003010090019N0300001N1+01211+01001102151ADDAA112000021AY161061AY221061GF107991071081004501999999KA1120M+01871MA1999999095081MD1210091+9999MW1021REMSYN094AAXX  01181 01245 11480 70903 10121 20100 39508 40215 52009 69902 70262 878// 333 10187 4////;
0243012450999992008060206004+62600+009667FM-12+060699999V0201201N001012200019N0400001N1+00981+00581102281ADDAA112000091AA224000021AY121061AY201061GF101991011011012501001001KA1120N+00711MA1999999095161MD1810031+9999MW1011REMSYN100AAXX  02061 01245 11682 11201 10098 20058 39516 40228 58003 60002 70120 81100 333 20071 4//// 70000;EQDQ01  00002PRCP12
0181012450999992008060209004+62600+009667FM-12+060699999V0200901N001012200019N0400001N1+01501+00291101981ADDAY101031AY201031GA1001+999999999GF100991001001999999001001MA1999999095001MD1710161+9999MW1011REMSYN076AAXX  02091 01245 41982 00901 10150 20029 39500 40198 57016 70100 333 4////;
0177012450999992008060212004+62600+009667FM-12+060699999V0200901N003012200019N0400001N1+01921+00211101781ADDAY101061AY201061GF101991001001999999001011MA1999999094911MD1810091+9999MW1031REMSYN088AAXX  02121 01245 11982 10903 10192 20021 39491 40178 58009 6//// 70300 80001 333 4////;
0226012450999992008060218004+62600+009667FM-12+060699999V0200901N001012200019N0400001N1+02051+00091101591ADDAA112000091AY101061AY201061GF101991011011012501001011KA1120M+02141MA1999999094761MD1710071+9999MW1031REMSYN094AAXX  02181 01245 11682 10901 10205 20009 39476 40159 57007 60002 70300 81101 333 10214 4////;EQDQ01  00002PRCP12
0259012450999992008060306004+62600+009667FM-12+060699999V0209999C000012200019N0400001N1+01691+00761101701ADDAA112000091AA224000091AY101061AY201061GF102991011011012501001011KA1120N+01021MA1999999094781MD1210011+9999MW1021REMSYN100AAXX  03061 01245 11682 20000 10169 20076 39478 40170 52001 60002 70200 81101 333 20102 4//// 70000;EQDQ01  00002PRCP24Q02  00002PRCP12
0171012450999992008060309004+62600+009667FM-12+060699999V0201801N005012200019N0400001N1+02081+00671101731ADDAY101031AY201031GF102991011011012501001011MA1999999094901MD1310011+9999MW1021REMSYN082AAXX  03091 01245 41682 21805 10208 20067 39490 40173 53001 70200 81101 333 4////;
0177012450999992008060312004+62600+009667FM-12+060699999V0202101N005012200019N0400001N1+02241+00661101681ADDAY101061AY201061GF103991011011012501001011MA1999999094881MD1010001+9999MW1031REMSYN088AAXX  03121 01245 11682 32105 10224 20066 39488 40168 50000 6//// 70300 81101 333 4////;
0226012450999992008060318004+62600+009667FM-12+060699999V0209999C000010120019N0400001N1+99999+99999101701ADDAA112000091AY121061AY201061GF106991061011012501001001KA1120M+02461MA1999999094901MD1210031+9999MW1031REMSYN094AAXX  03181 01245 11682 60000 1//// 2//// 39490 40170 52003 60002 70320 86100 333 10246 4////;EQDQ01  00002PRCP12
0259012450999992008060406004+62600+009667FM-12+060699999V0203201N001012200019N0400001N1+01621+00661102161ADDAA112000091AA224000091AY121061AY201061GF104991001001999999001011KA1120N+01231MA1999999095201MD1210031+9999MW1021REMSYN100AAXX  04061 01245 11982 43201 10162 20066 39520 40216 52003 60002 70220 80001 333 20123 4//// 70000;EQDQ01  00002PRCP24Q02  00002PRCP12
0171012450999992008060409004+62600+009667FM-12+060699999V0202301N003012200019N0400001N1+02071+00731102031ADDAY101031AY201031GF102991001001999999001011MA1999999095171MD1710021+9999MW1011REMSYN082AAXX  04091 01245 41982 22303 10207 20073 39517 40203 57002 70100 80001 333 4////;
0177012450999992008060412004+62600+009667FM-12+060699999V0202301N003019999999N0400001N1+02211+00551101971ADDAY111061AY201061GF105991001001999999001071MA1999999095151MD1710031+9999MW1031REMSYN088AAXX  04121 01245 11982 52303 10221 20055 39515 40197 57003 6//// 70310 80007 333 4////;
0226012450999992008060418004+62600+009667FM-12+060699999V0202701N001012200019N0400001N1+02301+00501101841ADDAA112000091AY111061AY201061GF102991001001999999001011KA1120M+02501MA1999999095051MD1710051+9999MW1011REMSYN094AAXX  04181 01245 11982 22701 10230 20050 39505 40184 57005 60002 70110 80001 333 10250 4////;EQDQ01  00002PRCP12
0259012450999992008060506004+62600+009667FM-12+060699999V0203201N001012200019N0400001N1+01311+00671102301ADDAA112000091AA224000091AY101061AY201061GF101991001001999999001011KA1120N+00811MA1999999095261MD1410001+9999MW1011REMSYN100AAXX  05061 01245 11982 13201 10131 20067 39526 40230 54001 60002 70100 80001 333 20081 4//// 70000;EQDQ01  00002PRCP24Q02  00002PRCP12
0171012450999992008060509004+62600+009667FM-12+060699999V0209999C000012200019N0400001N1+02081+00671102041ADDAY101031AY201031GF101991001001999999001011MA1999999095181MD1710061+9999MW1021REMSYN082AAXX  05091 01245 41982 10000 10208 20067 39518 40204 57006 70200 80001 333 4////;
0177012450999992008060512004+62600+009667FM-12+060699999V0201801N001012200019N0400001N1+02371+00611101891ADDAY101061AY201061GF102991011011012501001011MA1999999095111MD1710091+9999MW1031REMSYN088AAXX  05121 01245 11682 21801 10237 20061 39511 40189 57009 6//// 70300 81101 333 4////;
0226012450999992008060518004+62600+009667FM-12+060699999V0200501N005012200019N0400001N1+02101+00831101901ADDAA112000091AY101061AY201061GF102991011011012501001011KA1120M+02561MA1999999095061MD1210011+9999MW1011REMSYN094AAXX  05181 01245 11682 20505 10210 20083 39506 40190 52001 60002 70100 81101 333 10256 4////;EQDQ01  00002PRCP12
0269012450999992008060606004+62600+009667FM-12+060699999V0209999C000012200019N0400001N1+01451+00801102131ADDAA112000091AA224000091AY101061AY201061GA1001+999999999GF100991001001999999001001KA1120N+00881MA1999999095121MD1710091+9999MW1021REMSYN094AAXX  06061 01245 11982 00000 10145 20080 39512 40213 57009 60002 70200 333 20088 4//// 70000;EQDQ01  00002PRCP24Q02  00002PRCP12
0171012450999992008060609004+62600+009667FM-12+060699999V0209999C000012200019N0400001N1+02041+00871101891ADDAY101031AY201031GF101991001001999999001011MA1999999095031MD1710101+9999MW1031REMSYN082AAXX  06091 01245 41982 10000 10204 20087 39503 40189 57010 70300 80001 333 4////;
0177012450999992008060612004+62600+009667FM-12+060699999V0203201N001012200019N0400001N1+02441+00621101701ADDAY101061AY201061GF101991011011012501001001MA1999999094951MD1710091+9999MW1031REMSYN088AAXX  06121 01245 11682 13201 10244 20062 39495 40170 57009 6//// 70300 81100 333 4////;
0226012450999992008060618004+62600+009667FM-12+060699999V0203601N003012200019N0400001N1+02131+00641101671ADDAA112000091AY101061AY201061GF102991001001999999001011KA1120M+02481MA1999999094861MD1710031+9999MW1031REMSYN094AAXX  06181 01245 11982 23603 10213 20064 39486 40167 57003 60002 70300 80001 333 10248 4////;EQDQ01  00002PRCP12
0259012450999992008060706004+62600+009667FM-12+060699999V0200401N001012200019N0400001N1+01351+00861101961ADDAA112000091AA224000091AY101061AY201061GF101991001001999999001011KA1120N+00951MA1999999094951MD1710061+9999MW1011REMSYN100AAXX  07061 01245 11982 10401 10135 20086 39495 40196 57006 60002 70100 80001 333 20095 4//// 70000;EQDQ01  00002PRCP24Q02  00002PRCP12
0181012450999992008060709004+62600+009667FM-12+060699999V0202701N001012200019N0400001N1+02121+00671101711ADDAY101031AY201031GA1001+999999999GF100991001001999999001001MA1999999094881MD1710051+9999MW1011REMSYN076AAXX  07091 01245 41982 02701 10212 20067 39488 40171 57005 70100 333 4////;
0177012450999992008060712004+62600+009667FM-12+060699999V0203201N001012200019N0400001N1+02591+00701101511ADDAY101061AY201061GF102991021011012501001001MA1999999094811MD1710071+9999MW1031REMSYN088AAXX  07121 01245 11682 23201 10259 20070 39481 40151 57007 6//// 70300 82100 333 4////;
0226012450999992008060718004+62600+009667FM-12+060699999V0202101N001010120019N0400001N1+02031+00961101691ADDAA112000091AY181061AY211061GF106991061021012501001001KA1120M+02741MA1999999094851MD1310111+9999MW1011REMSYN094AAXX  07181 01245 11682 62101 10203 20096 39485 40169 53011 69902 70181 86200 333 10274 4////;EQDQ01  00002PRCP12
0259012450999992008060806004+62600+009667FM-12+060699999V0202301N001012200019N0400001N1+01221+00921101691ADDAA112000091AA224000091AY121061AY201061GF103991021001022501031011KA1120N+00931MA1999999094671MD1710131+9999MW1011REMSYN100AAXX  08061 01245 11882 32301 10122 20092 39467 40169 57013 60002 70120 82031 333 20093 4//// 70000;EQDQ01  00002PRCP24Q02  00002PRCP12
0171012450999992008060809004+62600+009667FM-12+060699999V0203201N003010750019N0400001N1+01781+00811101441ADDAY121031AY201031GF105991011011012501001021MA1999999094561MD1610111+9999MW1031REMSYN082AAXX  08091 01245 41682 53203 10178 20081 39456 40144 56011 70320 81102 333 4////;
0177012450999992008060812004+62600+009667FM-12+060699999V0203201N003010300019N0400001N1+01801+00151101351ADDAY121061AY201061GF107991021011012501011999MA1999999094471MD1710081+9999MW1031REMSYN088AAXX  08121 01245 11682 73203 10180 20015 39447 40135 57008 6//// 70320 8211/ 333 4////;
0226012450999992008060818004+62600+009667FM-12+060699999V0203001N005010120019N0400001N1+01381+00521101051ADDAA112000091AY121061AY221061GF106991061051012501001001KA1120M+01961MA1999999094111MD1510181+9999MW1011REMSYN094AAXX  08181 01245 11682 63005 10138 20052 39411 40105 55018 60002 70122 86500 333 10196 4////;EQDQ01  00002PRCP12
0224012450999992008060906004+62600+009667FM-12+060699999V0203201N005010120019N0400001N1+00901+00191101411ADDAA112002091AA224002391AY161061AY221061GF106991061051012501001001KA1120N+00651MA1999999094321MD1510031+9999MW1011REMSYN100AAXX  09061 01245 11682 63205 10090 20019 39432 40141 55003 60022 70162 86500 333 20065 4//// 70024;
0171012450999992008060909004+62600+009667FM-12+060699999V0203001N005010075019N0200001N1+00831+00431101481ADDAY161031AY221031GF107991061051008001021001MA1999999094371MD1310051+9999MW1601REMSYN082AAXX  09091 01245 41570 73005 10083 20043 39437 40148 53005 76062 86520 333 4////;
0177012450999992008060912004+62600+009667FM-12+060699999V0202701N005010120019N0400001N1+01081+00341101341ADDAY161061AY221061GF107991061051012501021001MA1999999094311MD1810071+9999MW1011REMSYN088AAXX  09121 01245 11682 72705 10108 20034 39431 40134 58007 6//// 70162 86520 333 4////;
0207012450999992008060918004+62600+009667FM-12+060699999V0209999C000010120019N0400001N1+01161+00531100661ADDAA112000391AY161061AY221061GF108991061051012501021999KA1120M+01241MA1999999093681MD1810411+9999MW1021REMSYN094AAXX  09181 01245 11682 80000 10116 20053 39368 40066 58041 69932 70262 8652/ 333 10124 4////;
0224012450999992008061006004+62600+009667FM-12+060699999V0203201N001012200019N0400001N1+00821+00461099481ADDAA112002091AA224002391AY181061AY211061GF103991031011008001001001KA1120N+00761MA1999999092521MD1810221+9999MW1011REMSYN100AAXX  10061 01245 11582 33201 10082 20046 39252 49948 58022 60022 70181 83100 333 20076 4//// 70022;
0171012450999992008061009004+62600+009667FM-12+060699999V0202701N005010120019N0400001N1+00891+00311099381ADDAY161031AY211031GF107991051051012501021999MA1999999092431MD1510051+9999MW1601REMSYN082AAXX  10091 01245 41682 72705 10089 20031 39243 49938 55005 76061 8552/ 333 4////;
0177012450999992008061012004+62600+009667FM-12+060699999V0203001N005010075019N0100001N1+00721+00211099571ADDAY161061AY211061GF108991071051008001021999MA1999999092571MD1310131+9999MW1611REMSYN088AAXX  10121 01245 11560 83005 10072 20021 39257 49957 53013 6//// 76161 8752/ 333 4////;
0207012450999992008061018004+62600+009667FM-12+060699999V0202701N005010120019N0200001N1+00581+00061099801ADDAA112000591AY161061AY221061GF105991051081008001001001KA1120M+01241MA1999999092761MD1710021+9999MW1011REMSYN094AAXX  10181 01245 11570 52705 10058 20006 39276 49980 57002 69952 70162 85800 333 10124 4////;
0266012450999992008061106004+62600+009667FM-12+060699999V0203001N001010042019N0060001N1+00101+00011100051ADDAA112007991AA224008491AJ199992999999999AY171061AY261061GF108991081001004501021999IA1259KA1120N+00061MA1999999092871MD1210121+9999MW1711REMSYN100AAXX  11061 01245 11456 83001 10010 20001 39287 40005 52012 60082 77176 8802/ 333 20006 41998 70085;EQDQ01  09982SNDP  
0171012450999992008061109004+62600+009667FM-12+060699999V0202301N003010075019N0200001N1+00441+00191100141ADDAY171031AY261031GF106991061071008001001001MA1999999093031MD1210191+9999MW1011REMSYN082AAXX  11091 01245 41570 62303 10044 20019 39303 40014 52019 70176 86700 333 4////;
0177012450999992008061112004+62600+009667FM-12+060699999V0202701N003010075019N0300001N1+00721+00071100241ADDAY171061AY221061GF106991051071008001001011MA1999999093201MD1110151+9999MW1011REMSYN088AAXX  11121 01245 11580 62703 10072 20007 39320 40024 51015 6//// 70172 85701 333 4////;
0207012450999992008061118004+62600+009667FM-12+060699999V0202401N001010075019N0200001N1+00681+00151100511ADDAA112000891AY161061AY221061GF107991071071008001999999KA1120M+00801MA1999999093431MD1210091+9999MW1011REMSYN094AAXX  11181 01245 11570 72401 10068 20015 39343 40051 52009 69982 70162 877// 333 10080 4////;
0224012450999992008061206004+62600+009667FM-12+060699999V0209999C000010075019N0200001N1+00491+00121100681ADDAA112002091AA224002591AY161061AY221061GF107991061051008001021999KA1120N+00361MA1999999093551MD1410001+9999MW1011REMSYN100AAXX  12061 01245 11570 70000 10049 20012 39355 40068 54001 60022 70162 8652/ 333 20036 4//// 70025;
0171012450999992008061209004+62600+009667FM-12+060699999V0202701N001010075019N0200001N1+00561+00191100661ADDAY161031AY221031GF108991061051008001021999MA1999999093551MD1410001+9999MW1031REMSYN082AAXX  12091 01245 41570 82701 10056 20019 39355 40066 54001 70362 8652/ 333 4////;
0177012450999992008061212004+62600+009667FM-12+060699999V0202701N003010120019N0300001N1+00691+00011100581ADDAY161061AY221061GF107991051071012501021999MA1999999093511MD1710041+9999MW1011REMSYN088AAXX  12121 01245 11680 72703 10069 20001 39351 40058 57004 6//// 70162 8572/ 333 4////;
0226012450999992008061218004+62600+009667FM-12+060699999V0203001N003010075019N0200001N1+00681+00051100481ADDAA112000091AY121061AY221061GF107991071071008001999999KA1120M+00791MA1999999093411MD1710061+9999MW1031REMSYN094AAXX  12181 01245 11570 73003 10068 20005 39341 40048 57006 69922 70322 877// 333 10079 4////;EQDQ01  00002PRCP12
0224012450999992008061306004+62600+009667FM-12+060699999V0203201N003010021019N0060001N1+00341+00161100611ADDAA112001091AA224001391AY181061AY221061GF106991051021002501001011KA1120N+00311MA1999999093451MD1210041+9999MW1801REMSYN100AAXX  13061 01245 11356 63203 10034 20016 39345 40061 52004 60012 78082 85201 333 20031 4//// 70012;
0171012450999992008061309004+62600+009667FM-12+060699999V0202701N003010750019N0300001N1+00641+00091100541ADDAY181031AY221031GF106991031021008001001081MA1999999093461MD1010011+9999MW1011REMSYN082AAXX  13091 01245 41580 62703 10064 20009 39346 40054 50001 70182 83208 333 4////;
0177012450999992008061312004+62600+009667FM-12+060699999V0200901N003010750019N0300001N1+00861+00151100461ADDAY181061AY221061GF106991041021008001001081MA1999999093431MD1710021+9999MW1151REMSYN088AAXX  13121 01245 11580 60903 10086 20015 39343 40046 57002 6//// 71582 84208 333 4////;
0207012450999992008061318004+62600+009667FM-12+060699999V0201201N003012200019N0200001N1+00621+00251100571ADDAA112000891AY181061AY221061GF106991041021008001001011KA1120M+00961MA1999999093471MD1410001+9999MW1011REMSYN094AAXX  13181 01245 11570 61203 10062 20025 39347 40057 54001 69982 70182 84201 333 10096 4////;
0224012450999992008061406004+62600+009667FM-12+060699999V0200601N001010042019N0200001N1+00671+00221100531ADDAA112000591AA224001391AY161061AY221061GF107991051071004501021999KA1120N+00451MA1999999093461MD1410001+9999MW1011REMSYN100AAXX  14061 01245 11470 70601 10067 20022 39346 40053 54001 69952 70162 8572/ 333 20045 4//// 70013;
0171012450999992008061409004+62600+009667FM-12+060699999V0200601N003010075019N0200001N1+00931+00371100441ADDAY121031AY221031GF107991071051008001001001MA1999999093431MD1710021+9999MW1011REMSYN082AAXX  14091 01245 41570 70603 10093 20037 39343 40044 57002 70122 87500 333 4////;
0177012450999992008061412004+62600+009667FM-12+060699999V0200601N003010120019N0300001N1+00961+00381100441ADDAY161061AY221061GF107991071051012501999999MA1999999093431MD1410001+9999MW1011REMSYN088AAXX  14121 01245 11680 70603 10096 20038 39343 40044 54001 6//// 70162 875// 333 4////;
0207012450999992008061418004+62600+009667FM-12+060699999V0201401N003010750019N0300001N1+01201+00351100231ADDAA112000591AY181061AY221061GF105991041021012501001091KA1120M+01261MA1999999093301MD1710051+9999MW1011REMSYN094AAXX  14181 01245 11680 51403 10120 20035 39330 40023 57005 69942 70182 84209 333 10126 4////;
0243012450999992008061506004+62600+009667FM-12+060699999V0202701N001010120019N0300001N1+00881+00131100291ADDAA112000091AA224000591AY121061AY221061GF106991051021012501001081KA1120N+00551MA1999999093271MD1710021+9999MW1031REMSYN100AAXX  15061 01245 11680 62701 10088 20013 39327 40029 57002 60002 70322 85208 333 20055 4//// 70004;EQDQ01  00002PRCP12
0171012450999992008061509004+62600+009667FM-12+060699999V0203001N001010750019N0300001N1+01191-00021100101ADDAY121031AY221031GF105991031021012501001091MA1999999093171MD1710021+9999MW1011REMSYN082AAXX  15091 01245 41680 53001 10119 21002 39317 40010 57002 70122 83209 333 4////;
0177012450999992008061512004+62600+009667FM-12+060699999V0201201N003010120019N0300001N1+01261+00251100061ADDAY121061AY221061GF106991061021012501001001MA1999999093161MD1710031+9999MW1031REMSYN088AAXX  15121 01245 11680 61203 10126 20025 39316 40006 57003 6//// 70322 86200 333 4////;
0226012450999992008061518004+62600+009667FM-12+060699999V0202401N001012200019N0400001N1+00871+00431100291ADDAA112000091AY181061AY211061GF104991021011012501011001KA1120M+01561MA1999999093271MD1310051+9999MW1011REMSYN094AAXX  15181 01245 11682 42401 10087 20043 39327 40029 53005 69912 70181 82110 333 10156 4////;EQDQ01  00002PRCP12
0259012450999992008061606004+62600+009667FM-12+060699999V0209999C000012200019N0400001N1+00781+00251100351ADDAA112000091AA224000091AY101061AY201061GF101991011011012501001001KA1120N+00251MA1999999093321MD1710021+9999MW1031REMSYN100AAXX  16061 01245 11682 10000 10078 20025 39332 40035 57002 60002 70300 81100 333 20025 4//// 70001;EQDQ01  00002PRCP24Q02  00002PRCP12
0171012450999992008061609004+62600+009667FM-12+060699999V0202401N001012200019N0400001N1+01211+00231100211ADDAY101031AY201031GF104991041021012501001001MA1999999093281MD1710041+9999MW1031REMSYN082AAXX  16091 01245 41682 42401 10121 20023 39328 40021 57004 70300 84200 333 4////;
0177012450999992008061612004+62600+009667FM-12+060699999V0200901N005012200019N0400001N1+01331+00341100201ADDAY101061AY201061GF104991041021012501001001MA1999999093311MD1210031+9999MW1031REMSYN088AAXX  16121 01245 11682 40905 10133 20034 39331 40020 52003 6//// 70300 84200 333 4////;
0226012450999992008061618004+62600+009667FM-12+060699999V0202701N003012200019N0400001N1+01061+00391100371ADDAA112000091AY161061AY221061GF104991031021012501001011KA1120M+01431MA1999999093401MD1110101+9999MW1031REMSYN094AAXX  16181 01245 11682 42703 10106 20039 39340 40037 51010 69902 70362 83201 333 10143 4////;EQDQ01  00002PRCP12
0259012450999992008061706004+62600+009667FM-12+060699999V0203201N001012200019N0400001N1+00811+00451100571ADDAA112000091AA224000091AY101061AY201061GF102991011001022501031011KA1120N+00451MA1999999093521MD1410001+9999MW1031REMSYN100AAXX  17061 01245 11882 23201 10081 20045 39352 40057 54000 60002 70300 81031 333 20045 4//// 70000;EQDQ01  00002PRCP24Q02  00002PRCP12
0171012450999992008061709004+62600+009667FM-12+060699999V0201201N001010120019N0400001N1+01361+00191100431ADDAY121031AY201031GF106991051021012501001011MA1999999093521MD1010011+9999MW1031REMSYN082AAXX  17091 01245 41682 61201 10136 20019 39352 40043 50001 70320 85201 333 4////;
0177012450999992008061712004+62600+009667FM-12+060699999V0201201N001010120019N0400001N1+01361+00481100481ADDAY121061AY201061GF106991051021012501001011MA1999999093571MD1210041+9999MW1021REMSYN088AAXX  17121 01245 11682 61201 10136 20048 39357 40048 52004 6//// 70220 85201 333 4////;
0207012450999992008061718004+62600+009667FM-12+060699999V0200901N005010075019N0200001N1+00981+00651100631ADDAA112000391AY181061AY221061GF108991071071008001021999KA1120M+01471MA1999999093621MD1210081+9999MW1031REMSYN094AAXX  17181 01245 11570 80905 10098 20065 39362 40063 52008 69932 70382 8772/ 333 10147 4////;
0224012450999992008061806004+62600+009667FM-12+060699999V0209999C000010042019N0100001N1+00681+00501100481ADDAA112007191AA224007191AY161061AY221061GF108991071071004501021999KA1120N+00621MA1999999093411MD1610101+9999MW1601REMSYN100AAXX  18061 01245 11460 80000 10068 20050 39341 40048 56010 60072 76062 8772/ 333 20062 4//// 70072;
0171012450999992008061809004+62600+009667FM-12+060699999V0203001N001010075019N0200001N1+01141+00321100311ADDAY121031AY221031GF107991061071008001021999MA1999999093361MD1710051+9999MW1011REMSYN082AAXX  18091 01245 41570 73001 10114 20032 39336 40031 57005 70122 8672/ 333 4////;
0177012450999992008061812004+62600+009667FM-12+060699999V0203001N001010120019N0300001N1+01241+00141100231ADDAY121061AY221061GF106991061021012501001001MA1999999093311MD1710051+9999MW1011REMSYN088AAXX  18121 01245 11680 63001 10124 20014 39331 40023 57005 6//// 70122 86200 333 4////;
0207012450999992008061818004+62600+009667FM-12+060699999V0200901N003010120019N0300001N1+01001+00481100291ADDAA112000021AY181061AY221061GF106991051021012501001051KA1120M+01501MA1999999093311MD1210041+9999MW1021REMSYN094AAXX  18181 01245 11680 60903 10100 20048 39331 40029 52004 69922 70282 85205 333 10150 4////;
0243012450999992008061906004+62600+009667FM-12+060699999V0202701N001012200019N0400001N1+01041+00661100161ADDAA112000091AA224000391AY121061AY211061GF102991021011017501001011KA1120N+00511MA1999999093201MD1710051+9999MW1011REMSYN100AAXX  19061 01245 11782 22701 10104 20066 39320 40016 57005 60002 70121 82101 333 20051 4//// 70002;EQDQ01  00002PRCP12
0171012450999992008061909004+62600+009667FM-12+060699999V0201201N001010120019N0400001N1+01281+00321100001ADDAY121031AY201031GF107991071051012501999999MA1999999093111MD1710091+9999MW1031REMSYN082AAXX  19091 01245 41682 71201 10128 20032 39311 40000 57009 70320 875// 333 4////;
0177012450999992008061912004+62600+009667FM-12+060699999V0201801N003010120019N0400001N1+01211+00341100011ADDAY161061AY211061GF108991061051012501021999MA1999999093101MD1710011+9999MW1031REMSYN088AAXX  19121 01245 11682 81803 10121 20034 39310 40001 57001 6//// 70361 8652/ 333 4////;
0226012450999992008061918004+62600+009667FM-12+060699999V0202301N001010120019N0300001N1+01251+00571099631ADDAA112000091AY161061AY221061GF107991061051012501021999KA1120M+01451MA1999999092761MD1710161+9999MW1151REMSYN094AAXX  19181 01245 11680 72301 10125 20057 39276 49963 57016 69902 71562 8652/ 333 10145 4////;EQDQ01  00002PRCP12
0259012450999992008062006004+62600+009667FM-12+060699999V0202301N003012200019N0400001N1+01171+00271099461ADDAA112000091AA224000091AY111061AY201061GF102991021011017501001001KA1120N+00921MA1999999092571MD1610031+9999MW1011REMSYN100AAXX  20061 01245 11782 22303 10117 20027 39257 49946 56003 60002 70110 82100 333 20092 4//// 70000;EQDQ01  00002PRCP24Q02  00002PRCP12
0177012450999992008062012004+62600+009667FM-12+060699999V0202201N005010120019N0400001N1+01361+00341099481ADDAY121061AY201061GF106991051041012501011001MA1999999092631MD1210051+9999MW1031REMSYN088AAXX  20121 01245 11682 62205 10136 20034 39263 49948 52005 6//// 70320 85410 333 4////;
0226012450999992008062018004+62600+009667FM-12+060699999V0202601N007012200019N0400001N1+01371+00071099571ADDAA112000091AY111061AY201061GF104991021011017501001011KA1120M+01561MA1999999092721MD1310061+9999MW1011REMSYN094AAXX  20181 01245 11782 42607 10137 20007 39272 49957 53006 60002 70110 82101 333 10156 4////;EQDQ01  00002PRCP12
0259012450999992008062106004+62600+009667FM-12+060699999V0209999C000010120019N0400001N1+01071+00211099941ADDAA112000091AA224000091AY121061AY201061GF106991051011012501041001KA1120N+00621MA1999999093001MD1210081+9999MW1031REMSYN100AAXX  21061 01245 11682 60000 10107 20021 39300 49994 52008 60002 70320 85140 333 20062 4//// 70000;EQDQ01  00002PRCP24Q02  00002PRCP12
0171012450999992008062109004+62600+009667FM-12+060699999V0202001N003010120019N0400001N1+01011+00291100121ADDAY161031AY221031GF107991071051012501999999MA1999999093161MD1310161+9999MW1801REMSYN082AAXX  21091 01245 41682 72003 10101 20029 39316 40012 53016 78062 875// 333 4////;
0177012450999992008062112004+62600+009667FM-12+060699999V0202101N005010300019N0400001N1+01101+00361100291ADDAY161061AY221061GF106991041051012501011001MA1999999093331MD1310171+9999MW1011REMSYN088AAXX  21121 01245 11682 62105 10110 20036 39333 40029 53017 6//// 70162 84510 333 4////;
0207012450999992008062118004+62600+009667FM-12+060699999V0202701N005010120019N0300001N1+00921+00381100721ADDAA112000391AY161061AY221061GF106991061051012501999999KA1120M+01261MA1999999093681MD1310171+9999MW1801REMSYN094AAXX  21181 01245 11680 62705 10092 20038 39368 40072 53017 69932 78062 865// 333 10126 4////;
0224012450999992008062206004+62600+009667FM-12+060699999V0209999C000010075019N0300001N1+00711+00321101181ADDAA112000391AA224000591AY161061AY221061GF106991061051008001999999KA1120N+00561MA1999999094071MD1710031+9999MW1021REMSYN100AAXX  22061 01245 11580 60000 10071 20032 39407 40118 57003 69932 70262 865// 333 20056 4//// 70006;
0171012450999992008062209004+62600+009667FM-12+060699999V0202701N003010075019N0300001N1+00871+00331101021ADDAY121031AY221031GF106991061051008001999999MA1999999093961MD1810111+9999MW1021REMSYN082AAXX  22091 01245 41580 62703 10087 20033 39396 40102 58011 70222 865// 333 4////;
0177012450999992008062212004+62600+009667FM-12+060699999V0200901N003012200019N0400001N1+01261+00221100611ADDAY121061AY201061GF105991041011012501001011MA1999999093671MD1710291+9999MW1011REMSYN088AAXX  22121 01245 11682 50903 10126 20022 39367 40061 57029 6//// 70120 84101 333 4////;
0226012450999992008062218004+62600+009667FM-12+060699999V0209999C000010120019N0300001N1+01141+00171100211ADDAA112000091AY161061AY221061GF107991071051012501999999KA1120M+01631MA1999999093271MD1810121+9999MW1031REMSYN094AAXX  22181 01245 11680 70000 10114 20017 39327 40021 58012 69902 70362 875// 333 10163 4////;EQDQ01  00002PRCP12
0259012450999992008062306004+62600+009667FM-12+060699999V0200901N003010120019N0300001N1+01171+00491100191ADDAA112000091AA224000091AY121061AY201061GF107991071051012501999999KA1120N+00641MA1999999093261MD1710181+9999MW1021REMSYN100AAXX  23061 01245 11680 70903 10117 20049 39326 40019 57018 60002 70220 875// 333 20064 4//// 70000;EQDQ01  00002PRCP24Q02  00002PRCP12
0206012450999992008062309004+62600+009667FM-12+060699999V0202701N005010120019N0300001N1+01071+00551099282ADDAY121031AY221031GF107991071051012501999999MA1999999092382MD1310031+9999MW1021REMSYN082AAXX  23091 01245 41680 72705 10107 20055 39238 49928 53003 70222 875// 333 4////;EQDQ01+092383APOSP Q02+099283APOSLP
0226012450999992008062318004+62600+009667FM-12+060699999V0202701N003010075019N0250001N1+00701+00251100141ADDAA112000091AY121061AY201061GF107991071051008001999999KA1120M+01291MA1999999093101MD1510281+9999MW1151REMSYN094AAXX  23181 01245 11575 72703 10070 20025 39310 40014 55028 60002 71520 875// 333 10129 4////;EQDQ01  00002PRCP12
0224012450999992008062406004+62600+009667FM-12+060699999V0202701N005010075019N0200001N1+00441+00141100801ADDAA112000391AA224000391AY181061AY221061GF107991071021008001999999KA1120N+00341MA1999999093651MD1210121+9999MW1601REMSYN100AAXX  24061 01245 11570 72705 10044 20014 39365 40080 52012 69932 76082 872// 333 20034 4//// 70003;
0171012450999992008062409004+62600+009667FM-12+060699999V0202701N005010075019N0300001N1+00711+00141100811ADDAY161031AY221031GF106991061021008001999999MA1999999093721MD1210041+9999MW1011REMSYN082AAXX  24091 01245 41580 62705 10071 20014 39372 40081 52004 70162 862// 333 4////;
0177012450999992008062412004+62600+009667FM-12+060699999V0202901N007012200019N0250001N1+00711+00161100961ADDAY121061AY201061GF105991041021008001001011MA1999999093871MD1310141+9999MW1011REMSYN088AAXX  24121 01245 11575 52907 10071 20016 39387 40096 53014 6//// 70120 84201 333 4////;
0207012450999992008062418004+62600+009667FM-12+060699999V0202901N007010075019N0200001N1+00591+00161101311ADDAA112000021AY181061AY221061GF106991061021008001999999KA1120M+00961MA1999999094161MD1110131+9999MW1031REMSYN094AAXX  24181 01245 11570 62907 10059 20016 39416 40131 51013 69902 70382 862// 333 10096 4////;
0243012450999992008062506004+62600+009667FM-12+060699999V0202501N005010075019N0250001N1+00621+00151101261ADDAA112000091AA224000021AY181061AY221061GF105991051051008001001001KA1120N+00311MA1999999094121MD1510041+9999MW1021REMSYN100AAXX  25061 01245 11575 52505 10062 20015 39412 40126 55004 69902 70282 85500 333 20031 4//// 70000;EQDQ01  00002PRCP12
0171012450999992008062509004+62600+009667FM-12+060699999V0202801N005010075019N0250001N1+00701+00091101251ADDAY181031AY221031GF106991061051008001999999MA1999999094121MD1410001+9999MW1801REMSYN082AAXX  25091 01245 41575 62805 10070 20009 39412 40125 54000 78082 865// 333 4////;
0177012450999992008062512004+62600+009667FM-12+060699999V0202801N005010120019N0300001N1+00911+00081101161ADDAY181061AY221061GF105991051021012501001011MA1999999094101MD1710031+9999MW1011REMSYN088AAXX  25121 01245 11680 52805 10091 20008 39410 40116 57003 6//// 70182 85201 333 4////;
0207012450999992008062518004+62600+009667FM-12+060699999V0202801N003010120019N0400001N1+00851+00051101081ADDAA112000021AY181061AY221061GF106991061021012501999999KA1120M+01101MA1999999094011MD1710021+9999MW1031REMSYN094AAXX  25181 01245 11682 62803 10085 20005 39401 40108 57002 69902 70382 862// 333 10110 4////;
0243012450999992008062606004+62600+009667FM-12+060699999V0209999C000010075019N0200001N1+00471+00121101051ADDAA112000091AA224000021AY121061AY201061GF105991051021008001001001KA1120N+00111MA1999999093881MD1710041+9999MW1011REMSYN100AAXX  26061 01245 11570 50000 10047 20012 39388 40105 57004 60002 70120 85200 333 20011 4//// 70000;EQDQ01  00002PRCP12
0171012450999992008062609004+62600+009667FM-12+060699999V0202101N003012200019N0300001N1+01031-00111100801ADDAY101031AY201031GF101991011021012501001001MA1999999093781MD1710101+9999MW1011REMSYN082AAXX  26091 01245 41680 12103 10103 21011 39378 40080 57010 70100 81200 333 4////;
0177012450999992008062612004+62600+009667FM-12+060699999V0202101N001012200019N0400001N1+01411-00071100571ADDAY101061AY201061GF101991011011017501001011MA1999999093671MD1710111+9999MW1021REMSYN088AAXX  26121 01245 11782 12101 10141 21007 39367 40057 57011 6//// 70200 81101 333 4////;
0226012450999992008062618004+62600+009667FM-12+060699999V0200901N003012200019N0300001N1+01281+00121100541ADDAA112000091AY101061AY201061GF102991021001017501031041KA1120M+01641MA1999999093611MD1210031+9999MW1031REMSYN094AAXX  26181 01245 11780 20903 10128 20012 39361 40054 52003 60002 70300 82034 333 10164 4////;EQDQ01  00002PRCP12
0259012450999992008062706004+62600+009667FM-12+060699999V0209999C000012200019N0400001N1+00951+00431100721ADDAA112000091AA224000091AY161061AY221061GF104991021041017501071041KA1120N+00681MA1999999093701MD1010001+9999MW1021REMSYN100AAXX  27061 01245 11782 40000 10095 20043 39370 40072 50000 69902 70262 82474 333 20068 4//// 70000;EQDQ01  00002PRCP24Q02  00002PRCP12
0171012450999992008062709004+62600+009667FM-12+060699999V0200901N001012200019N0400001N1+01231+00431100571ADDAY111031AY201031GF104991031051017501071011MA1999999093621MD1710071+9999MW1021REMSYN082AAXX  27091 01245 41782 40901 10123 20043 39362 40057 57007 70210 83571 333 4////;
0177012450999992008062712004+62600+009667FM-12+060699999V0200601N001010120019N0400001N1+01431+00261100421ADDAY121061AY201061GF107991071051012501999999MA1999999093521MD1710101+9999MW1031REMSYN088AAXX  27121 01245 11682 70601 10143 20026 39352 40042 57010 6//// 70320 875// 333 4////;
0207012450999992008062718004+62600+009667FM-12+060699999V0209999C000010075019N0200001N1+01001+00831100611ADDAA112001091AY161061AY221061GF107991071051008001999999KA1120M+01601MA1999999093611MD1210021+9999MW1631REMSYN094AAXX  27181 01245 11570 70000 10100 20083 39361 40061 52002 60012 76362 875// 333 10160 4////;
0224012450999992008062806004+62600+009667FM-12+060699999V0209999C000010042019N0050001N1+00811+00691100731ADDAA112004191AA224005191AY181061AY261061GF107991071061004501999999KA1120N+00791MA1999999093671MD1110011+9999MW1611REMSYN100AAXX  28061 01245 11450 70000 10081 20069 39367 40073 51001 60042 76186 876// 333 20079 4//// 70050;
0171012450999992008062809004+62600+009667FM-12+060699999V0209999C000010042019N0150001N1+00921+00701100761ADDAY161031AY221031GF107991071051004501999999MA1999999093721MD1210051+9999MW1611REMSYN082AAXX  28091 01245 41465 70000 10092 20070 39372 40076 52005 76162 875// 333 4////;
0177012450999992008062812004+62600+009667FM-12+060699999V0200901N001010042019N0100001N1+00941+00681100811ADDAY161061AY221061GF107991071051004501999999MA1999999093771MD1210041+9999MW1021REMSYN088AAXX  28121 01245 11460 70901 10094 20068 39377 40081 52004 6//// 70262 875// 333 4////;
0207012450999992008062818004+62600+009667FM-12+060699999V0200901N001010075019N0250001N1+01141+00651100771ADDAA112000591AY161061AY221061GF106991061051008001999999KA1120M+01241MA1999999093781MD1410001+9999MW1011REMSYN094AAXX  28181 01245 11575 60901 10114 20065 39378 40077 54001 69952 70162 865// 333 10124 4////;
0243012450999992008062906004+62600+009667FM-12+060699999V0209999C000012200019N0400001N1+00901+00661100791ADDAA112000091AA224000591AY111061AY201061GF103991021041017501031001KA1120N+00641MA1999999093751MD1210051+9999MW1021REMSYN100AAXX  29061 01245 11782 30000 10090 20066 39375 40079 52005 60002 70210 82430 333 20064 4//// 70005;EQDQ01  00002PRCP12
0171012450999992008062909004+62600+009667FM-12+060699999V0209999C000010150019N0400001N1+01411+00521100521ADDAY121031AY201031GF105991051021017501001011MA1999999093621MD1710071+9999MW1031REMSYN082AAXX  29091 01245 41782 50000 10141 20052 39362 40052 57007 70320 85201 333 4////;
0177012450999992008062912004+62600+009667FM-12+060699999V0200901N001010300019N0400001N1+01741+00331100411ADDAY121061AY201061GF105991031021017501031001MA1999999093581MD1610101+9999MW1021REMSYN088AAXX  29121 01245 11782 50901 10174 20033 39358 40041 56010 6//// 70220 83230 333 4////;
0226012450999992008062918004+62600+009667FM-12+060699999V0201801N005010120019N0300001N1+01421+00771100431ADDAA112000091AY121061AY221061GF107991071051012501999999KA1120M+01811MA1999999093531MD1510061+9999MW1031REMSYN094AAXX  29181 01245 11680 71805 10142 20077 39353 40043 55006 60002 70322 875// 333 10181 4////;EQDQ01  00002PRCP12
0224012450999992008063006004+62600+009667FM-12+060699999V0209999C000010042019N0045001N1+01001+00811100441ADDAA112002091AA224002391AY181061AY221061GF107991071091004501999999KA1120N+00921MA1999999093451MD1410001+9999MW1801REMSYN100AAXX  30061 01245 11445 70000 10100 20081 39345 40044 54000 60022 78082 879// 333 20092 4//// 70024;
0171012450999992008063009004+62600+009667FM-12+060699999V0202701N001010042019N0048001N1+01081+00871100461ADDAY181031AY221031GF107991071091004501999999MA1999999093481MD1210041+9999MW1801REMSYN082AAXX  30091 01245 41448 72701 10108 20087 39348 40046 52004 78082 879// 333 4////;
0177012450999992008063012004+62600+009667FM-12+060699999V0202701N001010042019N0045001N1+00951+00691100671ADDAY181061AY261061GF107991071051004501999999MA1999999093651MD1310171+9999MW1651REMSYN088AAXX  30121 01245 11445 72701 10095 20069 39365 40067 53017 6//// 76586 875// 333 4////;
0207012450999992008063018004+62600+009667FM-12+060699999V0209999C000010120019N0300001N1+01071+00631100961ADDAA112011991AY181061AY221061GF105991051021012501061001KA1120M+01071MA1999999093951MD1210101+9999MW1011REMSYN094AAXX  30181 01245 11680 50000 10107 20063 39395 40096 52010 60122 70182 85260 333 10107 4////;
0224012450999992008070106004+62600+009667FM-12+060699999V0200901N001010300019N0100001N1+00621+00401101651ADDAA112004191AA224016591AY181061AY221061GF106991041071004501061001KA1120N+00601MA1999999094481MD1210091+9999MW1801REMSYN100AAXX  01061 01245 11460 60901 10062 20040 39448 40165 52009 60042 78082 84760 333 20060 4//// 70164;
0171012450999992008070109004+62600+009667FM-12+060699999V0200901N003012200019N0300001N1+00991+00431101621ADDAY181031AY221031GF104991041021017501001001MA1999999094551MD1210051+9999MW1011REMSYN082AAXX  01091 01245 41780 40903 10099 20043 39455 40162 52005 70182 84200 333 4////;
0177012450999992008070112004+62600+009667FM-12+060699999V0202701N001012200019N0400001N1+01441+00101101491ADDAY121061AY201061GF104991021021017501001011MA1999999094521MD1710021+9999MW1021REMSYN088AAXX  01121 01245 11782 42701 10144 20010 39452 40149 57002 6//// 70220 82201 333 4////;
0207012450999992008070118004+62600+009667FM-12+060699999V0200901N003010150019N0400001N1+01381+00361101591ADDAA112000021AY121061AY201061GF107991071021017501999999KA1120M+01571MA1999999094611MD1310061+9999MW1031REMSYN094AAXX  01181 01245 11782 70903 10138 20036 39461 40159 53006 69922 70320 872// 333 10157 4////;
0243012450999992008070206004+62600+009667FM-12+060699999V0209999C000012200019N0400001N1+01011+00611101841ADDAA112000091AA224000391AY121061AY201061GF104991041001017501031001KA1120N+00861MA1999999094761MD1710021+9999MW1011REMSYN100AAXX  02061 01245 11782 40000 10101 20061 39476 40184 57002 60002 70120 84030 333 20086 4//// 70002;EQDQ01  00002PRCP12
0171012450999992008070209004+62600+009667FM-12+060699999V0201301N001012200019N0400001N1+01571+00701101581ADDAY111031AY201031GF103991031001017501031011MA1999999094651MD1710111+9999MW1011REMSYN082AAXX  02091 01245 41782 31301 10157 20070 39465 40158 57011 70110 83031 333 4////;
0177012450999992008070212004+62600+009667FM-12+060699999V0201501N001012200019N0400001N1+02071+00661101391ADDAY111061AY201061GF102991021001017501031011MA1999999094571MD1710061+9999MW1011REMSYN088AAXX  02121 01245 11782 21501 10207 20066 39457 40139 57006 6//// 70110 82031 333 4////;
0226012450999992008070218004+62600+009667FM-12+060699999V0200501N001012200019N0400001N1+02241+00821101291ADDAA112000091AY111061AY201061GF102991021001022501041041KA1120M+02401MA1999999094521MD1410001+9999MW1011REMSYN094AAXX  02181 01245 11882 20501 10224 20082 39452 40129 54000 60002 70110 82044 333 10240 4////;EQDQ01  00002PRCP12
0269012450999992008070306004+62600+009667FM-12+060699999V0200601N001012200019N0400001N1+01751+00991100841ADDAA112000091AA224000091AY101061AY201061GA1001+999999999GF100991001001999999001001KA1120N+01161MA1999999094001MD1810011+9999MW1011REMSYN094AAXX  03061 01245 11982 00601 10175 20099 39400 40084 58001 60002 70100 333 20116 4//// 70000;EQDQ01  00002PRCP24Q02  00002PRCP12
0216012450999992008070309004+62600+009667FM-12+060699999V0201801N003012200019N0400001N1+02211+00831101572ADDAY101031AY201031GA1001+999999999GF100991001001999999001001MA1999999094772MD1710021+9999MW1021REMSYN076AAXX  03091 01245 41982 01803 10221 20083 39477 40157 57002 70200 333 4////;EQDQ01+094773APOSP Q02+101573APOSLP
0177012450999992008070312004+62600+009667FM-12+060699999V0201601N003012200019N0400001N1+02401+00761101481ADDAY101061AY201061GF101991011011022501001011MA1999999094731MD1710041+9999MW1031REMSYN088AAXX  03121 01245 11882 11603 10240 20076 39473 40148 57004 6//// 70300 81101 333 4////;
0226012450999992008070318004+62600+009667FM-12+060699999V0201201N003012200019N0400001N1+02411+00171101441ADDAA112000091AY101061AY201061GF101991011011022501001011KA1120M+02721MA1999999094701MD1710051+9999MW1021REMSYN094AAXX  03181 01245 11882 11203 10241 20017 39470 40144 57005 60002 70200 81101 333 10272 4////;EQDQ01  00002PRCP12
0269012450999992008070406004+62600+009667FM-12+060699999V0209999C000012200019N0400001N1+01941+00991101771ADDAA112000091AA224000091AY101061AY201061GA1001+999999999GF100991001001999999001001KA1120N+01501MA1999999094911MD1010001+9999MW1011REMSYN094AAXX  04061 01245 11982 00000 10194 20099 39491 40177 50000 60002 70100 333 20150 4//// 70000;EQDQ01  00002PRCP24Q02  00002PRCP12
0149012450999992008070409004+62600+009667FM-12+060699999V0201501N001012200019N0400001N1+02261+00871101711ADDGF101991011011022501001001MA1999999094921MD1210011+9999REMSYN082AAXX  04091 01245 41882 11501 10226 20087 39492 40171 52001 7//00 81100 333 4////;
0177012450999992008070412004+62600+009667FM-12+060699999V0201501N001012200019N0400001N1+02411+00851101601ADDAY101061AY201061GF102991021011022501001001MA1999999094851MD1710071+9999MW1031REMSYN088AAXX  04121 01245 11882 21501 10241 20085 39485 40160 57007 6//// 70300 82100 333 4////;
0226012450999992008070418004+62600+009667FM-12+060699999V0201501N001012200019N0400001N1+02471+00941101331ADDAA112000091AY111061AY201061GF103991031011017501001011KA1120M+02661MA1999999094611MD1710081+9999MW1031REMSYN094AAXX  04181 01245 11782 31501 10247 20094 39461 40133 57008 60002 70310 83101 333 10266 4////;EQDQ01  00002PRCP12
0259012450999992008070506004+62600+009667FM-12+060699999V0200901N001012200019N0400001N1+01581+00971101531ADDAA112000091AA224000091AY101061AY201061GF103991031001017501041091KA1120N+01221MA1999999094601MD1810141+9999MW1021REMSYN100AAXX  05061 01245 11782 30901 10158 20097 39460 40153 58014 60002 70200 83049 333 20122 4//// 70000;EQDQ01  00002PRCP24Q02  00002PRCP12
0171012450999992008070509004+62600+009667FM-12+060699999V0202701N001010150019N0400001N1+01881+01111101331ADDAY121031AY201031GF106991051021017501041011MA1999999094471MD1710111+9999MW1031REMSYN082AAXX  05091 01245 41782 62701 10188 20111 39447 40133 57011 70320 85241 333 4////;
0177012450999992008070512004+62600+009667FM-12+060699999V0203301N001010150019N0400001N1+01981+00221101161ADDAY121061AY201061GF106991061001017501041001MA1999999094351MD1710121+9999MW1021REMSYN088AAXX  05121 01245 11782 63301 10198 20022 39435 40116 57012 6//// 70220 86040 333 4////;
0236012450999992008070518004+62600+009667FM-12+060699999V0202701N001012200019N0400001N1+01841+00461100961ADDAA112000091AY111061AY201061GA1001+999999999GF100991001001999999001001KA1120M+02141MA1999999094121MD1510051+9999MW1011REMSYN088AAXX  05181 01245 11982 02701 10184 20046 39412 40096 55005 60002 70110 333 10214 4////;EQDQ01  00002PRCP12
0259012450999992008070606004+62600+009667FM-12+060699999V0200901N001010120019N0300001N1+00981+00711100771ADDAA112000091AA224000091AY121061AY201061GF107991071051012501999999KA1120N+00711MA1999999093751MD1610211+9999MW1031REMSYN100AAXX  06061 01245 11680 70901 10098 20071 39375 40077 56021 60002 70320 875// 333 20071 4//// 70000;EQDQ01  00002PRCP24Q02  00002PRCP12
0171012450999992008070609004+62600+009667FM-12+060699999V0200901N001010075019N0100001N1+00851+00761100691ADDAY161031AY221031GF107991071051008001999999MA1999999093651MD1710111+9999MW1601REMSYN082AAXX  06091 01245 41560 70901 10085 20076 39365 40069 57011 76062 875// 333 4////;
0177012450999992008070612004+62600+009667FM-12+060699999V0200901N003010042019N0100001N1+00821+00601100651ADDAY161061AY221061GF108991081071004501999999MA1999999093601MD1610061+9999MW1601REMSYN088AAXX  06121 01245 11460 80903 10082 20060 39360 40065 56006 6//// 76062 887// 333 4////;
0207012450999992008070618004+62600+009667FM-12+060699999V0200501N010010075019N0200001N1+00951+00241100591ADDAA112001091AY161061AY221061GF107991071071008001001001KA1120M+01091MA1999999093571MD1710041+9999MW1011REMSYN094AAXX  06181 01245 11570 70510 10095 20024 39357 40059 57004 60012 70162 87700 333 10109 4////;
0243012450999992008070706004+62600+009667FM-12+060699999V0200901N005010075019N0200001N1+00771+00111100671ADDAA112000091AA224001591AY121061AY221061GF108991061071008001021999KA1120N+00771MA1999999093611MD1210011+9999MW1021REMSYN100AAXX  07061 01245 11570 80905 10077 20011 39361 40067 52001 60002 70222 8672/ 333 20077 4//// 70014;EQDQ01  00002PRCP12
0171012450999992008070709004+62600+009667FM-12+060699999V0201201N003010120019N0300001N1+00931+00171100691ADDAY161031AY221031GF107991061071012501021999MA1999999093671MD1110071+9999MW1011REMSYN082AAXX  07091 01245 41680 71203 10093 20017 39367 40069 51007 70162 8672/ 333 4////;
0177012450999992008070712004+62600+009667FM-12+060699999V0200901N007010120019N0300001N1+01061+00291100661ADDAY161061AY221061GF106991061051012501001001MA1999999093671MD1410001+9999MW1011REMSYN088AAXX  07121 01245 11680 60907 10106 20029 39367 40066 54000 6//// 70162 86500 333 4////;
0226012450999992008070718004+62600+009667FM-12+060699999V0201501N007010120019N0300001N1+01101+00261100651ADDAA112000091AY161061AY221061GF106991061051012501001001KA1120M+01221MA1999999093671MD1310031+9999MW1021REMSYN094AAXX  07181 01245 11680 61507 10110 20026 39367 40065 53003 69902 70262 86500 333 10122 4////;EQDQ01  00002PRCP12
0259012450999992008070806004+62600+009667FM-12+060699999V0209999C000012200019N0400001N1+01261+00301100561ADDAA112000091AA224000091AY121061AY201061GF101991011011012501001001KA1120N+00791MA1999999093621MD1410001+9999MW1011REMSYN100AAXX  08061 01245 11682 10000 10126 20030 39362 40056 54000 60002 70120 81100 333 20079 4//// 70000;EQDQ01  00002PRCP24Q02  00002PRCP12
0171012450999992008070809004+62600+009667FM-12+060699999V0201201N001012200019N0400001N1+01431+00191100501ADDAY101031AY201031GF103991031011012501001001MA1999999093611MD1410001+9999MW1031REMSYN082AAXX  08091 01245 41682 31201 10143 20019 39361 40050 54001 70300 83100 333 4////;
0177012450999992008070812004+62600+009667FM-12+060699999V0200901N003010120019N0400001N1+01461+00121100461ADDAY181061AY211061GF106991061021012501001001MA1999999093571MD1710031+9999MW1031REMSYN088AAXX  08121 01245 11682 60903 10146 20012 39357 40046 57003 6//// 70381 86200 333 4////;
0226012450999992008070818004+62600+009667FM-12+060699999V0200901N003010120019N0400001N1+01541+00191100441ADDAA112000091AY181061AY211061GF105991051041012501001001KA1120M+01671MA1999999093571MD1410001+9999MW1031REMSYN094AAXX  08181 01245 11682 50903 10154 20019 39357 40044 54000 69922 70381 85400 333 10167 4////;EQDQ01  00002PRCP12
0243012450999992008070906004+62600+009667FM-12+060699999V0209999C000012200019N0400001N1+00881+00521100721ADDAA112000091AA224000391AY121061AY201061GF102991001001999999001011KA1120N+00521MA1999999093671MD1710041+9999MW1011REMSYN100AAXX  09061 01245 11982 20000 10088 20052 39367 40072 57004 60002 70120 80001 333 20052 4//// 70002;EQDQ01  00002PRCP12
0171012450999992008070909004+62600+009667FM-12+060699999V0203201N001012200019N0400001N1+01541+00391100511ADDAY101031AY201031GF103991011011012501001021MA1999999093631MD1710041+9999MW1031REMSYN082AAXX  09091 01245 41682 33201 10154 20039 39363 40051 57004 70300 81102 333 4////;
0177012450999992008070912004+62600+009667FM-12+060699999V0203001N005012200019N0400001N1+01571+00381100491ADDAY101061AY201061GF104991031011012501001091MA1999999093621MD1310031+9999MW1031REMSYN088AAXX  09121 01245 11682 43005 10157 20038 39362 40049 53003 6//// 70300 83109 333 4////;
0226012450999992008070918004+62600+009667FM-12+060699999V0202701N005012200019N0400001N1+01481+00201100541ADDAA112000091AY101061AY201061GF102991021011012501001001KA1120M+01821MA1999999093661MD1210011+9999MW1021REMSYN094AAXX  09181 01245 11682 22705 10148 20020 39366 40054 52001 60002 70200 82100 333 10182 4////;EQDQ01  00002PRCP12
0259012450999992008071006004+62600+009667FM-12+060699999V0201201N001010090019N0100001N1+00811+00541100661ADDAA112000091AA224000091AY121061AY201061GF106991061081004501001001KA1120N+00691MA1999999093611MD1710051+9999MW1011REMSYN100AAXX  10061 01245 11460 61201 10081 20054 39361 40066 57005 60002 70120 86800 333 20069 4//// 70000;EQDQ01  00002PRCP24Q02  00002PRCP12
0171012450999992008071009004+62600+009667FM-12+060699999V0201801N001012200019N0400001N1+01351+00441100411ADDAY121031AY201031GF102991011011012501031021MA1999999093511MD1710091+9999MW1011REMSYN082AAXX  10091 01245 41682 21801 10135 20044 39351 40041 57009 70120 81132 333 4////;
0177012450999992008071012004+62600+009667FM-12+060699999V0200901N003012200019N0400001N1+01511+00611100301ADDAY121061AY201061GF102991011011012501001021MA1999999093431MD1710061+9999MW1021REMSYN088AAXX  10121 01245 11682 20903 10151 20061 39343 40030 57006 6//// 70220 81102 333 4////;
0226012450999992008071018004+62600+009667FM-12+060699999V0201201N005012200019N0400001N1+01371+00511100281ADDAA112000091AY101061AY201061GF104991041041012501001001KA1120M+01671MA1999999093381MD1710031+9999MW1031REMSYN094AAXX  10181 01245 11682 41205 10137 20051 39338 40028 57003 60002 70300 84400 333 10167 4////;EQDQ01  00002PRCP12
0259012450999992008071106004+62600+009667FM-12+060699999V0209999C000012200019N0400001N1+00971+00531100201ADDAA112000091AA224000091AY101061AY201061GF101991001001999999001011KA1120N+00481MA1999999093221MD1710111+9999MW1031REMSYN100AAXX  11061 01245 11982 10000 10097 20053 39322 40020 57011 60002 70300 80001 333 20048 4//// 70000;EQDQ01  00002PRCP24Q02  00002PRCP12
0171012450999992008071109004+62600+009667FM-12+060699999V0201501N005012200019N0400001N1+01581+00631099891ADDAY101031AY201031GF101991001001999999001011MA1999999093071MD1710141+9999MW1021REMSYN082AAXX  11091 01245 41982 11505 10158 20063 39307 49989 57014 70200 80001 333 4////;
0177012450999992008071112004+62600+009667FM-12+060699999V0201601N005010150019N0400001N1+01751+00731099751ADDAY121061AY201061GF105991051021017501001011MA1999999092971MD1710091+9999MW1031REMSYN088AAXX  11121 01245 11782 51605 10175 20073 39297 49975 57009 6//// 70320 85201 333 4////;
0226012450999992008071118004+62600+009667FM-12+060699999V0200901N005010075019N0300001N1+01601+00851099741ADDAA112000091AY181061AY221061GF106991051021008001001091KA1120M+01921MA1999999092931MD1710021+9999MW1151REMSYN094AAXX  11181 01245 11580 60905 10160 20085 39293 49974 57002 69902 71582 85209 333 10192 4////;EQDQ01  00002PRCP12
0224012450999992008071206004+62600+009667FM-12+060699999V0209999C000010075019N0011001N1+01001+00881099901ADDAA112000591AA224000591AY181061AY221061GF108991081051008001999999KA1120N+00951MA1999999092951MD1710031+9999MW1101REMSYN100AAXX  12061 01245 11511 80000 10100 20088 39295 49990 57003 69952 71082 885// 333 20095 4//// 70005;
0171012450999992008071209004+62600+009667FM-12+060699999V0202701N001010090019N0100001N1+01301+00981099851ADDAY121031AY221031GF107991071081004501999999MA1999999092971MD1410001+9999MW1011REMSYN082AAXX  12091 01245 41460 72701 10130 20098 39297 49985 54001 70122 878// 333 4////;
0177012450999992008071212004+62600+009667FM-12+060699999V0203201N001010120019N0300001N1+01511+01131099771ADDAY181061AY221061GF106991061021012501001001MA1999999092951MD1710011+9999MW1801REMSYN088AAXX  12121 01245 11680 63201 10151 20113 39295 49977 57001 6//// 78082 86200 333 4////;
0207012450999992008071218004+62600+009667FM-12+060699999V0201201N001010090019N0300001N1+01301+01071100021ADDAA112002091AY181061AY221061GF106991061081004501001001KA1120M+01691MA1999999093121MD1310091+9999MW1011REMSYN094AAXX  12181 01245 11480 61201 10130 20107 39312 40002 53009 60022 70182 86800 333 10169 4////;
0224012450999992008071306004+62600+009667FM-12+060699999V0209999C000010021019N0060001N1+01121+00911100241ADDAA112000891AA224002591AY181061AY221061GF108991081061002501999999KA1120N+01041MA1999999093281MD1210031+9999MW1101REMSYN100AAXX  13061 01245 11356 80000 10112 20091 39328 40024 52003 69982 71082 886// 333 20104 4//// 70025;
0171012450999992008071309004+62600+009667FM-12+060699999V0203001N001010300019N0100001N1+01341+00871100251ADDAY121031AY221031GF107991031021002501051999MA1999999093351MD1210061+9999MW1011REMSYN082AAXX  13091 01245 41360 73001 10134 20087 39335 40025 52006 70122 8325/ 333 4////;
0177012450999992008071312004+62600+009667FM-12+060699999V0200901N005010042019N0200001N1+01481+00941100251ADDAY121061AY221061GF107991071021004501001001MA1999999093381MD1310041+9999MW1031REMSYN088AAXX  13121 01245 11470 70905 10148 20094 39338 40025 53004 6//// 70322 87200 333 4////;
0207012450999992008071318004+62600+009667FM-12+060699999V0201201N005010075019N0200001N1+01331+01011100521ADDAA112004191AY181061AY221061GF107991071021008001999999KA1120M+01761MA1999999093601MD1210071+9999MW1151REMSYN094AAXX  13181 01245 11570 71205 10133 20101 39360 40052 52007 60042 71582 872// 333 10176 4////;
0224012450999992008071406004+62600+009667FM-12+060699999V0200901N001010012019N0060001N1+01031+00891100681ADDAA112010991AA224014591AY181061AY221061GF108991081061001501999999KA1120N+01001MA1999999093671MD1710071+9999MW1101REMSYN100AAXX  14061 01245 11256 80901 10103 20089 39367 40068 57007 60112 71082 886// 333 20100 4//// 70146;
0171012450999992008071409004+62600+009667FM-12+060699999V0201201N001010021019N0100001N1+01221+00941100611ADDAY121031AY221031GF108991081061002501999999MA1999999093661MD1510031+9999MW1011REMSYN082AAXX  14091 01245 41360 81201 10122 20094 39366 40061 55003 70122 886// 333 4////;
0177012450999992008071412004+62600+009667FM-12+060699999V0203001N005010300019N0400001N1+01221+00441100641ADDAY161061AY221061GF107991031071012501071999MA1999999093681MD1010041+9999MW1011REMSYN088AAXX  14121 01245 11682 73005 10122 20044 39368 40064 50004 6//// 70162 8377/ 333 4////;
0207012450999992008071418004+62600+009667FM-12+060699999V0209999C000010120019N0400001N1+01341+00721100621ADDAA112000591AY161061AY221061GF105991051051012501001001KA1120M+01371MA1999999093701MD1810031+9999MW1011REMSYN094AAXX  14181 01245 11682 50000 10134 20072 39370 40062 58003 69942 70162 85500 333 10137 4////;
0224012450999992008071506004+62600+009667FM-12+060699999V0202401N003010300019N0300001N1+00941+00401100541ADDAA112001091AA224001391AY161061AY221061GF108991031071012501071999KA1120N+00781MA1999999093521MD1810251+9999MW1601REMSYN100AAXX  15061 01245 11680 82403 10094 20040 39352 40054 58025 69992 76062 8377/ 333 20078 4//// 70013;
0171012450999992008071509004+62600+009667FM-12+060699999V0202701N007010300019N0400001N1+01251+00421100081ADDAY161031AY221031GF106991041051012501071001MA1999999093171MD1810351+9999MW1011REMSYN082AAXX  15091 01245 41682 62707 10125 20042 39317 40008 58035 70162 84570 333 4////;
0177012450999992008071512004+62600+009667FM-12+060699999V0202101N007010120019N0400001N1+01611+00681099801ADDAY161061AY221061GF106991061051012501001001MA1999999093001MD1510201+9999MW1031REMSYN088AAXX  15121 01245 11682 62107 10161 20068 39300 49980 55020 6//// 70362 86500 333 4////;
0207012450999992008071518004+62600+009667FM-12+060699999V0203001N005012200019N0400001N1+01241+00261100181ADDAA112000021AY111061AY201061GF104991041021012501001001KA1120M+01861MA1999999093271MD1110181+9999MW1031REMSYN094AAXX  15181 01245 11682 43005 10124 20026 39327 40018 51018 69912 70310 84200 333 10186 4////;
0243012450999992008071606004+62600+009667FM-12+060699999V0202301N003012200019N0400001N1+01021+00051099901ADDAA112000091AA224000021AY101061AY201061GF104991031041012501001041KA1120N+00661MA1999999092951MD1710131+9999MW1021REMSYN100AAXX  16061 01245 11682 42303 10102 20005 39295 49990 57013 60002 70200 83404 333 20066 4//// 70001;EQDQ01  00002PRCP12
0171012450999992008071609004+62600+009667FM-12+060699999V0202301N007010120019N0400001N1+01291+00031099801ADDAY121031AY201031GF106991061041012501001001MA1999999092921MD1510021+9999MW1031REMSYN082AAXX  16091 01245 41682 62307 10129 20003 39292 49980 55002 70320 86400 333 4////;
0177012450999992008071612004+62600+009667FM-12+060699999V0203201N001010120019N0400001N1+01351+00211099791ADDAY181061AY221061GF107991051021012501011999MA1999999092921MD1010011+9999MW1031REMSYN088AAXX  16121 01245 11682 73201 10135 20021 39292 49979 50001 6//// 70382 8521/ 333 4////;
0226012450999992008071618004+62600+009667FM-12+060699999V0200901N001012200019N0400001N1+01141+00441099851ADDAA112000091AY181061AY211061GF105991041021012501001011KA1120M+01541MA1999999092931MD1310041+9999MW1011REMSYN094AAXX  16181 01245 11682 50901 10114 20044 39293 49985 53004 69902 70181 84201 333 10154 4////;EQDQ01  00002PRCP12
0224012450999992008071706004+62600+009667FM-12+060699999V0209999C000010006019N0005001N1+00601+00481100171ADDAA112001091AA224001391AY181061AY241061GF107991071061000751999999KA1120N+00361MA1999999093111MD1410001+9999MW1441REMSYN100AAXX  17061 01245 11105 70000 10060 20048 39311 40017 54000 60012 74484 876// 333 20036 4//// 70013;
0171012450999992008071709004+62600+009667FM-12+060699999V0209999C000010300019N0300001N1+00881+00641100151ADDAY161031AY241031GF108991041071008001021999MA1999999093151MD1210031+9999MW1601REMSYN082AAXX  17091 01245 41580 80000 10088 20064 39315 40015 52003 76064 8472/ 333 4////;
0177012450999992008071712004+62600+009667FM-12+060699999V0209999C000010075019N0300001N1+01001+00541100161ADDAY161061AY221061GF107991061071008001021001MA1999999093181MD1210041+9999MW1011REMSYN088AAXX  17121 01245 11580 70000 10100 20054 39318 40016 52004 6//// 70162 86720 333 4////;
0207012450999992008071718004+62600+009667FM-12+060699999V0200901N001010075019N0300001N1+00931+00551100261ADDAA112002091AY161061AY221061GF107991061071008001021001KA1120M+01121MA1999999093271MD1310061+9999MW1021REMSYN094AAXX  17181 01245 11580 70901 10093 20055 39327 40026 53006 60022 70262 86720 333 10112 4////;
0224012450999992008071806004+62600+009667FM-12+060699999V0203201N001010012019N0100001N1+00701+00581100251ADDAA112004191AA224006491AY161061AY221061GF108991081071001501999999KA1120N+00681MA1999999093201MD1510021+9999MW1601REMSYN100AAXX  18061 01245 11260 83201 10070 20058 39320 40025 55002 60042 76062 887// 333 20068 4//// 70063;
0171012450999992008071809004+62600+009667FM-12+060699999V0200901N001010012019N0200001N1+00801+00511100251ADDAY161031AY221031GF108991081071001501999999MA1999999093221MD1310031+9999MW1021REMSYN082AAXX  18091 01245 41270 80901 10080 20051 39322 40025 53003 70262 887// 333 4////;
0207012450999992008071818004+62600+009667FM-12+060699999V0200501N001010075019N0200001N1+00901+00421100471ADDAA112004191AY161061AY221061GF106991061071008001001001KA1120M+01191MA1999999093461MD1110141+9999MW1011REMSYN094AAXX  18181 01245 11570 60501 10090 20042 39346 40047 51014 60042 70162 86700 333 10119 4////;
0243012450999992008071906004+62600+009667FM-12+060699999V0202301N001012200019N0400001N1+00841+00441100451ADDAA112000091AA224003891AY161061AY221061GF105991021011012501001011KA1120N+00341MA1999999093421MD1710051+9999MW1011REMSYN100AAXX  19061 01245 11682 52301 10084 20044 39342 40045 57005 69912 70162 82101 333 20034 4//// 70038;EQDQ01  00002PRCP12
0171012450999992008071909004+62600+009667FM-12+060699999V0202301N001010120019N0400001N1+01251+00401100321ADDAY121031AY221031GF106991051011012501011001MA1999999093401MD1710031+9999MW1031REMSYN082AAXX  19091 01245 41682 62301 10125 20040 39340 40032 57003 70322 85110 333 4////;
0177012450999992008071912004+62600+009667FM-12+060699999V0201401N003010120019N0400001N1+01401+00381100261ADDAY121061AY221061GF106991051011012501011001MA1999999093371MD1510011+9999MW1021REMSYN088AAXX  19121 01245 11682 61403 10140 20038 39337 40026 55001 6//// 70222 85110 333 4////;
0226012450999992008071918004+62600+009667FM-12+060699999V0202301N003010120019N0400001N1+01441+00381100261ADDAA112000091AY121061AY221061GF105991051011012501001001KA1120M+01521MA1999999093381MD1210041+9999MW1011REMSYN094AAXX  19181 01245 11682 52303 10144 20038 39338 40026 52004 60002 70122 85100 333 10152 4////;EQDQ01  00002PRCP12
0259012450999992008072006004+62600+009667FM-12+060699999V0201201N003010750019N0300001N1+01391+00741100321ADDAA112000091AA224000091AY121061AY221061GF106991041011008001001091KA1120N+01051MA1999999093421MD1310021+9999MW1011REMSYN100AAXX  20061 01245 11580 61203 10139 20074 39342 40032 53002 60002 70122 84109 333 20105 4//// 70000;EQDQ01  00002PRCP24Q02  00002PRCP12
0171012450999992008072009004+62600+009667FM-12+060699999V0201201N003010120019N0300001N1+01601+00671100331ADDAY121031AY221031GF107991071011012501001001MA1999999093481MD1210061+9999MW1031REMSYN082AAXX  20091 01245 41680 71203 10160 20067 39348 40033 52006 70322 87100 333 4////;
0177012450999992008072012004+62600+009667FM-12+060699999V0202101N001010120019N0300001N1+01721+00761100311ADDAY121061AY221061GF106991061021012501001001MA1999999093501MD1210021+9999MW1021REMSYN088AAXX  20121 01245 11680 62101 10172 20076 39350 40031 52002 6//// 70222 86200 333 4////;
0207012450999992008072018004+62600+009667FM-12+060699999V0209999C000010120019N0300001N1+01661+00831100471ADDAA112001091AY181061AY221061GF106991061051012501001001KA1120M+01841MA1999999093621MD1210011+9999MW1021REMSYN094AAXX  20181 01245 11680 60000 10166 20083 39362 40047 52001 60012 70282 86500 333 10184 4////;
0224012450999992008072106004+62600+009667FM-12+060699999V0202801N001010042019N0100001N1+01121+00961101071ADDAA112000891AA224001891AY161061AY221061GF108991081061004501999999KA1120N+00941MA1999999094071MD1210141+9999MW1401REMSYN100AAXX  21061 01245 11460 82801 10112 20096 39407 40107 52014 69982 74062 886// 333 20094 4//// 70019;
0171012450999992008072109004+62600+009667FM-12+060699999V0203001N003010075019N0100001N1+01271+00971101141ADDAY161031AY221031GF107991071071008001999999MA1999999094171MD1210111+9999MW1631REMSYN082AAXX  21091 01245 41560 73003 10127 20097 39417 40114 52011 76362 877// 333 4////;
0177012450999992008072112004+62600+009667FM-12+060699999V0202401N001010075019N0100001N1+01141+00951101291ADDAY161061AY221061GF107991071071008001999999MA1999999094271MD1210101+9999MW1011REMSYN088AAXX  21121 01245 11560 72401 10114 20095 39427 40129 52010 6//// 70162 877// 333 4////;
0207012450999992008072118004+62600+009667FM-12+060699999V0203201N001010075019N0100001N1+01161+00571101421ADDAA112002091AY161061AY221061GF107991071071008001999999KA1120M+01331MA1999999094401MD1210061+9999MW1011REMSYN094AAXX  21181 01245 11560 73201 10116 20057 39440 40142 52006 60022 70162 877// 333 10133 4////;
0243012450999992008072206004+62600+009667FM-12+060699999V0209999C000012200019N0400001N1+00711+00421101401ADDAA112000091AA224001891AY121061AY201061GF102991011011008001001011KA1120N+00471MA1999999094271MD1710071+9999MW1011REMSYN100AAXX  22061 01245 11582 20000 10071 20042 39427 40140 57007 60002 70120 81101 333 20047 4//// 70019;EQDQ01  00002PRCP12
0171012450999992008072209004+62600+009667FM-12+060699999V0202301N001012200019N0400001N1+01241+00361101171ADDAY101031AY201031GF104991021001022501041051MA1999999094181MD1810081+9999MW1031REMSYN082AAXX  22091 01245 41882 42301 10124 20036 39418 40117 58008 70300 82045 333 4////;
0177012450999992008072212004+62600+009667FM-12+060699999V0202301N003010300019N0400001N1+01601+00141101101ADDAY121061AY201061GF106991021051012501041001MA1999999094211MD1310021+9999MW1031REMSYN088AAXX  22121 01245 11682 62303 10160 20014 39421 40110 53002 6//// 70320 82540 333 4////;
0226012450999992008072218004+62600+009667FM-12+060699999V0201201N001010210019N0400001N1+01421+00661101271ADDAA112000091AY121061AY221061GF107991071001022501071001KA1120M+01861MA1999999094321MD1310051+9999MW1021REMSYN094AAXX  22181 01245 11882 71201 10142 20066 39432 40127 53005 60002 70222 87070 333 10186 4////;EQDQ01  00002PRCP12
0259012450999992008072306004+62600+009667FM-12+060699999V0209999C000010210019N0400001N1+00971+00761102051ADDAA112000091AA224000091AY121061AY221061GF108991081001022501071999KA1120N+00871MA1999999094931MD1210181+9999MW1021REMSYN100AAXX  23061 01245 11882 80000 10097 20076 39493 40205 52018 60002 70222 8807/ 333 20087 4//// 70000;EQDQ01  00002PRCP24Q02  00002PRCP12
0171012450999992008072309004+62600+009667FM-12+060699999V0209999C000010210019N0400001N1+01221+00901102151ADDAY121031AY221031GF107991071001022501071999MA1999999095101MD1110151+9999MW1011REMSYN082AAXX  23091 01245 41882 70000 10122 20090 39510 40215 51015 70122 8707/ 333 4////;
0177012450999992008072312004+62600+009667FM-12+060699999V0200901N001010120019N0400001N1+01581+00921102181ADDAY121061AY221061GF107991071051012501999999MA1999999095211MD1210111+9999MW1021REMSYN088AAXX  23121 01245 11682 70901 10158 20092 39521 40218 52011 6//// 70222 875// 333 4////;
0226012450999992008072318004+62600+009667FM-12+060699999V0203201N001010075019N0300001N1+01601+01221102401ADDAA112000091AY161061AY221061GF106991061051008001001001KA1120M+01891MA1999999095421MD1310161+9999MW1011REMSYN094AAXX  23181 01245 11580 63201 10160 20122 39542 40240 53016 69902 70162 86500 333 10189 4////;EQDQ01  00002PRCP12
0259012450999992008072406004+62600+009667FM-12+060699999V0209999C000012200019N0400001N1+01411+00951102781ADDAA112000091AA224000091AY121061AY201061GF101991011011008001001001KA1120N+01181MA1999999095721MD1810021+9999MW1011REMSYN100AAXX  24061 01245 11582 10000 10141 20095 39572 40278 58002 60002 70120 81100 333 20118 4//// 70000;EQDQ01  00002PRCP24Q02  00002PRCP12
0171012450999992008072409004+62600+009667FM-12+060699999V0209999C000012200019N0400001N1+01891+00971102591ADDAY101031AY201031GF101991001001999999001081MA1999999095661MD1710071+9999MW1021REMSYN082AAXX  24091 01245 41982 10000 10189 20097 39566 40259 57007 70200 80008 333 4////;
0177012450999992008072412004+62600+009667FM-12+060699999V0209999C000012200019N0400001N1+02411+01081102381ADDAY101061AY201061GF101991001001999999001081MA1999999095571MD1710081+9999MW1021REMSYN088AAXX  24121 01245 11982 10000 10241 20108 39557 40238 57008 6//// 70200 80008 333 4////;
0226012450999992008072418004+62600+009667FM-12+060699999V0200901N001012200019N0400001N1+02281+01361102371ADDAA112000091AY101061AY201061GF101991011021017501001001KA1120M+02641MA1999999095531MD1410001+9999MW1021REMSYN094AAXX  24181 01245 11782 10901 10228 20136 39553 40237 54000 60002 70200 81200 333 10264 4////;EQDQ01  00002PRCP12
0269012450999992008072506004+62600+009667FM-12+060699999V0209999C000012200019N0400001N1+01581+01271102611ADDAA112000091AA224000091AY101061AY201061GA1001+999999999GF100991001001999999001001KA1120N+01261MA1999999095611MD1710041+9999MW1011REMSYN094AAXX  25061 01245 11982 00000 10158 20127 39561 40261 57004 60002 70100 333 20126 4//// 70000;EQDQ01  00002PRCP24Q02  00002PRCP12
0171012450999992008072509004+62600+009667FM-12+060699999V0202301N001012200019N0400001N1+02301+01401102371ADDAY101031AY201031GF101991011011017501001001MA1999999095551MD1710071+9999MW1031REMSYN082AAXX  25091 01245 41782 12301 10230 20140 39555 40237 57007 70300 81100 333 4////;
0177012450999992008072512004+62600+009667FM-12+060699999V0200901N003012200019N0400001N1+02721+01081102151ADDAY111061AY201061GF104991041011017501001001MA1999999095421MD1710121+9999MW1031REMSYN088AAXX  25121 01245 11782 40903 10272 20108 39542 40215 57012 6//// 70310 84100 333 4////;
0226012450999992008072518004+62600+009667FM-12+060699999V0200501N003012200019N0400001N1+02461+01011102101ADDAA112000091AY101061AY201061GF103991031011017501001011KA1120M+02761MA1999999095321MD1710071+9999MW1011REMSYN094AAXX  25181 01245 11782 30503 10246 20101 39532 40210 57007 60002 70100 83101 333 10276 4////;EQDQ01  00002PRCP12
0259012450999992008072606004+62600+009667FM-12+060699999V0209999C000012200019N0400001N1+01581+01261102391ADDAA112000091AA224000091AY101061AY201061GF101991011011017501001081KA1120N+01371MA1999999095401MD1710021+9999MW1011REMSYN100AAXX  26061 01245 11782 10000 10158 20126 39540 40239 57002 60002 70100 81108 333 20137 4//// 70000;EQDQ01  00002PRCP24Q02  00002PRCP12
0171012450999992008072609004+62600+009667FM-12+060699999V0209999C000012200019N0400001N1+02241+01351102291ADDAY101031AY201031GF101991011011017501001081MA1999999095461MD1710021+9999MW1021REMSYN082AAXX  26091 01245 41782 10000 10224 20135 39546 40229 57002 70200 81108 333 4////;
0177012450999992008072612004+62600+009667FM-12+060699999V0200901N003012200019N0400001N1+02711+01201102111ADDAY111061AY201061GF104991041011017501001001MA1999999095381MD1710071+9999MW1031REMSYN088AAXX  26121 01245 11782 40903 10271 20120 39538 40211 57007 6//// 70310 84100 333 4////;
0226012450999992008072618004+62600+009667FM-12+060699999V0201301N005010120019N0400001N1+02251+01191102271ADDAA112000091AY181061AY221061GF106991061021012501001001KA1120M+02841MA1999999095431MD1210021+9999MW1031REMSYN094AAXX  26181 01245 11682 61305 10225 20119 39543 40227 52002 69902 70382 86200 333 10284 4////;EQDQ01  00002PRCP12
0269012450999992008072706004+62600+009667FM-12+060699999V0209999C000012200019N0400001N1+01711+01121102421ADDAA112000091AA224000091AY101061AY201061GA1001+999999999GF100991001001999999001001KA1120N+01481MA1999999095461MD1710021+9999MW1011REMSYN094AAXX  27061 01245 11982 00000 10171 20112 39546 40242 57002 60002 70100 333 20148 4//// 70000;EQDQ01  00002PRCP24Q02  00002PRCP12
0171012450999992008072709004+62600+009667FM-12+060699999V0209999C000012200019N0400001N1+02341+01391102201ADDAY101031AY201031GF101991001001999999001011MA1999999095401MD1710041+9999MW1031REMSYN082AAXX  27091 01245 41982 10000 10234 20139 39540 40220 57004 70300 80001 333 4////;
0177012450999992008072712004+62600+009667FM-12+060699999V0200901N001012200019N0400001N1+02751+00931102041ADDAY101061AY201061GF101991001001999999001011MA1999999095331MD1710061+9999MW1021REMSYN088AAXX  27121 01245 11982 10901 10275 20093 39533 40204 57006 6//// 70200 80001 333 4////;
0226012450999992008072718004+62600+009667FM-12+060699999V0200901N001012200019N0400001N1+02541+01081102051ADDAA112000091AY101061AY201061GF101991011011012501001011KA1120M+02841MA1999999095301MD1410001+9999MW1021REMSYN094AAXX  27181 01245 11682 10901 10254 20108 39530 40205 54001 60002 70200 81101 333 10284 4////;EQDQ01  00002PRCP12
0259012450999992008072806004+62600+009667FM-12+060699999V0209999C000012200019N0400001N1+01521+01141102401ADDAA112000091AA224000091AY101061AY201061GF101991001001999999001011KA1120N+01271MA1999999095401MD1710041+9999MW1021REMSYN100AAXX  28061 01245 11982 10000 10152 20114 39540 40240 57004 60002 70200 80001 333 20127 4//// 70000;EQDQ01  00002PRCP24Q02  00002PRCP12
0171012450999992008072809004+62600+009667FM-12+060699999V0201201N001012200019N0400001N1+02291+01071102161ADDAY101031AY201031GF101991011011012501001011MA1999999095351MD1810061+9999MW1021REMSYN082AAXX  28091 01245 41682 11201 10229 20107 39535 40216 58006 70200 81101 333 4////;
0177012450999992008072812004+62600+009667FM-12+060699999V0200901N001012200019N0400001N1+02601+01141102001ADDAY101061AY201061GF102991011021012501001011MA1999999095271MD1710081+9999MW1031REMSYN088AAXX  28121 01245 11682 20901 10260 20114 39527 40200 57008 6//// 70300 81201 333 4////;
0226012450999992008072818004+62600+009667FM-12+060699999V0200901N001012200019N0400001N1+02431+01061102011ADDAA112000091AY101061AY201061GF104991041041012501001001KA1120M+02721MA1999999095231MD1510011+9999MW1031REMSYN094AAXX  28181 01245 11682 40901 10243 20106 39523 40201 55001 60002 70300 84400 333 10272 4////;EQDQ01  00002PRCP12
0259012450999992008072906004+62600+009667FM-12+060699999V0209999C000012200019N0400001N1+01621+01121102241ADDAA112000091AA224000091AY101061AY201061GF101991011011012501031001KA1120N+01221MA1999999095271MD1810041+9999MW1021REMSYN100AAXX  29061 01245 11682 10000 10162 20112 39527 40224 58004 60002 70200 81130 333 20122 4//// 70000;EQDQ01  00002PRCP24Q02  00002PRCP12
0171012450999992008072909004+62600+009667FM-12+060699999V0209999C000012200019N0400001N1+02251+01221101991ADDAY101031AY201031GF101991011011012501001011MA1999999095171MD1710091+9999MW1021REMSYN082AAXX  29091 01245 41682 10000 10225 20122 39517 40199 57009 70200 81101 333 4////;
0155012450999992008072912004+62600+009667FM-12+060699999V0201301N001010120019N0400001N1+02581+01041101801ADDGF107991071091012501001011MA1999999095071MD1710101+9999REMSYN088AAXX  29121 01245 11682 71301 10258 20104 39507 40180 57010 6//// 7//10 87901 333 4////;
0226012450999992008072918004+62600+009667FM-12+060699999V0200901N001012200019N0400001N1+02311+01331101821ADDAA112000091AY191061AY281061GF104991041011012501001011KA1120M+02761MA1999999095031MD1510021+9999MW1011REMSYN094AAXX  29181 01245 11682 40901 10231 20133 39503 40182 55002 69902 70198 84101 333 10276 4////;EQDQ01  00002PRCP12
0269012450999992008073006004+62600+009667FM-12+060699999V0209999C000012200019N0400001N1+01601+01101101981ADDAA112000091AA224000091AY101061AY201061GA1001+999999999GF100991001001999999001001KA1120N+01371MA1999999095021MD1710071+9999MW1021REMSYN094AAXX  30061 01245 11982 00000 10160 20110 39502 40198 57007 60002 70200 333 20137 4//// 70000;EQDQ01  00002PRCP24Q02  00002PRCP12
0171012450999992008073009004+62600+009667FM-12+060699999V0209999C000012200019N0400001N1+02131+01301101821ADDAY101031AY201031GF101991011011012501031001MA1999999095001MD1710031+9999MW1031REMSYN082AAXX  30091 01245 41682 10000 10213 20130 39500 40182 57003 70300 81130 333 4////;
0177012450999992008073012004+62600+009667FM-12+060699999V0202701N001012200019N0400001N1+02581+00921101681ADDAY101061AY201061GF103991031021012501001001MA1999999094961MD1710041+9999MW1031REMSYN088AAXX  30121 01245 11682 32701 10258 20092 39496 40168 57004 6//// 70300 83200 333 4////;
0226012450999992008073018004+62600+009667FM-12+060699999V0203001N003010075019N0300001N1+01801+01161102071ADDAA112000091AY191061AY281061GF106991061021008001001001KA1120M+02701MA1999999095161MD1210201+9999MW1011REMSYN094AAXX  30181 01245 11580 63003 10180 20116 39516 40207 52020 69912 70198 86200 333 10270 4////;EQDQ01  00002PRCP12
0259012450999992008073106004+62600+009667FM-12+060699999V0209999C000012200019N0400001N1+01341+01131102251ADDAA112000091AA224000091AY121061AY201061GF104991041001022501031001KA1120N+01181MA1999999095221MD1510011+9999MW1031REMSYN100AAXX  31061 01245 11882 40000 10134 20113 39522 40225 55001 60002 70320 84030 333 20118 4//// 70001;EQDQ01  00002PRCP24Q02  00002PRCP12
0171012450999992008073109004+62600+009667FM-12+060699999V0209999C000012200019N0400001N1+01841+01171102131ADDAY101031AY201031GF104991021051012501031001MA1999999095221MD1410001+9999MW1021REMSYN082AAXX  31091 01245 41682 40000 10184 20117 39522 40213 54000 70200 82530 333 4////;
0177012450999992008073112004+62600+009667FM-12+060699999V0203601N005010120019N0300001N1+01981+01211101971ADDAY191061AY281061GF107991071031012501999999MA1999999095101MD1810131+9999MW1951REMSYN088AAXX  31121 01245 11680 73605 10198 20121 39510 40197 58013 6//// 79598 873// 333 4////;
0207012450999992008073118004+62600+009667FM-12+060699999V0201101N003010075019N0300001N1+01581+01421102061ADDAA112007191AY191061AY281061GF106991051071008001021999KA1120M+02361MA1999999095101MD1410001+9999MW1611REMSYN094AAXX  31181 01245 11580 61103 10158 20142 39510 40206 54000 60072 76198 8572/ 333 10236 4////;
0224012450999992008080106004+62600+009667FM-12+060699999V0209999C000010003019N0002001N1+01271+01141101901ADDAA112000021AA224006991AY161061AY241061GF107991071061000251999999KA1120N+01201MA1999999094871MD1710081+9999MW1441REMSYN100AAXX  01061 01245 11002 70000 10127 20114 39487 40190 57008 69922 74464 876// 333 20120 4//// 70069;
0171012450999992008080109004+62600+009667FM-12+060699999V0209999C000012200019N0400001N1+01801+01311101661ADDAY141031AY211031GF103991021011012501031001MA1999999094771MD1810101+9999MW1011REMSYN082AAXX  01091 01245 41682 30000 10180 20131 39477 40166 58010 70141 82130 333 4////;
0177012450999992008080112004+62600+009667FM-12+060699999V0200901N001010300019N0400001N1+02041+01241101461ADDAY141061AY211061GF106991041021012501061001MA1999999094631MD1710141+9999MW1031REMSYN088AAXX  01121 01245 11682 60901 10204 20124 39463 40146 57014 6//// 70341 84260 333 4////;
0226012450999992008080118004+62600+009667FM-12+060699999V0200501N003010300019N0400001N1+01921+01051101271ADDAA112000091AY121061AY221061GF107991021021012501061001KA1120M+02261MA1999999094431MD1710071+9999MW1151REMSYN094AAXX  01181 01245 11682 70503 10192 20105 39443 40127 57007 60002 71522 82260 333 10226 4////;EQDQ01  00002PRCP12
0259012450999992008080206004+62600+009667FM-12+060699999V0209999C000010120019N0400001N1+01651+00901100901ADDAA112000091AA224000091AY181061AY221061GF106991051051012501071041KA1120N+01151MA1999999094021MD1710131+9999MW1011REMSYN100AAXX  02061 01245 11682 60000 10165 20090 39402 40090 57013 69912 70182 85574 333 20115 4//// 70001;EQDQ01  00002PRCP24Q02  00002PRCP12
0171012450999992008080209004+62600+009667FM-12+060699999V0203201N001010120019N0400001N1+01871+00981100771ADDAY121031AY221031GF106991061051012501001001MA1999999093961MD1710071+9999MW1021REMSYN082AAXX  02091 01245 41682 63201 10187 20098 39396 40077 57007 70222 86500 333 4////;
0177012450999992008080212004+62600+009667FM-12+060699999V0201801N003010300019N0400001N1+02091+00821100581ADDAY121061AY221061GF106991031051012501031001MA1999999093821MD1810131+9999MW1021REMSYN088AAXX  02121 01245 11682 61803 10209 20082 39382 40058 58013 6//// 70222 83530 333 4////;
0207012450999992008080218004+62600+009667FM-12+060699999V0202301N003010120019N0300001N1+01601+01011100551ADDAA112002091AY161061AY221061GF108991051051012501021999KA1120M+02181MA1999999093681MD1510041+9999MW1151REMSYN094AAXX  02181 01245 11680 82303 10160 20101 39368 40055 55004 60022 71562 8552/ 333 10218 4////;
0224012450999992008080306004+62600+009667FM-12+060699999V0209999C000010021019N0060001N1+01241+01081100321ADDAA112002091AA224004191AY161061AY221061GF108991081061002501999999KA1120N+01201MA1999999093401MD1710101+9999MW1401REMSYN100AAXX  03061 01245 11356 80000 10124 20108 39340 40032 57010 60022 74062 886// 333 20120 4//// 70040;
0171012450999992008080309004+62600+009667FM-12+060699999V0201201N001010021019N0100001N1+01381+01151100241ADDAY161031AY221031GF108991081061002501999999MA1999999093351MD1710061+9999MW1151REMSYN082AAXX  03091 01245 41360 81201 10138 20115 39335 40024 57006 71562 886// 333 4////;
0177012450999992008080312004+62600+009667FM-12+060699999V0209999C000010021019N0060001N1+01331+01171100231ADDAY161061AY221061GF107991061071002501021999MA1999999093321MD1710021+9999MW1651REMSYN088AAXX  03121 01245 11356 70000 10133 20117 39332 40023 57002 6//// 76562 8672/ 333 4////;
0207012450999992008080318004+62600+009667FM-12+060699999V0200501N003010075019N0200001N1+01331+00861100171ADDAA112016091AY161061AY221061GF107991071051008001999999KA1120M+01431MA1999999093271MD1210021+9999MW1011REMSYN094AAXX  03181 01245 11570 70503 10133 20086 39327 40017 52002 60162 70162 875// 333 10143 4////;
0224012450999992008080406004+62600+009667FM-12+060699999V0200901N005010075019N0200001N1+01121+00551100311ADDAA112001091AA224017091AY161061AY221061GF108991081051008001999999KA1120N+01061MA1999999093361MD1210011+9999MW1021REMSYN100AAXX  04061 01245 11570 80905 10112 20055 39336 40031 52001 60012 70262 885// 333 20106 4//// 70169;
0191012450999992008080409004+62600+009667FM-12+060699999V0200901N007010075019N0200001N1+01171+00541999999ADDAY121031AY221031GF107991071051008001999999MD1310051+9999MW1011REMSYN082AAXX  04091 01245 41570 70907 10117 20054 39431 40132 53005 70122 875// 333 4////;EQDQ01+094313APOSP Q02+101323APOSLP
0177012450999992008080412004+62600+009667FM-12+060699999V0201201N005010075019N0200001N1+01181+00571100411ADDAY121061AY221061GF107991071051008001999999MA1999999093471MD1210051+9999MW1021REMSYN088AAXX  04121 01245 11570 71205 10118 20057 39347 40041 52005 6//// 70222 875// 333 4////;
0226012450999992008080418004+62600+009667FM-12+060699999V0200501N003010075019N0200001N1+01141+00511100591ADDAA112000091AY121061AY221061GF107991071051008001999999KA1120M+01241MA1999999093621MD1210051+9999MW1021REMSYN094AAXX  04181 01245 11570 70503 10114 20051 39362 40059 52005 60002 70222 875// 333 10124 4////;EQDQ01  00002PRCP12
0259012450999992008080506004+62600+009667FM-12+060699999V0203301N001012200019N0400001N1+01021+00301100771ADDAA112000091AA224000091AY121061AY201061GF104991011011012501031021KA1120N+00801MA1999999093761MD1210011+9999MW1011REMSYN100AAXX  05061 01245 11682 43301 10102 20030 39376 40077 52001 60002 70120 81132 333 20080 4//// 70000;EQDQ01  00002PRCP24Q02  00002PRCP12
0149012450999992008080509004+62600+009667FM-12+060699999V0201701N003010300019N0400001N1+01501+00351100671ADDGF105991041011012501031001MA1999999093771MD1210021+9999REMSYN082AAXX  05091 01245 41682 51703 10150 20035 39377 40067 52002 7//20 84130 333 4////;
0177012450999992008080512004+62600+009667FM-12+060699999V0202301N001010300019N0400001N1+01521+00371100741ADDAY111061AY201061GF105991031011012501011001MA1999999093851MD1210071+9999MW1021REMSYN088AAXX  05121 01245 11682 52301 10152 20037 39385 40074 52007 6//// 70210 83110 333 4////;
0226012450999992008080518004+62600+009667FM-12+060699999V0203001N001010120019N0400001N1+01461+00621100841ADDAA112000091AY121061AY211061GF107991071051012501999999KA1120M+01831MA1999999093921MD1210051+9999MW1031REMSYN094AAXX  05181 01245 11682 73001 10146 20062 39392 40084 52005 60002 70321 875// 333 10183 4////;EQDQ01  00002PRCP12
0224012450999992008080606004+62600+009667FM-12+060699999V0203001N001010120019N0400001N1+01231+00611101011ADDAA112004192AA224003892AY161061AY221061GF107991071051012501999999KA1120N+01051MA1999999094031MD1710041+9999MW1011REMSYN100AAXX  06061 01245 11682 73001 10123 20061 39403 40101 57004 60042 70162 875// 333 20105 4//// 70038;
0171012450999992008080609004+62600+009667FM-12+060699999V0202701N001012200019N0400001N1+01541+00591100891ADDAY111031AY201031GF104991041081012501001001MA1999999094001MD1710041+9999MW1031REMSYN082AAXX  06091 01245 41682 42701 10154 20059 39400 40089 57004 70310 84800 333 4////;
0177012450999992008080612004+62600+009667FM-12+060699999V0201501N001010150019N0400001N1+01761+00491100731ADDAY121061AY211061GF105991051081012501001001MA1999999093901MD1810101+9999MW1031REMSYN088AAXX  06121 01245 11682 51501 10176 20049 39390 40073 58010 6//// 70321 85800 333 4////;
0207012450999992008080618004+62600+009667FM-12+060699999V0200901N005012200019N0400001N1+01301+00571100731ADDAA112000891AY181061AY211061GF104991041021008001001001KA1120M+01871MA1999999093781MD1610121+9999MW1011REMSYN094AAXX  06181 01245 11582 40905 10130 20057 39378 40073 56012 69972 70181 84200 333 10187 4////;
0243012450999992008080706004+62600+009667FM-12+060699999V0209999C000010750019N0400001N1+00971+00731100591ADDAA112000091AA224000891AY181061AY221061GF105991021051012501031041KA1120N+00751MA1999999093571MD1610131+9999MW1011REMSYN100AAXX  07061 01245 11682 50000 10097 20073 39357 40059 56013 69912 70182 82534 333 20075 4//// 70008;EQDQ01  00002PRCP12
0171012450999992008080709004+62600+009667FM-12+060699999V0201501N001010300019N0400001N1+01391+00851100371ADDAY121031AY221031GF106991041051012501031001MA1999999093471MD1710111+9999MW1031REMSYN082AAXX  07091 01245 41682 61501 10139 20085 39347 40037 57011 70322 84530 333 4////;
0177012450999992008080712004+62600+009667FM-12+060699999V0200901N003010300019N0400001N1+01341+00891100331ADDAY181061AY221061GF106991031051012501031041MA1999999093421MD1810051+9999MW1021REMSYN088AAXX  07121 01245 11682 60903 10134 20089 39342 40033 58005 6//// 70282 83534 333 4////;
0207012450999992008080718004+62600+009667FM-12+060699999V0200901N001010120019N0400001N1+01281+00831100291ADDAA112001091AY181061AY221061GF107991071051012501999999KA1120M+01591MA1999999093371MD1710041+9999MW1011REMSYN094AAXX  07181 01245 11682 70901 10128 20083 39337 40029 57004 60012 70182 875// 333 10159 4////;
0224012450999992008080806004+62600+009667FM-12+060699999V0209999C000010042019N0100001N1+00941+00721100221ADDAA112004191AA224004891AY161061AY221061GF107991071061004501999999KA1120N+00941MA1999999093221MD1210031+9999MW1021REMSYN100AAXX  08061 01245 11460 70000 10094 20072 39322 40022 52003 60042 70262 876// 333 20094 4//// 70049;
0171012450999992008080809004+62600+009667FM-12+060699999V0200901N001010042019N0100001N1+01011+00721100211ADDAY161031AY251031GF107991071071004501999999MA1999999093231MD1210021+9999MW1501REMSYN082AAXX  08091 01245 41460 70901 10101 20072 39323 40021 52002 75065 877// 333 4////;
0177012450999992008080812004+62600+009667FM-12+060699999V0202701N001010042019N0100001N1+01201+00751100151ADDAY181061AY261061GF107991071021004501999999MA1999999093221MD1410001+9999MW1401REMSYN088AAXX  08121 01245 11460 72701 10120 20075 39322 40015 54000 6//// 74086 872// 333 4////;
0207012450999992008080818004+62600+009667FM-12+060699999V0200901N001010042019N0100001N1+01061+00581100301ADDAA112000391AY121061AY221061GF107991071021004501999999KA1120M+01341MA1999999093331MD1310061+9999MW1021REMSYN094AAXX  08181 01245 11460 70901 10106 20058 39333 40030 53006 69932 70222 872// 333 10134 4////;
0243012450999992008080906004+62600+009667FM-12+060699999V0202401N001010120019N0300001N1+00721+00451100431ADDAA112000091AA224000391AY121061AY221061GF107991071021012501999999KA1120N+00621MA1999999093371MD1810061+9999MW1031REMSYN100AAXX  09061 01245 11680 72401 10072 20045 39337 40043 58006 60002 70322 872// 333 20062 4//// 70003;EQDQ01  00002PRCP12
0149012450999992008080909004+62600+009667FM-12+060699999V0200901N001010120019N0250001N1+00851+00301100391ADDGF107991071021012501999999MA1999999093371MD1410001+9999REMSYN082AAXX  09091 01245 41675 70901 10085 20030 39337 40039 54000 7//22 872// 333 4////;
0177012450999992008080912004+62600+009667FM-12+060699999V0209999C000010120019N0200001N1+00921+00361100361ADDAY161061AY221061GF106991061021012501999999MA1999999093361MD1710021+9999MW1601REMSYN088AAXX  09121 01245 11670 60000 10092 20036 39336 40036 57002 6//// 76062 862// 333 4////;
0207012450999992008080918004+62600+009667FM-12+060699999V0209999C000010075019N0200001N1+00831+00591100371ADDAA112004191AY161061AY221061GF106991061051008001999999KA1120M+01011MA1999999093351MD1710021+9999MW1601REMSYN094AAXX  09181 01245 11570 60000 10083 20059 39335 40037 57002 60042 76062 865// 333 10101 4////;
0224012450999992008081006004+62600+009667FM-12+060699999V0200901N001010150019N0300001N1+00471+00351100081ADDAA112000891AA224004391AY161061AY221061GF106991051081012501031001KA1120N+00211MA1999999092981MD1810151+9999MW1021REMSYN100AAXX  10061 01245 11680 60901 10047 20035 39298 40008 58015 69972 70262 85830 333 20021 4//// 70042;
0171012450999992008081009004+62600+009667FM-12+060699999V0209999C000010300019N0400001N1+01211+00411099751ADDAY121031AY221031GF105991041021017501031041MA1999999092861MD1810131+9999MW1011REMSYN082AAXX  10091 01245 41782 50000 10121 20041 39286 49975 58013 70122 84234 333 4////;
0177012450999992008081012004+62600+009667FM-12+060699999V0202301N003010150019N0400001N1+01311+00351099581ADDAY121061AY221061GF106991051021017501031001MA1999999092721MD1710141+9999MW1031REMSYN088AAXX  10121 01245 11782 62303 10131 20035 39272 49958 57014 6//// 70322 85230 333 4////;
0226012450999992008081018004+62600+009667FM-12+060699999V0201401N003010300019N0400001N1+01231+00381099251ADDAA112000091AY121061AY221061GF106991031051012501071001KA1120M+01441MA1999999092401MD1710131+9999MW1021REMSYN094AAXX  10181 01245 11682 61403 10123 20038 39240 49925 57013 60002 70222 83570 333 10144 4////;EQDQ01  00002PRCP12
0224012450999992008081106004+62600+009667FM-12+060699999V0203201N001012200019N0400001N1+01201+00561098861ADDAA112000891AA224000891AY161061AY211061GF102991011011012501031001KA1120N+01051MA1999999092021MD1210021+9999MW1011REMSYN100AAXX  11061 01245 11682 23201 10120 20056 39202 49886 52002 69982 70161 81130 333 20105 4//// 70008;
0171012450999992008081109004+62600+009667FM-12+060699999V0202301N001010120019N0400001N1+01541+00591098791ADDAY121031AY201031GF105991051011012501001001MA1999999092031MD1010011+9999MW1031REMSYN082AAXX  11091 01245 41682 52301 10154 20059 39203 49879 50001 70320 85100 333 4////;
0177012450999992008081112004+62600+009667FM-12+060699999V0202301N003010120019N0400001N1+01671+00441098741ADDAY121061AY201061GF105991051011012501001001MA1999999092021MD1710031+9999MW1021REMSYN088AAXX  11121 01245 11682 52303 10167 20044 39202 49874 57003 6//// 70220 85100 333 4////;
0226012450999992008081118004+62600+009667FM-12+060699999V0202301N001010120019N0400001N1+01471+00501098911ADDAA112000091AY181061AY221061GF106991061041012501001001KA1120M+01781MA1999999092131MD1310091+9999MW1031REMSYN094AAXX  11181 01245 11682 62301 10147 20050 39213 49891 53009 69902 70382 86400 333 10178 4////;EQDQ01  00002PRCP12
0259012450999992008081206004+62600+009667FM-12+060699999V0202201N001010120019N0300001N1+01221+00831099621ADDAA112000091AA224000391AY181061AY221061GF107991999051012501001001KA1120N+00951MA1999999092731MD1210111+9999MW1031REMSYN100AAXX  12061 01245 11680 72201 10122 20083 39273 49962 52011 69922 70382 86500 333 20095 4//// 70002;EQDQ01+000062SCOTLCQ02  00002PRCP12
0171012450999992008081209004+62600+009667FM-12+060699999V0200901N001010120019N0400001N1+01241+00851099691ADDAY121031AY221031GF107991071051012501999999MA1999999092811MD1210071+9999MW1021REMSYN082AAXX  12091 01245 41682 70901 10124 20085 39281 49969 52007 70222 875// 333 4////;
0177012450999992008081212004+62600+009667FM-12+060699999V0202701N001010120019N0400001N1+01591+00821099581ADDAY121061AY221061GF107991071051012501999999MA1999999092781MD1710021+9999MW1021REMSYN088AAXX  12121 01245 11682 72701 10159 20082 39278 49958 57002 6//// 70222 875// 333 4////;
0226012450999992008081218004+62600+009667FM-12+060699999V0203001N001010120019N0400001N1+01461+00671099561ADDAA112000091AY161061AY221061GF107991061071012501021999KA1120M+01671MA1999999092731MD1510031+9999MW1151REMSYN094AAXX  12181 01245 11682 73001 10146 20067 39273 49956 55003 69902 71562 8672/ 333 10167 4////;EQDQ01  00002PRCP12
0224012450999992008081306004+62600+009667FM-12+060699999V0209999C000010006019N0009001N1+00851+00731099291ADDAA112000591AA224000591AY161061AY241061GF107991061061000751031999KA1120N+00731MA1999999092351MD1710121+9999MW1461REMSYN100AAXX  13061 01245 11109 70000 10085 20073 39235 49929 57012 69952 74664 8663/ 333 20073 4//// 70005;
0149012450999992008081309004+62600+009667FM-12+060699999V0203601N001010300019N0300001N1+01131+00831099161ADDGF107991041071012501021999MA1999999092281MD1710071+9999REMSYN082AAXX  13091 01245 41680 73601 10113 20083 39228 49916 57007 7//64 8472/ 333 4////;
0177012450999992008081312004+62600+009667FM-12+060699999V0209999C000010120019N0400001N1+01371+00631099051ADDAY161061AY241061GF108991051071012501021999MA1999999092231MD1710041+9999MW1601REMSYN088AAXX  13121 01245 11682 80000 10137 20063 39223 49905 57004 6//// 76064 8572/ 333 4////;
0207012450999992008081318004+62600+009667FM-12+060699999V0209999C000010042019N0300001N1+01311+01011099061ADDAA112000391AY161061AY221061GF108991051071004501021999KA1120M+01531MA1999999092231MD1510011+9999MW1011REMSYN094AAXX  13181 01245 11480 80000 10131 20101 39223 49906 55001 69932 70162 8572/ 333 10153 4////;
0224012450999992008081406004+62600+009667FM-12+060699999V0209999C000010021019N0100001N1+00981+00791099441ADDAA112001091AA224001591AY161061AY221061GF108991061071002501021999KA1120N+00981MA1999999092521MD1210121+9999MW1631REMSYN100AAXX  14061 01245 11360 80000 10098 20079 39252 49944 52012 60012 76362 8672/ 333 20098 4//// 70015;
0171012450999992008081409004+62600+009667FM-12+060699999V0209999C000010021019N0100001N1+01061+00891099601ADDAY161031AY221031GF108991061071002501021999MA1999999092671MD1210161+9999MW1601REMSYN082AAXX  14091 01245 41360 80000 10106 20089 39267 49960 52016 76062 8672/ 333 4////;
0177012450999992008081412004+62600+009667FM-12+060699999V0209999C000010021019N0100001N1+01101+00891099791ADDAY161061AY221061GF108991061071002501021999MA1999999092871MD1310191+9999MW1601REMSYN088AAXX  14121 01245 11360 80000 10110 20089 39287 49979 53019 6//// 76062 8672/ 333 4////;
0207012450999992008081418004+62600+009667FM-12+060699999V0200901N001010042019N0100001N1+01031+00741100281ADDAA112002091AY161061AY221061GF108991061071004501021999KA1120M+01231MA1999999093311MD1310241+9999MW1601REMSYN094AAXX  14181 01245 11460 80901 10103 20074 39331 40028 53024 60022 76062 8672/ 333 10123 4////;
0224012450999992008081506004+62600+009667FM-12+060699999V0209999C000010075019N0200001N1+00681+00531101091ADDAA112000021AA224002591AY161061AY221061GF107991071051008001999999KA1120N+00541MA1999999093971MD1210111+9999MW1011REMSYN100AAXX  15061 01245 11570 70000 10068 20053 39397 40109 52011 69912 70162 875// 333 20054 4//// 70025;
0171012450999992008081509004+62600+009667FM-12+060699999V0202301N001010075019N0300001N1+00951+00331101111ADDAY121031AY221031GF106991061051008001001001MA1999999094061MD1210081+9999MW1011REMSYN082AAXX  15091 01245 41580 62301 10095 20033 39406 40111 52008 70122 86500 333 4////;
0177012450999992008081512004+62600+009667FM-12+060699999V0200901N001010075019N0300001N1+01211+00531101081ADDAY121061AY221061GF106991061051008001001001MA1999999094101MD1210041+9999MW1021REMSYN088AAXX  15121 01245 11580 60901 10121 20053 39410 40108 52004 6//// 70222 86500 333 4////;
0207012450999992008081518004+62600+009667FM-12+060699999V0200901N001010075019N0300001N1+01111+00561101221ADDAA112000021AY161061AY221061GF107991071051008001999999KA1120M+01311MA1999999094201MD1210061+9999MW1601REMSYN094AAXX  15181 01245 11580 70901 10111 20056 39420 40122 52006 69902 76062 875// 333 10131 4////;
0202012450999992008081606004+62600+009667FM-12+060699999V0209999C000010120019N0300001N1+00761+00611101531ADDAA112002092AA224001592GF106991051051012501041001KA1120N+00761MA1999999094411MD1210041+9999REMSYN100AAXX  16061 01245 11680 60000 10076 20061 39441 40153 52004 60022 7//62 85540 333 20076 4//// 70016;
0171012450999992008081609004+62600+009667FM-12+060699999V0209999C000012200019N0400001N1+01131+00851101461ADDAY121031AY211031GF104991041051012501001001MA1999999094421MD1210021+9999MW1011REMSYN082AAXX  16091 01245 41682 40000 10113 20085 39442 40146 52002 70121 84500 333 4////;
0177012450999992008081612004+62600+009667FM-12+060699999V0200901N001010300019N0400001N1+01491+00311101321ADDAY121061AY211061GF106991041051012501041001MA1999999094381MD1710031+9999MW1031REMSYN088AAXX  16121 01245 11682 60901 10149 20031 39438 40132 57003 6//// 70321 84540 333 4////;
0226012450999992008081618004+62600+009667FM-12+060699999V0200501N001012200019N0400001N1+01491+00311101371ADDAA112000091AY121061AY211061GF102991021011012501001001KA1120M+01621MA1999999094421MD1210021+9999MW1011REMSYN094AAXX  16181 01245 11682 20501 10149 20031 39442 40137 52002 60002 70121 82100 333 10162 4////;EQDQ01  00002PRCP12
0269012450999992008081706004+62600+009667FM-12+060699999V0209999C000012200019N0400001N1+00691+00331101741ADDAA112000091AA224000091AY101061AY201061GA1001+999999999GF100991001001999999001001KA1120N+00471MA1999999094581MD1810041+9999MW1021REMSYN094AAXX  17061 01245 11982 00000 10069 20033 39458 40174 58004 60002 70200 333 20047 4//// 70000;EQDQ01  00002PRCP24Q02  00002PRCP12
0171012450999992008081709004+62600+009667FM-12+060699999V0209999C000012200019N0400001N1+01341+00581101541ADDAY101031AY201031GF104991011011012501001091MA1999999094561MD1510021+9999MW1031REMSYN082AAXX  17091 01245 41682 40000 10134 20058 39456 40154 55002 70300 81109 333 4////;
0177012450999992008081712004+62600+009667FM-12+060699999V0200901N003010120019N0400001N1+01691+00361101371ADDAY121061AY201061GF106991051011012501001091MA1999999094471MD1710081+9999MW1031REMSYN088AAXX  17121 01245 11682 60903 10169 20036 39447 40137 57008 6//// 70320 85109 333 4////;
0226012450999992008081718004+62600+009667FM-12+060699999V0200901N003010300019N0400001N1+01531+00351101241ADDAA112000091AY121061AY221061GF106991041011012501011001KA1120M+01771MA1999999094321MD1710071+9999MW1021REMSYN094AAXX  17181 01245 11682 60903 10153 20035 39432 40124 57007 60002 70222 84110 333 10177 4////;EQDQ01  00002PRCP12
0259012450999992008081806004+62600+009667FM-12+060699999V0209999C000010210019N0400001N1+00741+00541101091ADDAA112000091AA224000091AY121061AY201061GF106991061001022501051001KA1120N+00661MA1999999093981MD1710171+9999MW1031REMSYN100AAXX  18061 01245 11882 60000 10074 20054 39398 40109 57017 60002 70320 86050 333 20066 4//// 70000;EQDQ01  00002PRCP24Q02  00002PRCP12
0171012450999992008081809004+62600+009667FM-12+060699999V0201201N001010120019N0400001N1+00961+00721100881ADDAY161031AY221031GF107991071071012501999999MA1999999093851MD1810131+9999MW1031REMSYN082AAXX  18091 01245 41682 71201 10096 20072 39385 40088 58013 70362 877// 333 4////;
0177012450999992008081812004+62600+009667FM-12+060699999V0209999C000010075019N0300001N1+01011+00721100711ADDAY161061AY221061GF107991071071008001999999MA1999999093711MD1710151+9999MW1021REMSYN088AAXX  18121 01245 11580 70000 10101 20072 39371 40071 57015 6//// 70262 877// 333 4////;
0226012450999992008081818004+62600+009667FM-12+060699999V0200901N001010075019N0300001N1+01041+00751100431ADDAA112000091AY161061AY221061GF108991081051008001999999KA1120M+01161MA1999999093451MD1710111+9999MW1021REMSYN094AAXX  18181 01245 11580 80901 10104 20075 39345 40043 57011 69922 70262 885// 333 10116 4////;EQDQ01  00002PRCP12
0224012450999992008081906004+62600+009667FM-12+060699999V0209999C000010012019N0060001N1+00951+00831100211ADDAA112000591AA224000591AY161061AY241061GF108991081061001501999999KA1120N+00911MA1999999093221MD1610051+9999MW1401REMSYN100AAXX  19061 01245 11256 80000 10095 20083 39322 40021 56005 69942 74064 886// 333 20091 4//// 70006;
0171012450999992008081909004+62600+009667FM-12+060699999V0202301N001010021019N0100001N1+01071+00861100181ADDAY151031AY221031GF107991061071002501051999MA1999999093221MD1410001+9999MW1011REMSYN082AAXX  19091 01245 41360 72301 10107 20086 39322 40018 54000 70152 8675/ 333 4////;
0177012450999992008081912004+62600+009667FM-12+060699999V0202701N001010075019N0200001N1+01261+00791100101ADDAY151061AY221061GF108991081071008001999999MA1999999093201MD1510031+9999MW1021REMSYN088AAXX  19121 01245 11570 82701 10126 20079 39320 40010 55003 6//// 70252 887// 333 4////;
0226012450999992008081918004+62600+009667FM-12+060699999V0200901N003012200019N0400001N1+01281+00731100011ADDAA112000091AY121061AY201061GF104991031011012501001011KA1120M+01621MA1999999093121MD1710051+9999MW1011REMSYN094AAXX  19181 01245 11682 40903 10128 20073 39312 40001 57005 69912 70120 83101 333 10162 4////;EQDQ01  00002PRCP12
0243012450999992008082006004+62600+009667FM-12+060699999V0209999C000010006019N0002001N1+00611+00491100061ADDAA112000091AA224000391AY141061AY211061GF106991051061000751031001KA1120N+00441MA1999999093011MD1310011+9999MW1441REMSYN100AAXX  20061 01245 11102 60000 10061 20049 39301 40006 53001 69912 74441 85630 333 20044 4//// 70002;EQDQ01  00002PRCP12
0171012450999992008082009004+62600+009667FM-12+060699999V0209999C000012200019N0300001N1+01161+00771099951ADDAY141031AY211031GF104991021011008001001011MA1999999093021MD1010021+9999MW1011REMSYN082AAXX  20091 01245 41580 40000 10116 20077 39302 49995 50002 70141 82101 333 4////;
0177012450999992008082012004+62600+009667FM-12+060699999V0200901N003010750019N0400001N1+01541+00861099811ADDAY141061AY211061GF105991021021012501031011MA1999999092981MD1710041+9999MW1031REMSYN088AAXX  20121 01245 11682 50903 10154 20086 39298 49981 57004 6//// 70341 82231 333 4////;
0226012450999992008082018004+62600+009667FM-12+060699999V0200901N003012200019N0300001N1+01321+00831100001ADDAA112000091AY121061AY221061GF106991041041008001001011KA1120M+01641MA1999999093121MD1210081+9999MW1031REMSYN094AAXX  20181 01245 11580 60903 10132 20083 39312 40000 52008 60002 70322 84401 333 10164 4////;EQDQ01  00002PRCP12
0259012450999992008082106004+62600+009667FM-12+060699999V0209999C000010075019N0200001N1+00921+00701100461ADDAA112000091AA224000091AY121061AY221061GF106991061051008001001001KA1120N+00901MA1999999093451MD1210071+9999MW1011REMSYN100AAXX  21061 01245 11570 60000 10092 20070 39345 40046 52007 60002 70122 86500 333 20090 4//// 70000;EQDQ01  00002PRCP24Q02  00002PRCP12
0171012450999992008082109004+62600+009667FM-12+060699999V0209999C000010120019N0400001N1+01091+00571100521ADDAY121031AY221031GF107991071051012501999999MA1999999093551MD1210101+9999MW1031REMSYN082AAXX  21091 01245 41682 70000 10109 20057 39355 40052 52010 70322 875// 333 4////;
0177012450999992008082112004+62600+009667FM-12+060699999V0202401N001010150019N0400001N1+01221+00371100571ADDAY121061AY221061GF106991061081012501001001MA1999999093621MD1210061+9999MW1011REMSYN088AAXX  21121 01245 11682 62401 10122 20037 39362 40057 52006 6//// 70122 86800 333 4////;
0226012450999992008082118004+62600+009667FM-12+060699999V0209999C000010120019N0300001N1+01051+00531100751ADDAA112000091AY181061AY221061GF105991051081008001001001KA1120M+01371MA1999999093751MD1210091+9999MW1011REMSYN094AAXX  21181 01245 11580 50000 10105 20053 39375 40075 52009 69902 70182 85800 333 10137 4////;EQDQ01  00002PRCP12
0224012450999992008082206004+62600+009667FM-12+060699999V0209999C000010021019N0100001N1+00741+00521101061ADDAA112002091AA224002091AY181061AY221061GF106991061071002501001001KA1120N+00721MA1999999093971MD1210041+9999MW1011REMSYN100AAXX  22061 01245 11360 60000 10074 20052 39397 40106 52004 60022 70182 86700 333 20072 4//// 70021;
0171012450999992008082209004+62600+009667FM-12+060699999V0209999C000010021019N0100001N1+00931+00551101071ADDAY121031AY221031GF107991071071002501999999MA1999999094021MD1210051+9999MW1031REMSYN082AAXX  22091 01245 41360 70000 10093 20055 39402 40107 52005 70322 877// 333 4////;
0177012450999992008082212004+62600+009667FM-12+060699999V0200901N003010042019N0200001N1+01021+00671101061ADDAY161061AY221061GF106991061071004501001001MA1999999094021MD1410001+9999MW1011REMSYN088AAXX  22121 01245 11470 60903 10102 20067 39402 40106 54001 6//// 70162 86700 333 4////;
0204012450999992008082218004+62600+009667FM-12+060699999V0200901N001010120019N0300001N1+00951+00471101081ADDAA112000091GF108991071051012501021999KA1120M+01231MA1999999094031MD1210041+9999REMSYN094AAXX  22181 01245 11680 80901 10095 20047 39403 40108 52004 69912 7//62 8752/ 333 10123 4////;EQDQ01  00002PRCP12
0243012450999992008082306004+62600+009667FM-12+060699999V0209999C000010003019N0002001N1+00481+00361101221ADDAA112000091AA224000391AY141061AY221061GF107991071061000251999999KA1120N+00441MA1999999094051MD1410001+9999MW1441REMSYN100AAXX  23061 01245 11002 70000 10048 20036 39405 40122 54001 69912 74442 876// 333 20044 4//// 70002;EQDQ01  00002PRCP12
0171012450999992008082309004+62600+009667FM-12+060699999V0209999C000012200019N0400001N1+00961+00601101021ADDAY141031AY211031GF101991011011012501001001MA1999999093971MD1710081+9999MW1011REMSYN082AAXX  23091 01245 41682 10000 10096 20060 39397 40102 57008 70141 81100 333 4////;
0177012450999992008082312004+62600+009667FM-12+060699999V0201701N001012200019N0400001N1+01601+00311100751ADDAY141061AY211061GF103991031011012501001001MA1999999093871MD1710101+9999MW1031REMSYN088AAXX  23121 01245 11682 31701 10160 20031 39387 40075 57010 6//// 70341 83100 333 4////;
0226012450999992008082318004+62600+009667FM-12+060699999V0200401N001012200019N0400001N1+01551+00491100631ADDAA112000091AY111061AY201061GF103991031011012501001001KA1120M+01791MA1999999093761MD1710031+9999MW1021REMSYN094AAXX  23181 01245 11682 30401 10155 20049 39376 40063 57003 60002 70210 83100 333 10179 4////;EQDQ01  00002PRCP12
0259012450999992008082406004+62600+009667FM-12+060699999V0203601N001012200019N0400001N1+00981+00461100841ADDAA112000091AA224000091AY101061AY201061GF101991011011012501001011KA1120N+00681MA1999999093821MD1410001+9999MW1011REMSYN100AAXX  24061 01245 11682 13601 10098 20046 39382 40084 54001 60002 70100 81101 333 20068 4//// 70000;EQDQ01  00002PRCP24Q02  00002PRCP12
0171012450999992008082409004+62600+009667FM-12+060699999V0202301N001012200019N0400001N1+01681+00541100651ADDAY101031AY201031GF102991011011012501001011MA1999999093801MD1710021+9999MW1031REMSYN082AAXX  24091 01245 41682 22301 10168 20054 39380 40065 57002 70300 81101 333 4////;
0177012450999992008082412004+62600+009667FM-12+060699999V0201801N003012200019N0400001N1+01831+00451100611ADDAY101061AY201061GF103991021011012501001011MA1999999093801MD1510011+9999MW1031REMSYN088AAXX  24121 01245 11682 31803 10183 20045 39380 40061 55001 6//// 70300 82101 333 4////;
0226012450999992008082418004+62600+009667FM-12+060699999V0202101N001012200019N0400001N1+01681+00321100651ADDAA112000091AY111061AY201061GF101991011011012501001001KA1120M+01941MA1999999093801MD1410001+9999MW1011REMSYN094AAXX  24181 01245 11682 12101 10168 20032 39380 40065 54001 60002 70110 81100 333 10194 4////;EQDQ01  00002PRCP12
0259012450999992008082506004+62600+009667FM-12+060699999V0202101N001012200019N0400001N1+01181+00411100901ADDAA112000091AA224000091AY101061AY201061GF101991011011012501001001KA1120N+00931MA1999999093921MD1710021+9999MW1021REMSYN100AAXX  25061 01245 11682 12101 10118 20041 39392 40090 57002 60002 70200 81100 333 20093 4//// 70000;EQDQ01  00002PRCP24Q02  00002PRCP12
0171012450999992008082509004+62600+009667FM-12+060699999V0201801N005012200019N0400001N1+01541+00421100741ADDAY101031AY201031GF101991011011012501001011MA1999999093861MD1610061+9999MW1021REMSYN082AAXX  25091 01245 41682 11805 10154 20042 39386 40074 56006 70200 81101 333 4////;
0177012450999992008082512004+62600+009667FM-12+060699999V0201801N007012200019N0400001N1+01661+00531100671ADDAY101061AY201061GF102991021011012501001001MA1999999093821MD1510031+9999MW1031REMSYN088AAXX  25121 01245 11682 21807 10166 20053 39382 40067 55003 6//// 70300 82100 333 4////;
0226012450999992008082518004+62600+009667FM-12+060699999V0202301N010012200019N0400001N1+01441+00521100591ADDAA112000091AY121061AY201061GF105991041021012501001011KA1120M+01741MA1999999093681MD1810111+9999MW1031REMSYN094AAXX  25181 01245 11682 52310 10144 20052 39368 40059 58011 60002 70320 84201 333 10174 4////;EQDQ01  00002PRCP12
0224012450999992008082606004+62600+009667FM-12+060699999V0209999C000010075019N0200001N1+01141+00901100781ADDAA112003091AA224003391AY161061AY221061GF106991061051008001001001KA1120N+01121MA1999999093801MD1310091+9999MW1011REMSYN100AAXX  26061 01245 11570 60000 10114 20090 39380 40078 53009 60032 70162 86500 333 20112 4//// 70032;
0171012450999992008082609004+62600+009667FM-12+060699999V0200501N003010060019N0200001N1+01121+00861100971ADDAY121031AY221031GF105991051081002501001001MA1999999093971MD1210171+9999MW1011REMSYN082AAXX  26091 01245 41370 50503 10112 20086 39397 40097 52017 70122 85800 333 4////;
0177012450999992008082612004+62600+009667FM-12+060699999V0200901N003010021019N0200001N1+01141+00771101051ADDAY181061AY221061GF107991071021002501999999MA1999999094051MD1310081+9999MW1011REMSYN088AAXX  26121 01245 11370 70903 10114 20077 39405 40105 53008 6//// 70182 872// 333 4////;
0207012450999992008082618004+62600+009667FM-12+060699999V0200901N001010042019N0200001N1+00971+00681101221ADDAA112000591AY181061AY221061GF106991061051004501001001KA1120M+01331MA1999999094171MD1410001+9999MW1011REMSYN094AAXX  26181 01245 11470 60901 10097 20068 39417 40122 54000 69942 70182 86500 333 10133 4////;
0243012450999992008082706004+62600+009667FM-12+060699999V0202101N001010021019N0100001N1+00841+00531100911ADDAA112000091AA224000591AY161061AY221061GF106991051061002501031001KA1120N+00741MA1999999093851MD1710191+9999MW1401REMSYN100AAXX  27061 01245 11360 62101 10084 20053 39385 40091 57019 69912 74062 85630 333 20074 4//// 70005;EQDQ01  00002PRCP12
0171012450999992008082709004+62600+009667FM-12+060699999V0201201N001010300019N0400001N1+01181+00481100641ADDAY121031AY221031GF107991031011012501071999MA1999999093671MD1810171+9999MW1031REMSYN082AAXX  27091 01245 41682 71201 10118 20048 39367 40064 58017 70322 8317/ 333 4////;
0177012450999992008082712004+62600+009667FM-12+060699999V0201201N001010300019N0400001N1+01291+00671100381ADDAY121061AY221061GF107991041071012501021999MA1999999093461MD1710231+9999MW1021REMSYN088AAXX  27121 01245 11682 71201 10129 20067 39346 40038 57023 6//// 70222 8472/ 333 4////;
0207012450999992008082718004+62600+009667FM-12+060699999V0209999C000010150019N0400001N1+01241+00751100621ADDAA112000021AY161061AY221061GF108991081001017501021999KA1120M+01471MA1999999093671MD1710151+9999MW1601REMSYN094AAXX  27181 01245 11782 80000 10124 20075 39367 40062 57015 69902 76062 8802/ 333 10147 4////;
0224012450999992008082806004+62600+009667FM-12+060699999V0203201N001010042019N0200001N1+00681+00501100381ADDAA112008991AA224009491AY161061AY221061GF106991051071004501061001KA1120N+00621MA1999999093321MD1310091+9999MW1011REMSYN100AAXX  28061 01245 11470 63201 10068 20050 39332 40038 53009 60092 70162 85760 333 20062 4//// 70094;
0171012450999992008082809004+62600+009667FM-12+060699999V0202401N001010075019N0200001N1+00741+00541100531ADDAY161031AY221031GF107991071071008001999999MA1999999093471MD1210161+9999MW1011REMSYN082AAXX  28091 01245 41570 72401 10074 20054 39347 40053 52016 70162 877// 333 4////;
0177012450999992008082812004+62600+009667FM-12+060699999V0202701N001010012019N0200001N1+00911+00431100601ADDAY161061AY221061GF107991071071001501999999MA1999999093571MD1310101+9999MW1011REMSYN088AAXX  28121 01245 11270 72701 10091 20043 39357 40060 53010 6//// 70162 877// 333 4////;
0207012450999992008082818004+62600+009667FM-12+060699999V0202701N001010075019N0200001N1+00881+00361100791ADDAA112000391AY181061AY221061GF107991071021008001999999KA1120M+01081MA1999999093751MD1210061+9999MW1801REMSYN094AAXX  28181 01245 11570 72701 10088 20036 39375 40079 52006 69932 78082 872// 333 10108 4////;
0224012450999992008082906004+62600+009667FM-12+060699999V0209999C000010075019N0200001N1+00681+00401101371ADDAA112000021AA224000591AY181061AY221061GF107991071051008001999999KA1120N+00681MA1999999094231MD1210111+9999MW1011REMSYN100AAXX  29061 01245 11570 70000 10068 20040 39423 40137 52011 69912 70182 875// 333 20068 4//// 70004;
0171012450999992008082909004+62600+009667FM-12+060699999V0202401N003010120019N0300001N1+00941+00321101471ADDAY161031AY221031GF106991061021012501999999MA1999999094401MD1210161+9999MW1011REMSYN082AAXX  29091 01245 41680 62403 10094 20032 39440 40147 52016 70162 862// 333 4////;
0177012450999992008082912004+62600+009667FM-12+060699999V0203001N003010120019N0300001N1+01031+00291101581ADDAY161061AY221061GF106991061021012501001001MA1999999094521MD1210131+9999MW1011REMSYN088AAXX  29121 01245 11680 63003 10103 20029 39452 40158 52013 6//// 70162 86200 333 4////;
0226012450999992008082918004+62600+009667FM-12+060699999V0202701N001010120019N0300001N1+00971+00371101771ADDAA112000091AY121061AY221061GF106991061021012501999999KA1120M+01201MA1999999094671MD1210061+9999MW1021REMSYN094AAXX  29181 01245 11680 62701 10097 20037 39467 40177 52006 69902 70222 862// 333 10120 4////;EQDQ01  00002PRCP12
0224012450999992008083006004+62600+009667FM-12+060699999V0209999C000010075019N0200001N1+00621+00481102161ADDAA112000021AA224000391AY161061AY221061GF107991071071008001999999KA1120N+00611MA1999999094961MD1310021+9999MW1611REMSYN100AAXX  30061 01245 11570 70000 10062 20048 39496 40216 53002 69922 76162 877// 333 20061 4//// 70002;
0171012450999992008083009004+62600+009667FM-12+060699999V0209999C000010075019N0100001N1+00771+00651102211ADDAY161031AY221031GF107991071071008001999999MA1999999095031MD1210091+9999MW1631REMSYN082AAXX  30091 01245 41560 70000 10077 20065 39503 40221 52009 76362 877// 333 4////;
0177012450999992008083012004+62600+009667FM-12+060699999V0209999C000010075019N0060001N1+00911+00621102181ADDAY161061AY221061GF107991071071008001999999MA1999999095051MD1210011+9999MW1631REMSYN088AAXX  30121 01245 11556 70000 10091 20062 39505 40218 52001 6//// 76362 877// 333 4////;
0207012450999992008083018004+62600+009667FM-12+060699999V0209999C000010042019N0050001N1+00981+00771102141ADDAA112002091AY161061AY221061GF107991071071004501999999KA1120M+01001MA1999999095021MD1510001+9999MW1281REMSYN094AAXX  30181 01245 11450 70000 10098 20077 39502 40214 55000 60022 72862 877// 333 10100 4////;
0243012450999992008083106004+62600+009667FM-12+060699999V0209999C000010120019N0250001N1+00861+00671102001ADDAA112000091AA224002591AY161061AY221061GF107991071071012501999999KA1120N+00821MA1999999094871MD1710051+9999MW1021REMSYN100AAXX  31061 01245 11675 70000 10086 20067 39487 40200 57005 69912 70262 877// 333 20082 4//// 70025;EQDQ01  00002PRCP12
0171012450999992008083109004+62600+009667FM-12+060699999V0201501N001010300019N0300001N1+01141+00731101911ADDAY121031AY221031GF105991041051017501061001MA1999999094851MD1710051+9999MW1011REMSYN082AAXX  31091 01245 41780 51501 10114 20073 39485 40191 57005 70122 84560 333 4////;
0177012450999992008083112004+62600+009667FM-12+060699999V0201101N001010300019N0400001N1+01561+00931101721ADDAY121061AY221061GF105991041051017501031001MA1999999094771MD1710081+9999MW1021REMSYN088AAXX  31121 01245 11782 51101 10156 20093 39477 40172 57008 6//// 70222 84530 333 4////;
0226012450999992008083118004+62600+009667FM-12+060699999V0201201N001010150019N0400001N1+01281+00831101691ADDAA112000091AY121061AY221061GF106991061001017501051001KA1120M+01671MA1999999094671MD1710021+9999MW1021REMSYN094AAXX  31181 01245 11782 61201 10128 20083 39467 40169 57002 60002 70222 86050 333 10167 4////;EQDQ01  00002PRCP12
0259012450999992008090106004+62600+009667FM-12+060699999V0209999C000010150019N0400001N1+01141+00911101471ADDAA112000091AA224000091AY121061AY221061GF107991071001017501071999KA1120N+01061MA1999999094431MD1710081+9999MW1021REMSYN100AAXX  01061 01245 11782 70000 10114 20091 39443 40147 57008 60002 70222 8707/ 333 20106 4//// 70000;EQDQ01  00002PRCP24Q02  00002PRCP12
0171012450999992008090109004+62600+009667FM-12+060699999V0209999C000012200019N0400001N1+01581+00991101161ADDAY121031AY201031GF103991011011012501031011MA1999999094261MD1810181+9999MW1011REMSYN082AAXX  01091 01245 41682 30000 10158 20099 39426 40116 58018 70120 81131 333 4////;
0177012450999992008090112004+62600+009667FM-12+060699999V0202301N001012200019N0400001N1+01861+00881100851ADDAY121061AY201061GF104991041041012501001011MA1999999094021MD1710221+9999MW1031REMSYN088AAXX  01121 01245 11682 42301 10186 20088 39402 40085 57022 6//// 70320 84401 333 4////;
0226012450999992008090118004+62600+009667FM-12+060699999V0203201N001012200019N0400001N1+01581+00711100431ADDAA112000091AY101061AY201061GF102991011011012501001041KA1120M+02031MA1999999093571MD1710191+9999MW1011REMSYN094AAXX  01181 01245 11682 23201 10158 20071 39357 40043 57019 60002 70100 81104 333 10203 4////;EQDQ01  00002PRCP12
0259012450999992008090206004+62600+009667FM-12+060699999V0209999C000010120019N0400001N1+00931+00691100091ADDAA112000091AA224000091AY121061AY201061GF107991071051012501999999KA1120N+00901MA1999999093111MD1610051+9999MW1031REMSYN100AAXX  02061 01245 11682 70000 10093 20069 39311 40009 56005 60002 70320 875// 333 20090 4//// 70000;EQDQ01  00002PRCP24Q02  00002PRCP12
0171012450999992008090209004+62600+009667FM-12+060699999V0209999C000010075019N0300001N1+01081+00861100071ADDAY121031AY221031GF108991081051008001999999MA1999999093121MD1210021+9999MW1031REMSYN082AAXX  02091 01245 41580 80000 10108 20086 39312 40007 52002 70322 885// 333 4////;
0177012450999992008090212004+62600+009667FM-12+060699999V0209999C000010075019N0200001N1+01231+00951100001ADDAY121061AY221061GF108991081051008001999999MA1999999093101MD1710031+9999MW1151REMSYN088AAXX  02121 01245 11570 80000 10123 20095 39310 40000 57003 6//// 71522 885// 333 4////;
0207012450999992008090218004+62600+009667FM-12+060699999V0200501N001010300019N0200001N1+01211+01001099621ADDAA112002091AY161061AY221061GF106991041051004501031001KA1120M+01321MA1999999092731MD1710241+9999MW1011REMSYN094AAXX  02181 01245 11470 60501 10121 20100 39273 49962 57024 60022 70162 84530 333 10132 4////;
0243012450999992008090306004+62600+009667FM-12+060699999V0200901N003010075019N0200001N1+01271+00741098531ADDAA112000091AA224001891AY161061AY221061GF107991071051008001999999KA1120N+01161MA1999999091731MD1810351+9999MW1021REMSYN100AAXX  03061 01245 11570 70903 10127 20074 39173 49853 58035 69912 70262 875// 333 20116 4//// 70019;EQDQ01  00002PRCP12
0171012450999992008090309004+62600+009667FM-12+060699999V0203201N001010042019N0100001N1+01041+00871098341ADDAY161031AY221031GF108991071071004501021999MA1999999091511MD1610201+9999MW1631REMSYN082AAXX  03091 01245 41460 83201 10104 20087 39151 49834 56020 76362 8772/ 333 4////;
0177012450999992008090312004+62600+009667FM-12+060699999V0202701N005010042019N0100001N1+00701+00501098611ADDAY161061AY221061GF108991071071004501021999MA1999999091671MD1310161+9999MW1631REMSYN088AAXX  03121 01245 11460 82705 10070 20050 39167 49861 53016 6//// 76362 8772/ 333 4////;
0207012450999992008090318004+62600+009667FM-12+060699999V0202701N003010300019N0300001N1+00881+00401098601ADDAA112007191AY161061AY221061GF106991041071012501061001KA1120M+01371MA1999999091711MD1310041+9999MW1011REMSYN094AAXX  03181 01245 11680 62703 10088 20040 39171 49860 53004 60072 70162 84760 333 10137 4////;
0224012450999992008090406004+62600+009667FM-12+060699999V0209999C000010300019N0400001N1+00481+00331099271ADDAA112001091AA224007691AY161061AY221061GF105991031051012501031001KA1120N+00481MA1999999092231MD1210111+9999MW1011REMSYN100AAXX  04061 01245 11682 50000 10048 20033 39223 49927 52011 69992 70162 83530 333 20048 4//// 70077;
0171012450999992008090409004+62600+009667FM-12+060699999V0209999C000010750019N0400001N1+00881+00441099291ADDAY121031AY221031GF105991021011008001031011MA1999999092351MD1210131+9999MW1021REMSYN082AAXX  04091 01245 41582 50000 10088 20044 39235 49929 52013 70222 82131 333 4////;
0177012450999992008090412004+62600+009667FM-12+060699999V0200901N001012200019N0400001N1+01231+00381099191ADDAY121061AY221061GF105991041011012501001011MA1999999092331MD1010001+9999MW1021REMSYN088AAXX  04121 01245 11682 50901 10123 20038 39233 49919 50000 6//// 70222 84101 333 4////;
0226012450999992008090418004+62600+009667FM-12+060699999V0209999C000010300019N0400001N1+00851+00301099311ADDAA112000091AY181061AY211061GF107991011071012501021999KA1120M+01311MA1999999092371MD1210061+9999MW1031REMSYN094AAXX  04181 01245 11682 70000 10085 20030 39237 49931 52006 69912 70381 8172/ 333 10131 4////;EQDQ01  00002PRCP12
0224012450999992008090506004+62600+009667FM-12+060699999V0209999C000010021019N0100001N1+00581+00461099841ADDAA112000021AA224000391AY161061AY221061GF108991071051002501021999KA1120N+00371MA1999999092781MD1210111+9999MW1611REMSYN100AAXX  05061 01245 11360 80000 10058 20046 39278 49984 52011 69912 76162 8752/ 333 20037 4//// 70002;
0171012450999992008090509004+62600+009667FM-12+060699999V0201201N001010021019N0100001N1+00701+00531099991ADDAY161031AY241031GF108991081061002501999999MA1999999092961MD1310181+9999MW1021REMSYN082AAXX  05091 01245 41360 81201 10070 20053 39296 49999 53018 70264 886// 333 4////;
0177012450999992008090512004+62600+009667FM-12+060699999V0201201N001010021019N0100001N1+00761+00521100121ADDAY161061AY251061GF108991081061002501999999MA1999999093101MD1210141+9999MW1531REMSYN088AAXX  05121 01245 11360 81201 10076 20052 39310 40012 52014 6//// 75365 886// 333 4////;
0207012450999992008090518004+62600+009667FM-12+060699999V0209999C000010060019N0100001N1+00721+00451100471ADDAA112005191AY181061AY261061GF107991071081002501999999KA1120M+00841MA1999999093411MD1210111+9999MW1801REMSYN094AAXX  05181 01245 11360 70000 10072 20045 39341 40047 52011 60052 78086 878// 333 10084 4////;
0202012450999992008090606004+62600+009667FM-12+060699999V0209999C000012200019N0400001N1+00271+00151100961ADDAA112001091AA224005891GF101991011011012501001001KA1120N+00191MA1999999093761MD1310011+9999REMSYN100AAXX  06061 01245 11682 10000 10027 20015 39376 40096 53001 69992 7//81 81100 333 20019 4//// 70058;
0171012450999992008090609004+62600+009667FM-12+060699999V0209999C000012200019N0400001N1+00791+00471100771ADDAY101031AY201031GF101991011011012501001001MA1999999093711MD1710061+9999MW1021REMSYN082AAXX  06091 01245 41682 10000 10079 20047 39371 40077 57006 70200 81100 333 4////;
0177012450999992008090612004+62600+009667FM-12+060699999V0201701N001012200019N0400001N1+01301+00171100491ADDAY101061AY201061GF103991031011012501001001MA1999999093571MD1710131+9999MW1031REMSYN088AAXX  06121 01245 11682 31701 10130 20017 39357 40049 57013 6//// 70300 83100 333 4////;
0226012450999992008090618004+62600+009667FM-12+060699999V0200901N001012200019N0400001N1+01101+00471100571ADDAA112000091AY101061AY201061GF102991021011012501001001KA1120M+01501MA1999999093601MD1310041+9999MW1011REMSYN094AAXX  06181 01245 11682 20901 10110 20047 39360 40057 53004 60002 70100 82100 333 10150 4////;EQDQ01  00002PRCP12
0237012450999992008090706004+62600+009667FM-12+060699999V0209999C000012200019N0400001N1+00221+00091101261ADDAA112000091AA224000091GF101991011011012501001001KA1120N+00221MA1999999094021MD1210101+9999REMSYN100AAXX  07061 01245 11682 10000 10022 20009 39402 40126 52010 60002 7//00 81100 333 20022 4//// 70000;EQDQ01  00002PRCP24Q02  00002PRCP12
0171012450999992008090709004+62600+009667FM-12+060699999V0201801N001012200019N0400001N1+00791+00491101241ADDAY111031AY201031GF104991041011012501001001MA1999999094151MD1110121+9999MW1031REMSYN082AAXX  07091 01245 41682 41801 10079 20049 39415 40124 51012 70310 84100 333 4////;
0187012450999992008090712004+62600+009667FM-12+060699999V0200901N003012200019N0500001N1+01311+00451101071ADDAY111061AY201061GA1001+999999999GF100991001001999999001001MA1999999094111MD1710041+9999MW1011REMSYN082AAXX  07121 01245 11984 00903 10131 20045 39411 40107 57004 6//// 70110 333 4////;
0236012450999992008090718004+62600+009667FM-12+060699999V0200901N003012200019N0500001N1+01211+00281101161ADDAA112000091AY101061AY201061GA1001+999999999GF100991001001999999001001KA1120M+01601MA1999999094171MD1210071+9999MW1021REMSYN088AAXX  07181 01245 11984 00903 10121 20028 39417 40116 52007 60002 70200 333 10160 4////;EQDQ01  00002PRCP12
0259012450999992008090806004+62600+009667FM-12+060699999V0209999C000010210019N0400001N1+00931+00451101371ADDAA112000091AA224000091AY121061AY201061GF105991051001022501031001KA1120N+00691MA1999999094301MD1510011+9999MW1031REMSYN100AAXX  08061 01245 11882 50000 10093 20045 39430 40137 55001 60002 70320 85030 333 20069 4//// 70000;EQDQ01  00002PRCP24Q02  00002PRCP12
0171012450999992008090809004+62600+009667FM-12+060699999V0209999C000012200019N0400001N1+01401+00661101241ADDAY121031AY201031GF104991011011012501031001MA1999999094281MD1410001+9999MW1011REMSYN082AAXX  08091 01245 41682 40000 10140 20066 39428 40124 54001 70120 81130 333 4////;
0177012450999992008090812004+62600+009667FM-12+060699999V0201801N003012200019N0400001N1+01561+00611101181ADDAY121061AY201061GF103991021011012501031001MA1999999094271MD1710011+9999MW1011REMSYN088AAXX  08121 01245 11682 31803 10156 20061 39427 40118 57001 6//// 70120 82130 333 4////;
0226012450999992008090818004+62600+009667FM-12+060699999V0209999C000012200019N0400001N1+01281+00551101311ADDAA112000091AY111061AY201061GF102991011011012501001011KA1120M+01621MA1999999094321MD1210051+9999MW1021REMSYN094AAXX  08181 01245 11682 20000 10128 20055 39432 40131 52005 60002 70210 81101 333 10162 4////;EQDQ01  00002PRCP12
0259012450999992008090906004+62600+009667FM-12+060699999V0202701N001012200019N0400001N1+01001+00541101681ADDAA112000091AA224000091AY101061AY201061GF104991021011012501001011KA1120N+00961MA1999999094611MD1210051+9999MW1021REMSYN100AAXX  09061 01245 11682 42701 10100 20054 39461 40168 52005 60002 70200 82101 333 20096 4//// 70000;EQDQ01  00002PRCP24Q02  00002PRCP12
0171012450999992008090909004+62600+009667FM-12+060699999V0202301N001012200019N0400001N1+01241+00621101701ADDAY121031AY201031GF106991041011012501001011MA1999999094671MD1010071+9999MW1031REMSYN082AAXX  09091 01245 41682 62301 10124 20062 39467 40170 50007 70320 84101 333 4////;
0177012450999992008090912004+62600+009667FM-12+060699999V0200901N003010300019N0400001N1+01551+00631101591ADDAY121061AY201061GF106991031011012501011001MA1999999094651MD1710031+9999MW1021REMSYN088AAXX  09121 01245 11682 60903 10155 20063 39465 40159 57003 6//// 70220 83110 333 4////;
0226012450999992008090918004+62600+009667FM-12+060699999V0200901N003010075019N0300001N1+01101+00511101851ADDAA112000091AY161061AY221061GF107991071051008001999999KA1120M+01641MA1999999094781MD1310071+9999MW1031REMSYN094AAXX  09181 01245 11580 70903 10110 20051 39478 40185 53007 69922 70362 875// 333 10164 4////;EQDQ01  00002PRCP12
0243012450999992008091006004+62600+009667FM-12+060699999V0201401N001012200019N0300001N1+00871+00361101721ADDAA112000091AA224000391AY121061AY201061GF103991031011008001001001KA1120N+00751MA1999999094611MD1710051+9999MW1011REMSYN100AAXX  10061 01245 11580 31401 10087 20036 39461 40172 57005 60002 70120 83100 333 20075 4//// 70002;EQDQ01  00002PRCP12
0191012450999992008091009004+62600+009667FM-12+060699999V0201801N003010120019N0400001N1+01011+00291999999ADDAY121031AY201031GF105991051041012501001001MD1510081+9999MW1031REMSYN082AAXX  10091 01245 41682 51803 10101 20029 39542 40256 55008 70320 85400 333 4////;EQDQ01+095423APOSP Q02+102563APOSLP
0177012450999992008091012004+62600+009667FM-12+060699999V0201401N005010120019N0400001N1+01051+00191101511ADDAY121061AY201061GF106991061041012501001001MA1999999094461MD1710071+9999MW1031REMSYN088AAXX  10121 01245 11682 61405 10105 20019 39446 40151 57007 6//// 70320 86400 333 4////;
0226012450999992008091018004+62600+009667FM-12+060699999V0202701N001010120019N0400001N1+00991+00231101521ADDAA112000091AY121061AY221061GF106991061041012501001001KA1120M+01261MA1999999094451MD1010031+9999MW1021REMSYN094AAXX  10181 01245 11682 62701 10099 20023 39445 40152 50003 60002 70222 86400 333 10126 4////;EQDQ01  00002PRCP12
0259012450999992008091106004+62600+009667FM-12+060699999V0202301N003012200019N0300001N1+01021+00411101811ADDAA112000091AA224000091AY121061AY201061GF103991031011008001001001KA1120N+00911MA1999999094721MD1310041+9999MW1011REMSYN100AAXX  11061 01245 11580 32303 10102 20041 39472 40181 53004 60002 70120 83100 333 20091 4//// 70000;EQDQ01  00002PRCP24Q02  00002PRCP12
0171012450999992008091109004+62600+009667FM-12+060699999V0202301N005010075019N0400001N1+01171+00441101901ADDAY121031AY201031GF105991051041008001001001MA1999999094851MD1210121+9999MW1031REMSYN082AAXX  11091 01245 41582 52305 10117 20044 39485 40190 52012 70320 85400 333 4////;
0177012450999992008091112004+62600+009667FM-12+060699999V0201801N007012200019N0400001N1+01281+00521101901ADDAY111061AY201061GF103991031041012501001001MA1999999094871MD1210041+9999MW1011REMSYN088AAXX  11121 01245 11682 31807 10128 20052 39487 40190 52004 6//// 70110 83400 333 4////;
0226012450999992008091118004+62600+009667FM-12+060699999V0202301N005012200019N0400001N1+01091+00421102021ADDAA112000091AY121061AY201061GF104991041041012501001001KA1120M+01401MA1999999094931MD1210041+9999MW1031REMSYN094AAXX  11181 01245 11682 42305 10109 20042 39493 40202 52004 60002 70320 84400 333 10140 4////;EQDQ01  00002PRCP12
0269012450999992008091206004+62600+009667FM-12+060699999V0202701N001012200019N0400001N1+00921+00281102271ADDAA112000091AA224000091AY101061AY201061GA1001+999999999GF100991001001999999001001KA1120N+00861MA1999999095131MD1210031+9999MW1011REMSYN094AAXX  12061 01245 11982 02701 10092 20028 39513 40227 52003 60002 70100 333 20086 4//// 70000;EQDQ01  00002PRCP24Q02  00002PRCP12
0181012450999992008091209004+62600+009667FM-12+060699999V0202701N003012200019N0500001N1+01341+00381102331ADDAY101031AY201031GA1001+999999999GF100991001001999999001001MA1999999095281MD1110071+9999MW1021REMSYN076AAXX  12091 01245 41984 02703 10134 20038 39528 40233 51007 70200 333 4////;
0187012450999992008091212004+62600+009667FM-12+060699999V0202701N005012200019N0500001N1+01291+00301102381ADDAY101061AY201061GA1001+999999999GF100991001001999999001001MA1999999095321MD1210071+9999MW1021REMSYN082AAXX  12121 01245 11984 02705 10129 20030 39532 40238 52007 6//// 70200 333 4////;
0236012450999992008091218004+62600+009667FM-12+060699999V0202701N003012200019N0500001N1+00951+00091102621ADDAA112000091AY101061AY201061GA1001+999999999GF100991001001999999001001KA1120M+01381MA1999999095471MD1310131+9999MW1021REMSYN088AAXX  12181 01245 11984 02703 10095 20009 39547 40262 53013 60002 70200 333 10138 4////;EQDQ01  00002PRCP12
0259012450999992008091306004+62600+009667FM-12+060699999V0209999C000010120019N0400001N1+00521+00241103071ADDAA112000091AA224000091AY121061AY221061GF106991061021012501001001KA1120N+00501MA1999999095771MD1510011+9999MW1031REMSYN100AAXX  13061 01245 11682 60000 10052 20024 39577 40307 55001 60002 70322 86200 333 20050 4//// 70000;EQDQ01  00002PRCP24Q02  00002PRCP12
0171012450999992008091309004+62600+009667FM-12+060699999V0209999C000010150019N0400001N1+00841+00371103021ADDAY121031AY221031GF105991051021017501001001MA1999999095811MD1210041+9999MW1011REMSYN082AAXX  13091 01245 41782 50000 10084 20037 39581 40302 52004 70122 85200 333 4////;
0177012450999992008091312004+62600+009667FM-12+060699999V0209999C000010150019N0400001N1+01051+00511102971ADDAY121061AY221061GF107991071021017501999999MA1999999095821MD1410001+9999MW1031REMSYN088AAXX  13121 01245 11782 70000 10105 20051 39582 40297 54000 6//// 70322 872// 333 4////;
0226012450999992008091318004+62600+009667FM-12+060699999V0200601N003012200019N0400001N1+01061+00771102911ADDAA112000091AY121061AY211061GF104991031021017501031001KA1120M+01251MA1999999095761MD1410001+9999MW1011REMSYN094AAXX  13181 01245 11782 40603 10106 20077 39576 40291 54000 60002 70121 83230 333 10125 4////;EQDQ01  00002PRCP12
0237012450999992008091406004+62600+009667FM-12+060699999V0209999C000012200019N0400001N1+00261+00191103201ADDAA112000091AA224000091GF103991031001017501081001KA1120N+00261MA1999999095831MD1410001+9999REMSYN100AAXX  14061 01245 11782 30000 10026 20019 39583 40320 54001 60002 7//10 83080 333 20026 4//// 70000;EQDQ01  00002PRCP24Q02  00002PRCP12
0171012450999992008091409004+62600+009667FM-12+060699999V0209999C000012200019N0400001N1+00641+00301103181ADDAY111031AY201031GF104991041021017501001001MA1999999095911MD1110051+9999MW1031REMSYN082AAXX  14091 01245 41782 40000 10064 20030 39591 40318 51005 70310 84200 333 4////;
0177012450999992008091412004+62600+009667FM-12+060699999V0200901N001012200019N0400001N1+01341+00321102941ADDAY111061AY201061GF103991031021017501001001MA1999999095861MD1710051+9999MW1011REMSYN088AAXX  14121 01245 11782 30901 10134 20032 39586 40294 57005 6//// 70110 83200 333 4////;
0226012450999992008091418004+62600+009667FM-12+060699999V0200901N001010150019N0400001N1+01141+00531103001ADDAA112000091AY121061AY201061GF106991061081012501001001KA1120M+01481MA1999999095871MD1210041+9999MW1031REMSYN094AAXX  14181 01245 11682 60901 10114 20053 39587 40300 52004 60002 70320 86800 333 10148 4////;EQDQ01  00002PRCP12
0259012450999992008091506004+62600+009667FM-12+060699999V0209999C000012200019N0400001N1+00461+00211103331ADDAA112000091AA224000091AY121061AY221061GF105991031001017501031011KA1120N+00441MA1999999096011MD1210041+9999MW1021REMSYN100AAXX  15061 01245 11782 50000 10046 20021 39601 40333 52004 60002 70222 83031 333 20044 4//// 70000;EQDQ01  00002PRCP24Q02  00002PRCP12
0171012450999992008091509004+62600+009667FM-12+060699999V0209999C000012200019N0400001N1+00941+00341103191ADDAY121031AY201031GF103991011011012501001011MA1999999096001MD1010011+9999MW1011REMSYN082AAXX  15091 01245 41682 30000 10094 20034 39600 40319 50001 70120 81101 333 4////;
0177012450999992008091512004+62600+009667FM-12+060699999V0201201N001012200019N0400001N1+01241-00011103011ADDAY121061AY201061GF104991041011012501001001MA1999999095901MD1710091+9999MW1021REMSYN088AAXX  15121 01245 11682 41201 10124 21001 39590 40301 57009 6//// 70220 84100 333 4////;
0290012450999992008091518004+62600+009667FM-12+060699999V0209999C000019999999N0400001N1+01001-00021999999ADDAA112000091AY121061AY201061GF105991001001999999001081KA1120M+01351MA1999999999999MD1710051+9999MW1021REMSYN094AAXX  15181 01245 11982 50000 10100 21002 38577 49219 57005 60002 70220 80008 333 10135 4////;EQDQ01+085773APOSP Q02+092193APOSLPQ03  00002PRCP12Q04 085773APOSP Q05 092193APOSLP
0259012450999992008091606004+62600+009667FM-12+060699999V0209999C000012200019N0400001N1+00201-00061103101ADDAA112000091AA224000091AY121061AY201061GF103991001001999999001051KA1120N+00181MA1999999095721MD1710031+9999MW1031REMSYN100AAXX  16061 01245 11982 30000 10020 21006 39572 40310 57003 60002 70320 80005 333 20018 4//// 70000;EQDQ01  00002PRCP24Q02  00002PRCP12
0171012450999992008091609004+62600+009667FM-12+060699999V0209999C000012200019N0400001N1+00651+00121102961ADDAY101031AY201031GF103991011011012501001081MA1999999095711MD1710021+9999MW1021REMSYN082AAXX  16091 01245 41682 30000 10065 20012 39571 40296 57002 70200 81108 333 4////;
0177012450999992008091612004+62600+009667FM-12+060699999V0209999C000012200019N0400001N1+01121+00201102701ADDAY101061AY201061GF103991011011012501001081MA1999999095571MD1710131+9999MW1021REMSYN088AAXX  16121 01245 11682 30000 10112 20020 39557 40270 57013 6//// 70200 81108 333 4////;
0226012450999992008091618004+62600+009667FM-12+060699999V0209999C000010120019N0400001N1+00991+00281102691ADDAA112000091AY121061AY201061GF106991061051012501001001KA1120M+01251MA1999999095531MD1310021+9999MW1031REMSYN094AAXX  16181 01245 11682 60000 10099 20028 39553 40269 53002 60002 70320 86500 333 10125 4////;EQDQ01  00002PRCP12
0259012450999992008091706004+62600+009667FM-12+060699999V0209999C000012200019N0400001N1+00141-00021102961ADDAA112000091AA224000091AY121061AY201061GF104991031011012501001011KA1120N+00081MA1999999095571MD1410001+9999MW1021REMSYN100AAXX  17061 01245 11682 40000 10014 21002 39557 40296 54001 60002 70220 83101 333 20008 4//// 70000;EQDQ01  00002PRCP24Q02  00002PRCP12
0171012450999992008091709004+62600+009667FM-12+060699999V0209999C000010300019N0400001N1+00721+00171102771ADDAY121031AY201031GF106991031011012501031001MA1999999095551MD1810031+9999MW1011REMSYN082AAXX  17091 01245 41682 60000 10072 20017 39555 40277 58003 70120 83130 333 4////;
0177012450999992008091712004+62600+009667FM-12+060699999V0201201N001010120019N0400001N1+01141+00221102541ADDAY121061AY201061GF105991051041012501001001MA1999999095431MD1710111+9999MW1011REMSYN088AAXX  17121 01245 11682 51201 10114 20022 39543 40254 57011 6//// 70120 85400 333 4////;
0226012450999992008091718004+62600+009667FM-12+060699999V0200601N001012200019N0400001N1+00961-00031102431ADDAA112000091AY121061AY201061GF103991031001017501031001KA1120M+01231MA1999999095281MD1610051+9999MW1011REMSYN094AAXX  17181 01245 11782 30601 10096 21003 39528 40243 56005 60002 70120 83030 333 10123 4////;EQDQ01  00002PRCP12
0259012450999992008091806004+62600+009667FM-12+060699999V0203201N001012200019N0400001N1+00391-00031102371ADDAA112000091AA224000091AY101061AY201061GF102991001001999999001081KA1120N+00361MA1999999095101MD1710081+9999MW1011REMSYN100AAXX  18061 01245 11982 23201 10039 21003 39510 40237 57008 60002 70100 80008 333 20036 4//// 70000;EQDQ01  00002PRCP24Q02  00002PRCP12
0171012450999992008091809004+62600+009667FM-12+060699999V0203301N001019999999N0400001N1+00911+00201102191ADDAY121031AY201031GF105991001001999999001081MA1999999095061MD1810051+9999MW1031REMSYN082AAXX  18091 01245 41982 53301 10091 20020 39506 40219 58005 70320 80008 333 4////;
0177012450999992008091812004+62600+009667FM-12+060699999V0202301N001010300019N0400001N1+01121+00031102011ADDAY121061AY201061GF106991011011012501051001MA1999999094931MD1710111+9999MW1031REMSYN088AAXX  18121 01245 11682 62301 10112 20003 39493 40201 57011 6//// 70320 81150 333 4////;
0226012450999992008091818004+62600+009667FM-12+060699999V0202301N001012200019N0400001N1+00921+00071101951ADDAA112000091AY121061AY201061GF104991021001022501031011KA1120M+01281MA1999999094831MD1710011+9999MW1011REMSYN094AAXX  18181 01245 11882 42301 10092 20007 39483 40195 57001 60002 70120 82031 333 10128 4////;EQDQ01  00002PRCP12
0259012450999992008091906004+62600+009667FM-12+060699999V0209999C000010210019N0300001N1+00731+00441101881ADDAA112000091AA224000091AY161061AY221061GF108991081001022501021999KA1120N+00601MA1999999094721MD1410001+9999MW1021REMSYN100AAXX  19061 01245 11880 80000 10073 20044 39472 40188 54001 69912 70262 8802/ 333 20060 4//// 70001;EQDQ01  00002PRCP24Q02  00002PRCP12
0171012450999992008091909004+62600+009667FM-12+060699999V0209999C000010150019N0300001N1+00851+00381101871ADDAY161031AY221031GF108991081001017501021999MA1999999094751MD1210011+9999MW1021REMSYN082AAXX  19091 01245 41780 80000 10085 20038 39475 40187 52001 70262 8802/ 333 4////;
0177012450999992008091912004+62600+009667FM-12+060699999V0202701N001010120019N0300001N1+01131+00411101791ADDAY161061AY221061GF107991071051012501001001MA1999999094731MD1710011+9999MW1011REMSYN088AAXX  19121 01245 11680 72701 10113 20041 39473 40179 57001 6//// 70162 87500 333 4////;
0226012450999992008091918004+62600+009667FM-12+060699999V0203601N001012200019N0400001N1+01001+00441102001ADDAA112000091AY121061AY201061GF103991031051012501001001KA1120M+01241MA1999999094901MD1210091+9999MW1011REMSYN094AAXX  19181 01245 11682 33601 10100 20044 39490 40200 52009 69912 70120 83500 333 10124 4////;EQDQ01  00002PRCP12
0224012450999992008092006004+62600+009667FM-12+060699999V0209999C000012200019N0400001N1+00431+00231102881ADDAA112001091AA224001091AY161061AY221061GF104991031051012501011001KA1120N+00401MA1999999095571MD1110151+9999MW1021REMSYN100AAXX  20061 01245 11682 40000 10043 20023 39557 40288 51015 60012 70262 83510 333 20040 4//// 70011;
0171012450999992008092009004+62600+009667FM-12+060699999V0209999C000010300019N0400001N1+00791+00281102861ADDAY121031AY201031GF107991011071012501011999MA1999999095651MD1310081+9999MW1031REMSYN082AAXX  20091 01245 41682 70000 10079 20028 39565 40286 53008 70320 8171/ 333 4////;
0177012450999992008092012004+62600+009667FM-12+060699999V0209999C000010210019N0400001N1+01011+00201102701ADDAY121061AY201061GF107991071001022501011999MA1999999095561MD1810091+9999MW1011REMSYN088AAXX  20121 01245 11882 70000 10101 20020 39556 40270 58009 6//// 70120 8701/ 333 4////;
0226012450999992008092018004+62600+009667FM-12+060699999V0203301N001010210019N0400001N1+01041+00201102601ADDAA112000091AY121061AY221061GF107991071001022501011999KA1120M+01261MA1999999095471MD1310071+9999MW1021REMSYN094AAXX  20181 01245 11882 73301 10104 20020 39547 40260 53007 60002 70222 8701/ 333 10126 4////;EQDQ01  00002PRCP12
0259012450999992008092106004+62600+009667FM-12+060699999V0209999C000012200019N0400001N1+00371+00011102781ADDAA112000091AA224000091AY121061AY201061GF102991001001999999001021KA1120N+00371MA1999999095471MD1710031+9999MW1011REMSYN100AAXX  21061 01245 11982 20000 10037 20001 39547 40278 57003 60002 70120 80002 333 20037 4//// 70000;EQDQ01  00002PRCP24Q02  00002PRCP12
0171012450999992008092109004+62600+009667FM-12+060699999V0209999C000012200019N0400001N1+00941+00111102581ADDAY101031AY201031GF101991001001999999001021MA1999999095421MD1810031+9999MW1011REMSYN082AAXX  21091 01245 41982 10000 10094 20011 39542 40258 58003 70100 80002 333 4////;
0177012450999992008092112004+62600+009667FM-12+060699999V0209999C000012200019N0400001N1+01561+00021102221ADDAY101061AY201061GF101991001001999999001011MA1999999095231MD1710171+9999MW1021REMSYN088AAXX  21121 01245 11982 10000 10156 20002 39523 40222 57017 6//// 70200 80001 333 4////;
0226012450999992008092118004+62600+009667FM-12+060699999V0202301N001012200019N0400001N1+01321-00011102251ADDAA112000091AY101061AY201061GF104991041001022501041001KA1120M+01831MA1999999095211MD1310071+9999MW1031REMSYN094AAXX  21181 01245 11882 42301 10132 21001 39521 40225 53007 60002 70300 84040 333 10183 4////;EQDQ01  00002PRCP12
0243012450999992008092206004+62600+009667FM-12+060699999V0209999C000010210019N0400001N1+00661+00521102601ADDAA112000091AA224000391AY161061AY221061GF108991081001022501021999KA1120N+00661MA1999999095371MD1310031+9999MW1021REMSYN100AAXX  22061 01245 11882 80000 10066 20052 39537 40260 53003 69922 70262 8802/ 333 20066 4//// 70002;EQDQ01  00002PRCP12
0171012450999992008092209004+62600+009667FM-12+060699999V0209999C000010210019N0400001N1+00881+00631102611ADDAY121031AY221031GF107991071001022501021999MA1999999095431MD1210061+9999MW1011REMSYN082AAXX  22091 01245 41882 70000 10088 20063 39543 40261 52006 70122 8702/ 333 4////;
0177012450999992008092212004+62600+009667FM-12+060699999V0209999C000010075019N0300001N1+01101+00621102541ADDAY121061AY221061GF107991051051008001031001MA1999999095421MD1710021+9999MW1011REMSYN088AAXX  22121 01245 11580 70000 10110 20062 39542 40254 57002 6//// 70122 85530 333 4////;
0226012450999992008092218004+62600+009667FM-12+060699999V0209999C000010021019N0100001N1+00961-00261102631ADDAA112000091AY121061AY221061GF108991081061002501999999KA1120M+01171MA1999999095471MD1310071+9999MW1031REMSYN094AAXX  22181 01245 11360 80000 10096 21026 39547 40263 53007 60002 70322 886// 333 10117 4////;EQDQ01  00002PRCP12
0202012450999992008092306004+62600+009667FM-12+060699999V0209999C000012200019N0400001N1+00381+00221102951ADDAA112001091AA224001091GF103991031001022501031001KA1120N+00361MA1999999095621MD1310061+9999REMSYN100AAXX  23061 01245 11882 30000 10038 20022 39562 40295 53006 69992 7//61 83030 333 20036 4//// 70009;
0171012450999992008092309004+62600+009667FM-12+060699999V0209999C000012200019N0400001N1+00821+00441102821ADDAY111031AY201031GF101991001001999999001091MA1999999095621MD1810011+9999MW1011REMSYN082AAXX  23091 01245 41982 10000 10082 20044 39562 40282 58001 70110 80009 333 4////;
0177012450999992008092312004+62600+009667FM-12+060699999V0201001N001012200019N0400001N1+01211+00391102691ADDAY101061AY201061GF101991011021012501001091MA1999999095601MD1410001+9999MW1031REMSYN088AAXX  23121 01245 11682 11001 10121 20039 39560 40269 54001 6//// 70300 81209 333 4////;
0226012450999992008092318004+62600+009667FM-12+060699999V0209999C000012200019N0400001N1+00921+00381102901ADDAA112000091AY101061AY201061GF104991001001999999001011KA1120M+01461MA1999999095721MD1310101+9999MW1031REMSYN094AAXX  23181 01245 11982 40000 10092 20038 39572 40290 53010 60002 70300 80001 333 10146 4////;EQDQ01  00002PRCP12
0259012450999992008092406004+62600+009667FM-12+060699999V0209999C000012200019N0400001N1+00231+00081103321ADDAA112000091AA224000091AY101061AY201061GF103991011061008001011011KA1120N+00231MA1999999095931MD1210231+9999MW1011REMSYN100AAXX  24061 01245 11582 30000 10023 20008 39593 40332 52023 60002 70100 81611 333 20023 4//// 70000;EQDQ01  00002PRCP24Q02  00002PRCP12
0171012450999992008092409004+62600+009667FM-12+060699999V0209999C000012200019N0400001N1+00731+00351103241ADDAY101031AY201031GF101991011001022501041001MA1999999095981MD1210041+9999MW1011REMSYN082AAXX  24091 01245 41882 10000 10073 20035 39598 40324 52004 70100 81040 333 4////;
0177012450999992008092412004+62600+009667FM-12+060699999V0209999C000019999999N0400001N1+01261+00511103121ADDAY111061AY201061GF105991001001999999001051MA1999999096011MD1210031+9999MW1031REMSYN088AAXX  24121 01245 11982 50000 10126 20051 39601 40312 52003 6//// 70310 80005 333 4////;
0226012450999992008092418004+62600+009667FM-12+060699999V0201801N001012200019N0400001N1+01031+00511103311ADDAA112000091AY111061AY201061GF103991001001999999001011KA1120M+01521MA1999999096121MD1310131+9999MW1011REMSYN094AAXX  24181 01245 11982 31801 10103 20051 39612 40331 53013 60002 70110 80001 333 10152 4////;EQDQ01  00002PRCP12
0269012450999992008092506004+62600+009667FM-12+060699999V0209999C000012200019N0050001N1+00091+00001103641ADDAA112000091AA224000091AY101061AY201061GA1001+999999999GF100991001001999999001001KA1120N+00071MA1999999096201MD1710031+9999MW1401REMSYN094AAXX  25061 01245 11950 00000 10009 20000 39620 40364 57003 60002 74000 333 20007 4//// 70000;EQDQ01  00002PRCP24Q02  00002PRCP12
0149012450999992008092509004+62600+009667FM-12+060699999V0209999C000012200019N0400001N1+00651+00331103481ADDGF102991001001999999001081MA1999999096181MD1010011+9999REMSYN082AAXX  25091 01245 41982 20000 10065 20033 39618 40348 50001 7//40 80008 333 4////;
0177012450999992008092512004+62600+009667FM-12+060699999V0202201N001012200019N0400001N1+01301+00451103201ADDAY141061AY201061GF103991011051012501031081MA1999999096081MD1510101+9999MW1031REMSYN088AAXX  25121 01245 11682 32201 10130 20045 39608 40320 55010 6//// 70340 81538 333 4////;
0226012450999992008092518004+62600+009667FM-12+060699999V0209999C000010120019N0400001N1+00971+00591103251ADDAA112000091AY121061AY201061GF108991081051012501999999KA1120M+01461MA1999999096061MD1310071+9999MW1031REMSYN094AAXX  25181 01245 11682 80000 10097 20059 39606 40325 53007 60002 70320 885// 333 10146 4////;EQDQ01  00002PRCP12
0259012450999992008092606004+62600+009667FM-12+060699999V0209999C000010120019N0300001N1+00561+00441103211ADDAA112000091AA224000091AY161061AY241061GF107991071051012501999999KA1120N+00491MA1999999095921MD1510061+9999MW1021REMSYN100AAXX  26061 01245 11680 70000 10056 20044 39592 40321 55006 69902 70264 875// 333 20049 4//// 70000;EQDQ01  00002PRCP24Q02  00002PRCP12
0171012450999992008092609004+62600+009667FM-12+060699999V0209999C000010120019N0250001N1+00811+00571103201ADDAY121031AY221031GF107991071051012501999999MA1999999095971MD1310051+9999MW1021REMSYN082AAXX  26091 01245 41675 70000 10081 20057 39597 40320 53005 70222 875// 333 4////;
0177012450999992008092612004+62600+009667FM-12+060699999V0200901N001010075019N0300001N1+01021+00621102991ADDAY121061AY221061GF106991061051008001999999MA1999999095821MD1810131+9999MW1011REMSYN088AAXX  26121 01245 11580 60901 10102 20062 39582 40299 58013 6//// 70122 865// 333 4////;
0207012450999992008092618004+62600+009667FM-12+060699999V0200301N001010120019N0400001N1+01021+00641102601ADDAA112000021AY161061AY221061GF108991081051012501999999KA1120M+01381MA1999999095471MD1810181+9999MW1601REMSYN094AAXX  26181 01245 11682 80301 10102 20064 39547 40260 58018 69902 76062 885// 333 10138 4////;
0224012450999992008092706004+62600+009667FM-12+060699999V0203001N001010120019N0400001N1+01141+00171101391ADDAA112000021AA224000021AY161061AY221061GF106991051051012501021001KA1120N+01001MA1999999094371MD1810281+9999MW1021REMSYN100AAXX  27061 01245 11682 63001 10114 20017 39437 40139 58028 69902 70262 85520 333 20100 4//// 70000;
0171012450999992008092709004+62600+009667FM-12+060699999V0202101N010012200019N0400001N1+01271+00171101001ADDAY121031AY201031GF104991021011017501041041MA1999999094031MD1810331+9999MW1011REMSYN082AAXX  27091 01245 41782 42110 10127 20017 39403 40100 58033 70120 82144 333 4////;
0177012450999992008092712004+62600+009667FM-12+060699999V0202301N012010150019N0400001N1+01451+00241100501ADDAY121061AY201061GF105991051021017501001001MA1999999093611MD1810421+9999MW1031REMSYN088AAXX  27121 01245 11782 52312 10145 20024 39361 40050 58042 6//// 70320 85200 333 4////;
0207012450999992008092718004+62600+009667FM-12+060699999V0209999C000010120019N0250001N1+00511+00331100781ADDAA112003091AY181061AY221061GF107991071081008001999999KA1120M+01591MA1999999093651MD1810081+9999MW1901REMSYN094AAXX  27181 01245 11575 70000 10051 20033 39365 40078 58008 60032 79082 878// 333 10159 4////;
0224012450999992008092806004+62600+009667FM-12+060699999V0202501N010010150019N0300001N1+00231-00301100911ADDAA112009991AA224012291AY171061AY221061GF107991061051017501021999KA1120N+00101MA1999999093701MD1310041+9999MW1021REMSYN100AAXX  28061 01245 11780 72510 10023 21030 39370 40091 53004 60102 70272 8652/ 333 20010 4//// 70121;
0171012450999992008092809004+62600+009667FM-12+060699999V0202701N007010075019N0200001N1+00321+00011100991ADDAY171031AY221031GF107991071051008001999999MA1999999093801MD1310111+9999MW1021REMSYN082AAXX  28091 01245 41570 72707 10032 20001 39380 40099 53011 70272 875// 333 4////;
0177012450999992008092812004+62600+009667FM-12+060699999V0202701N005010120019N0250001N1+00411-00011100981ADDAY121061AY221061GF107991071051012501999999MA1999999093811MD1510011+9999MW1021REMSYN088AAXX  28121 01245 11675 72705 10041 21001 39381 40098 55001 6//// 70222 875// 333 4////;
0207012450999992008092818004+62600+009667FM-12+060699999V0209999C000010120019N0300001N1+00271+00081100921ADDAA112001091AY151061AY221061GF107991071051012501999999KA1120M+00491MA1999999093721MD1710131+9999MW1021REMSYN094AAXX  28181 01245 11680 70000 10027 20008 39372 40092 57013 60012 70252 875// 333 10049 4////;
0224012450999992008092906004+62600+009667FM-12+060699999V0209999C000010075019N0100001N1+00241+00081100411ADDAA112003091AA224004391AY161061AY221061GF107991071051008001999999KA1120N+00101MA1999999093231MD1710151+9999MW1401REMSYN100AAXX  29061 01245 11560 70000 10024 20008 39323 40041 57015 60032 74062 875// 333 20010 4//// 70042;
0226012450999992008092918004+62600+009667FM-12+060699999V0209999C000010210019N0300001N1+00331-00181100061ADDAA112000091AY121061AY221061GF108991081001022501071999KA1120M+00731MA1999999092931MD1710131+9999MW1021REMSYN094AAXX  29181 01245 11880 80000 10033 21018 39293 40006 57013 60002 70222 8807/ 333 10073 4////;EQDQ01  00002PRCP12
0259012450999992008093006004+62600+009667FM-12+060699999V0209999C000012200019N0400001N1+00231-00341099501ADDAA112000091AA224000091AY121061AY201061GF103991031001022501011001KA1120N-00071MA1999999092381MD1710111+9999MW1031REMSYN100AAXX  30061 01245 11882 30000 10023 21034 39238 49950 57011 60002 70320 83010 333 21007 4//// 70000;EQDQ01  00002PRCP24Q02  00002PRCP12
0171012450999992008093009004+62600+009667FM-12+060699999V0209999C000012200019N0400001N1+00521-00121099321ADDAY101031AY201031GF103991031001022501041001MA1999999092301MD1710101+9999MW1021REMSYN082AAXX  30091 01245 41882 30000 10052 21012 39230 49932 57010 70200 83040 333 4////;
0177012450999992008093012004+62600+009667FM-12+060699999V0202301N001010300019N0400001N1+00801-00101099171ADDAY121061AY201061GF105991031011012501041001MA1999999092221MD1810081+9999MW1031REMSYN088AAXX  30121 01245 11682 52301 10080 21010 39222 49917 58008 6//// 70320 83140 333 4////;
0226012450999992008093018004+62600+009667FM-12+060699999V0203201N001010300019N0400001N1+00601-00071099031ADDAA112000091AY121061AY221061GF106991041041012501011001KA1120M+00851MA1999999092051MD1710081+9999MW1031REMSYN094AAXX  30181 01245 11682 63201 10060 21007 39205 49903 57008 60002 70322 84410 333 10085 4////;EQDQ01  00002PRCP12
0259012450999992008100106004+62600+009667FM-12+060699999V0200901N003010075019N0200001N1+00421+00041098671ADDAA112000091AA224000091AY121061AY201061GF107991071051008001999999KA1120N+00241MA1999999091671MD1710101+9999MW1031REMSYN100AAXX  01061 01245 11570 70903 10042 20004 39167 49867 57010 60002 70320 875// 333 20024 4//// 70000;EQDQ01  00002PRCP24Q02  00002PRCP12
0171012450999992008100109004+62600+009667FM-12+060699999V0200601N003010042019N0200001N1+00531+00141098641ADDAY161031AY221031GF107991071051004501001001MA1999999091671MD1710011+9999MW1011REMSYN082AAXX  01091 01245 41470 70603 10053 20014 39167 49864 57001 70162 87500 333 4////;
0177012450999992008100112004+62600+009667FM-12+060699999V0200901N003010075019N0200001N1+00641+00131098581ADDAY161061AY221061GF107991061051008001041001MA1999999091631MD1710021+9999MW1011REMSYN088AAXX  01121 01245 11570 70903 10064 20013 39163 49858 57002 6//// 70162 86540 333 4////;
0207012450999992008100118004+62600+009667FM-12+060699999V0201201N001010042019N0200001N1+00421+00271098591ADDAA112000391AY161061AY221061GF108991081051004501999999KA1120M+00751MA1999999091581MD1210021+9999MW1611REMSYN094AAXX  01181 01245 11470 81201 10042 20027 39158 49859 52002 69932 76162 885// 333 10075 4////;
0266012450999992008100206004+62600+009667FM-12+060699999V0209999C000010021019N0050001N1+00091-00021098681ADDAA112009991AA224010491AJ199993999999999AY181061AY271061GF108991081031002501999999IA1289KA1120N+00051MA1999999091601MD1210041+9999MW1851REMSYN100AAXX  02061 01245 11350 80000 10009 21002 39160 49868 52004 60102 78587 883// 333 20005 44997 70104;EQDQ01  09972SNDP  
0171012450999992008100209004+62600+009667FM-12+060699999V0209999C000010021019N0050001N1+00061-00021098821ADDAY181031AY271031GF108991081061002501999999MA1999999091721MD1210121+9999MW1711REMSYN082AAXX  02091 01245 41350 80000 10006 21002 39172 49882 52012 77187 886// 333 4////;
0177012450999992008100212004+62600+009667FM-12+060699999V0209999C000010021019N0050001N1+00141+00051098921ADDAY171061AY261061GF108991081061002501999999MA1999999091821MD1210111+9999MW1511REMSYN088AAXX  02121 01245 11350 80000 10014 20005 39182 49892 52011 6//// 75176 886// 333 4////;
0207012450999992008100218004+62600+009667FM-12+060699999V0209999C000010042019N0100001N1+00251+00131099141ADDAA112014091AY161061AY251061GF108991081061004501999999KA1120M+00341MA1999999092061MD1210121+9999MW1611REMSYN094AAXX  02181 01245 11460 80000 10025 20013 39206 49914 52012 60142 76165 886// 333 10034 4////;
0224012450999992008100306004+62600+009667FM-12+060699999V0200901N001010300019N0300001N1+00321-00011099531ADDAA112003091AA224016891AY161061AY221061GF108991021071008001071999KA1120N+00261MA1999999092431MD1210061+9999MW1011REMSYN100AAXX  03061 01245 11580 80901 10032 21001 39243 49953 52006 60032 70162 8277/ 333 20026 4//// 70167;
0171012450999992008100309004+62600+009667FM-12+060699999V0200901N003010075019N0300001N1+00421-00041099641ADDAY121031AY221031GF106991051051008001001011MA1999999092571MD1210141+9999MW1011REMSYN082AAXX  03091 01245 41580 60903 10042 21004 39257 49964 52014 70122 85501 333 4////;
0177012450999992008100312004+62600+009667FM-12+060699999V0200501N001010300019N0400001N1+00601-00091099651ADDAY121061AY221061GF106991041051012501011001MA1999999092621MD1210051+9999MW1021REMSYN088AAXX  03121 01245 11682 60501 10060 21009 39262 49965 52005 6//// 70222 84510 333 4////;
0226012450999992008100318004+62600+009667FM-12+060699999V0203601N001010150019N0400001N1+00561-00221099721ADDAA112000091AY121061AY221061GF106991061001017501071001KA1120M+00661MA1999999092671MD1210021+9999MW1021REMSYN094AAXX  03181 01245 11782 63601 10056 21022 39267 49972 52002 60002 70222 86070 333 10066 4////;EQDQ01  00002PRCP12
0259012450999992008100406004+62600+009667FM-12+060699999V0209999C000010042019N0200001N1+00251-00091099841ADDAA112000091AA224000091AY161061AY221061GF108991081001004501021999KA1120N+00241MA1999999092711MD1210081+9999MW1021REMSYN100AAXX  04061 01245 11470 80000 10025 21009 39271 49984 52008 69912 70262 8802/ 333 20024 4//// 70001;EQDQ01  00002PRCP24Q02  00002PRCP12
0191012450999992008100409004+62600+009667FM-12+060699999V0209999C000010021019N0100001N1+00241+00051999999ADDAY171031AY261031GF108991081001002501021999MD1210021+9999MW1611REMSYN082AAXX  04091 01245 41360 80000 10024 20005 39372 40094 52002 76176 8802/ 333 4////;EQDQ01+093723APOSP Q02+100943APOSLP
0177012450999992008100412004+62600+009667FM-12+060699999V0201501N001010075019N0100001N1+00371+00161099681ADDAY161061AY221061GF107991071001008001021999MA1999999092581MD1810141+9999MW1601REMSYN088AAXX  04121 01245 11560 71501 10037 20016 39258 49968 58014 6//// 76062 8702/ 333 4////;
0207012450999992008100418004+62600+009667FM-12+060699999V0209999C000010021019N0100001N1+00081-00191099261ADDAA112003091AY171061AY261061GF108991081061002501999999KA1120M+00431MA1999999092121MD1710191+9999MW1711REMSYN094AAXX  04181 01245 11360 80000 10008 21019 39212 49926 57019 60032 77176 886// 333 10043 4////;
0266012450999992008100506004+62600+009667FM-12+060699999V0209999C000010012019N0050001N1+00031-00081097691ADDAA112004191AA224007191AJ199993999999999AY171061AY211061GF108991081061001501999999IA1259KA1120N+00031MA1999999090661MD1810421+9999MW1711REMSYN100AAXX  05061 01245 11250 80000 10003 21008 39066 49769 58042 60042 77171 886// 333 20003 41997 70070;EQDQ01  09972SNDP  
0171012450999992008100509004+62600+009667FM-12+060699999V0202701N005010021019N0100001N1+00021-00091097821ADDAY171031AY271031GF108991081061002501999999MA1999999090771MD1310051+9999MW1711REMSYN082AAXX  05091 01245 41360 82705 10002 21009 39077 49782 53005 77177 886// 333 4////;
0177012450999992008100512004+62600+009667FM-12+060699999V0202301N003010075019N0300001N1+00201-00431097961ADDAY171061AY221061GF106991061061008001999999MA1999999090961MD1110251+9999MW1011REMSYN088AAXX  05121 01245 11580 62303 10020 21043 39096 49796 51025 6//// 70172 866// 333 4////;
0207012450999992008100518004+62600+009667FM-12+060699999V0203001N001010042019N0100001N1+00151-00091098311ADDAA112003091AY171061AY221061GF107991061071004501021999KA1120M+00361MA1999999091271MD1310211+9999MW1711REMSYN094AAXX  05181 01245 11460 73001 10015 21009 39127 49831 53021 60032 77172 8672/ 333 10036 4////;
0224012450999992008100606004+62600+009667FM-12+060699999V0203001N005010042019N0100001N1+00281+00041099761ADDAA112007191AA224009491AY191061AY281061GF107991071031004501999999KA1120N+00091MA1999999092651MD1310431+9999MW1801REMSYN100AAXX  06061 01245 11460 73005 10028 20004 39265 49976 53043 60072 78098 873// 333 20009 4//// 70095;
0171012450999992008100609004+62600+009667FM-12+060699999V0203001N005010075019N0200001N1+00481+00151100161ADDAY181031AY221031GF106991061021008001001001MA1999999093071MD1310401+9999MW1011REMSYN082AAXX  06091 01245 41570 63005 10048 20015 39307 40016 53040 70182 86200 333 4////;
0177012450999992008100612004+62600+009667FM-12+060699999V0202701N007010120019N0300001N1+00621-00071100451ADDAY181061AY221061GF105991051021012501001001MA1999999093371MD1310321+9999MW1011REMSYN088AAXX  06121 01245 11680 52707 10062 21007 39337 40045 53032 6//// 70182 85200 333 4////;
0207012450999992008100618004+62600+009667FM-12+060699999V0203001N005010120019N0300001N1+00251-00241101111ADDAA112000021AY121061AY211061GF105991051021012501001001KA1120M+00721MA1999999093881MD1310151+9999MW1031REMSYN094AAXX  06181 01245 11680 53005 10025 21024 39388 40111 53015 69912 70321 85200 333 10072 4////;
0243012450999992008100706004+62600+009667FM-12+060699999V0209999C000012200019N0400001N1-00121-00511101631ADDAA112000091AA224000021AY121061AY201061GF104991041001022501031001KA1120N-00181MA1999999094271MD1310091+9999MW1031REMSYN100AAXX  07061 01245 11882 40000 11012 21051 39427 40163 53009 60002 70320 84030 333 21018 4//// 70001;EQDQ01  00002PRCP12
0171012450999992008100709004+62600+009667FM-12+060699999V0209999C000010210019N0400001N1+00031-00241101631ADDAY121031AY201031GF106991061001022501071001MA1999999094321MD1310031+9999MW1031REMSYN082AAXX  07091 01245 41882 60000 10003 21024 39432 40163 53003 70320 86070 333 4////;
0197012450999992008100712004+62600+009667FM-12+060699999V0201201N003010210019N0400001N1+00471-00451999999ADDAY121061AY201061GF107991071001022501011999MD1810051+9999MW1031REMSYN088AAXX  07121 01245 11882 71203 10047 21045 38427 49071 58005 6//// 70320 8701/ 333 4////;EQDQ01+084273APOSP Q02+090713APOSLP
0226012450999992008100718004+62600+009667FM-12+060699999V0209999C000010210019N0400001N1+00281-00461101391ADDAA112000091AY121061AY201061GF107991071001022501011011KA1120M+00651MA1999999094161MD1710071+9999MW1021REMSYN094AAXX  07181 01245 11882 70000 10028 21046 39416 40139 57007 60002 70220 87011 333 10065 4////;EQDQ01  00002PRCP12
0259012450999992008100806004+62600+009667FM-12+060699999V0203301N003010210019N0400001N1+00741-00101100931ADDAA112000091AA224000091AY121061AY221061GF107991071001022501071999KA1120N+00211MA1999999093851MD1510031+9999MW1021REMSYN100AAXX  08061 01245 11882 73303 10074 21010 39385 40093 55003 60002 70222 8707/ 333 20021 4//// 70000;EQDQ01  00002PRCP24Q02  00002PRCP12
0171012450999992008100809004+62600+009667FM-12+060699999V0202301N005010300019N0300001N1+00941+00131100971ADDAY161031AY221031GF108991031071012501021999MA1999999093921MD1310071+9999MW1031REMSYN082AAXX  08091 01245 41680 82305 10094 20013 39392 40097 53007 70362 8372/ 333 4////;
0177012450999992008100812004+62600+009667FM-12+060699999V0202301N005010300019N0300001N1+00951+00241100991ADDAY161061AY221061GF108991031071012501021999MA1999999093951MD1310031+9999MW1021REMSYN088AAXX  08121 01245 11680 82305 10095 20024 39395 40099 53003 6//// 70262 8372/ 333 4////;
0226012450999992008100818004+62600+009667FM-12+060699999V0202401N003012200019N0300001N1+00931+00331101001ADDAA112000091AY121061AY201061GF104991041041012501001001KA1120M+01061MA1999999093961MD1310061+9999MW1011REMSYN094AAXX  08181 01245 11680 42403 10093 20033 39396 40100 53006 69912 70120 84400 333 10106 4////;EQDQ01  00002PRCP12
0259012450999992008100906004+62600+009667FM-12+060699999V0209999C000010042019N0100001N1+00641+00421101661ADDAA112000091AA224000091AY161061AY221061GF107991071051004501999999KA1120N+00641MA1999999094501MD1310151+9999MW1011REMSYN100AAXX  09061 01245 11460 70000 10064 20042 39450 40166 53015 69902 70162 875// 333 20064 4//// 70001;EQDQ01  00002PRCP24Q02  00002PRCP12
0171012450999992008100909004+62600+009667FM-12+060699999V0209999C000012200019N0400001N1+00731+00431101701ADDAY121031AY201031GF103991031011012501001001MA1999999094561MD1110131+9999MW1011REMSYN082AAXX  09091 01245 41682 30000 10073 20043 39456 40170 51013 70120 83100 333 4////;
0177012450999992008100912004+62600+009667FM-12+060699999V0202301N001012200019N0400001N1+00921+00121101891ADDAY121061AY201061GF104991041011012501001001MA1999999094771MD1310111+9999MW1031REMSYN088AAXX  09121 01245 11682 42301 10092 20012 39477 40189 53011 6//// 70320 84100 333 4////;
0226012450999992008100918004+62600+009667FM-12+060699999V0203601N001010300019N0400001N1+00711-00131101951ADDAA112000091AY121061AY201061GF105991021011012501041001KA1120M+01081MA1999999094781MD1410001+9999MW1031REMSYN094AAXX  09181 01245 11682 53601 10071 21013 39478 40195 54000 60002 70320 82140 333 10108 4////;EQDQ01  00002PRCP12
0224012450999992008101006004+62600+009667FM-12+060699999V0202701N001010120019N0400001N1+00811+00241101381ADDAA112000591AA224000591AY161061AY221061GF107991071051012501999999KA1120N+00721MA1999999094271MD1610111+9999MW1011REMSYN100AAXX  10061 01245 11682 72701 10081 20024 39427 40138 56011 69952 70162 875// 333 20072 4//// 70005;
0171012450999992008101009004+62600+009667FM-12+060699999V0203601N001010300019N0400001N1+00971+00161101331ADDAY121031AY221031GF107991041051012501011999MA1999999094271MD1010011+9999MW1021REMSYN082AAXX  10091 01245 41682 73601 10097 20016 39427 40133 50001 70222 8451/ 333 4////;
0177012450999992008101012004+62600+009667FM-12+060699999V0202701N003010300019N0400001N1+01091+00251101081ADDAY121061AY221061GF108991041051012501021999MA1999999094071MD1810201+9999MW1031REMSYN088AAXX  10121 01245 11682 82703 10109 20025 39407 40108 58020 6//// 70322 8452/ 333 4////;
0207012450999992008101018004+62600+009667FM-12+060699999V0202301N005010120019N0300001N1+00921+00341100741ADDAA112000591AY161061AY221061GF107991071051012501999999KA1120M+01131MA1999999093711MD1610191+9999MW1011REMSYN094AAXX  10181 01245 11680 72305 10092 20034 39371 40074 56019 69962 70162 875// 333 10113 4////;
0243012450999992008101106004+62600+009667FM-12+060699999V0202701N001012200019N0400001N1+00671+00081100621ADDAA112000091AA224000591AY121061AY201061GF101991011011012501001001KA1120N+00611MA1999999093531MD1210051+9999MW1011REMSYN100AAXX  11061 01245 11682 12701 10067 20008 39353 40062 52005 60002 70120 81100 333 20061 4//// 70006;EQDQ01  00002PRCP12
0171012450999992008101109004+62600+009667FM-12+060699999V0202301N003012200019N0400001N1+00921-00151100541ADDAY101031AY201031GF102991011011012501001011MA1999999093521MD1810021+9999MW1031REMSYN082AAXX  11091 01245 41682 22303 10092 21015 39352 40054 58002 70300 81101 333 4////;
0177012450999992008101112004+62600+009667FM-12+060699999V0202301N003010300019N0400001N1+01141-00171100391ADDAY121061AY201061GF105991031011012501041011MA1999999093431MD1810081+9999MW1031REMSYN088AAXX  11121 01245 11682 52303 10114 21017 39343 40039 58008 6//// 70320 83141 333 4////;
0226012450999992008101118004+62600+009667FM-12+060699999V0202701N001012200019N0400001N1+00701-00091100441ADDAA112000091AY121061AY201061GF103991031011012501001001KA1120M+01201MA1999999093371MD1110111+9999MW1011REMSYN094AAXX  11181 01245 11682 32701 10070 21009 39337 40044 51011 60002 70120 83100 333 10120 4////;EQDQ01  00002PRCP12
0259012450999992008101206004+62600+009667FM-12+060699999V0202501N001010120019N0400001N1+00551-00031100611ADDAA112000091AA224000091AY121061AY201061GF106991061031012501001001KA1120N+00501MA1999999093501MD1210061+9999MW1031REMSYN100AAXX  12061 01245 11682 62501 10055 21003 39350 40061 52006 60002 70320 86300 333 20050 4//// 70000;EQDQ01  00002PRCP24Q02  00002PRCP12
0171012450999992008101209004+62600+009667FM-12+060699999V0202601N001010120019N0400001N1+00701+00171100671ADDAY121031AY201031GF106991061031012501001001MA1999999093581MD1310081+9999MW1021REMSYN082AAXX  12091 01245 41682 62601 10070 20017 39358 40067 53008 70220 86300 333 4////;
0177012450999992008101212004+62600+009667FM-12+060699999V0202401N003010120019N0300001N1+00811+00171100691ADDAY181061AY221061GF107991071031012501999999MA1999999093631MD1210051+9999MW1801REMSYN088AAXX  12121 01245 11680 72403 10081 20017 39363 40069 52005 6//// 78082 873// 333 4////;
0207012450999992008101218004+62600+009667FM-12+060699999V0209999C000010042019N0100001N1+00441+00311100971ADDAA112002091AY181061AY261061GF108991081051004501999999KA1120M+01521MA1999999093811MD1310091+9999MW1611REMSYN094AAXX  12181 01245 11460 80000 10044 20031 39381 40097 53009 60022 76186 885// 333 10152 4////;
0224012450999992008101306004+62600+009667FM-12+060699999V0202701N001010120019N0400001N1+00561-00041100061ADDAA112000391AA224002091AY161061AY221061GF107991051051012501031999KA1120N+00241MA1999999092981MD1810331+9999MW1011REMSYN100AAXX  13061 01245 11682 72701 10056 21004 39298 40006 58033 69932 70162 8553/ 333 20024 4//// 70021;
0171012450999992008101309004+62600+009667FM-12+060699999V0201801N005012200019N0400001N1+00881+00031099721ADDAY121031AY201031GF104991021051012501041001MA1999999092751MD1810231+9999MW1011REMSYN082AAXX  13091 01245 41682 41805 10088 20003 39275 49972 58023 70120 82540 333 4////;
0177012450999992008101312004+62600+009667FM-12+060699999V0202301N005010120019N0400001N1+01001+00041099621ADDAY121061AY201061GF105991051051012501001001MA1999999092681MD1810051+9999MW1031REMSYN088AAXX  13121 01245 11682 52305 10100 20004 39268 49962 58005 6//// 70320 85500 333 4////;
0226012450999992008101318004+62600+009667FM-12+060699999V0202401N005012200019N0400001N1+00781-00361099701ADDAA112000091AY121061AY211061GF104991041051012501001001KA1120M+01211MA1999999092711MD1210021+9999MW1011REMSYN094AAXX  13181 01245 11682 42405 10078 21036 39271 49970 52002 60002 70121 84500 333 10121 4////;EQDQ01  00002PRCP12
0259012450999992008101406004+62600+009667FM-12+060699999V0203201N001010120019N0400001N1+00371-00071099861ADDAA112000091AA224000091AY121061AY201061GF105991051051012501001001KA1120N+00251MA1999999092761MD1010021+9999MW1031REMSYN100AAXX  14061 01245 11682 53201 10037 21007 39276 49986 50002 60002 70320 85500 333 20025 4//// 70000;EQDQ01  00002PRCP24Q02  00002PRCP12
0171012450999992008101409004+62600+009667FM-12+060699999V0209999C000010075019N0200001N1+00351+00171100141ADDAY181031AY221031GF106991061021008001001001MA1999999093021MD1310261+9999MW1801REMSYN082AAXX  14091 01245 41570 60000 10035 20017 39302 40014 53026 78082 86200 333 4////;
0177012450999992008101412004+62600+009667FM-12+060699999V0202301N005010075019N0300001N1+00521+00261100301ADDAY181061AY221061GF106991061021008001001001MA1999999093211MD1310191+9999MW1801REMSYN088AAXX  14121 01245 11580 62305 10052 20026 39321 40030 53019 6//// 78082 86200 333 4////;
0207012450999992008101418004+62600+009667FM-12+060699999V0202801N001010075019N0300001N1+00491-00011100671ADDAA112001091AY181061AY221061GF106991061021008001001001KA1120M+00731MA1999999093531MD1310141+9999MW1021REMSYN094AAXX  14181 01245 11580 62801 10049 21001 39353 40067 53014 60012 70282 86200 333 10073 4////;
0243012450999992008101506004+62600+009667FM-12+060699999V0209999C000010210019N0400001N1+00221-00271100761ADDAA112000091AA224001091AY121061AY221061GF106991061001022501011001KA1120N+00081MA1999999093561MD1710071+9999MW1011REMSYN100AAXX  15061 01245 11882 60000 10022 21027 39356 40076 57007 60002 70122 86010 333 20008 4//// 70010;EQDQ01  00002PRCP12
0171012450999992008101509004+62600+009667FM-12+060699999V0203301N001012200019N0400001N1+00511-00291100641ADDAY121031AY201031GF104991041001022501031001MA1999999093521MD1710041+9999MW1011REMSYN082AAXX  15091 01245 41882 43301 10051 21029 39352 40064 57004 70120 84030 333 4////;
0177012450999992008101512004+62600+009667FM-12+060699999V0201301N001012200019N0400001N1+00801-00381100251ADDAY121061AY201061GF103991031001022501041001MA1999999093221MD1810271+9999MW1011REMSYN088AAXX  15121 01245 11882 31301 10080 21038 39322 40025 58027 6//// 70120 83040 333 4////;
0226012450999992008101518004+62600+009667FM-12+060699999V0203301N001010120019N0300001N1+00561-00321099871ADDAA112000091AY121061AY201061GF107991051051012501011999KA1120M+00841MA1999999092821MD1810181+9999MW1031REMSYN094AAXX  15181 01245 11680 73301 10056 21032 39282 49987 58018 60002 70320 8551/ 333 10084 4////;EQDQ01  00002PRCP12
0259012450999992008101606004+62600+009667FM-12+060699999V0203301N003010120019N0400001N1+00381-00191099291ADDAA112000091AA224000091AY121061AY221061GF107991051051012501011999KA1120N+00381MA1999999092221MD1710111+9999MW1021REMSYN100AAXX  16061 01245 11682 73303 10038 21019 39222 49929 57011 60002 70222 8551/ 333 20038 4//// 70000;EQDQ01  00002PRCP24Q02  00002PRCP12
0171012450999992008101609004+62600+009667FM-12+060699999V0203201N001012200019N0400001N1+00521-00121099241ADDAY121031AY211031GF105991031051012501001081MA1999999092221MD1710011+9999MW1031REMSYN082AAXX  16091 01245 41682 53201 10052 21012 39222 49924 57001 70321 83508 333 4////;
0177012450999992008101612004+62600+009667FM-12+060699999V0203201N001012200019N0400001N1+00741-00201099191ADDAY111061AY201061GF104991021011012501001081MA1999999092221MD1210011+9999MW1011REMSYN088AAXX  16121 01245 11682 43201 10074 21020 39222 49919 52001 6//// 70110 82108 333 4////;
0207012450999992008101618004+62600+009667FM-12+060699999V0209999C000010120019N0300001N1+00281+00091099601ADDAA112002091AY181061AY221061GF106991061011012501001001KA1120M+00771MA1999999092501MD1210221+9999MW1011REMSYN094AAXX  16181 01245 11680 60000 10028 20009 39250 49960 52022 60022 70182 86100 333 10077 4////;
0243012450999992008101706004+62600+009667FM-12+060699999V0203001N001010075019N0200001N1+00221-00051100331ADDAA112000091AA224001891AY181061AY221061GF106991061051008001001001KA1120N+00051MA1999999093161MD1210101+9999MW1011REMSYN100AAXX  17061 01245 11570 63001 10022 21005 39316 40033 52010 69912 70182 86500 333 20005 4//// 70019;EQDQ01  00002PRCP12
0171012450999992008101709004+62600+009667FM-12+060699999V0202701N003010042019N0300001N1+00351+00001100461ADDAY121031AY221031GF106991061051004501001001MA1999999093311MD1210161+9999MW1021REMSYN082AAXX  17091 01245 41480 62703 10035 20000 39331 40046 52016 70222 86500 333 4////;
0177012450999992008101712004+62600+009667FM-12+060699999V0202401N003012200019N0400001N1+00621-00011100461ADDAY111061AY201061GF104991031011012501041001MA1999999093371MD1210071+9999MW1011REMSYN088AAXX  17121 01245 11682 42403 10062 21001 39337 40046 52007 6//// 70110 83140 333 4////;
0226012450999992008101718004+62600+009667FM-12+060699999V0209999C000012200019N0300001N1+00371+00191100631ADDAA112000091AY111061AY201061GF104991041011012501001001KA1120M+00741MA1999999093471MD1210051+9999MW1021REMSYN094AAXX  17181 01245 11680 40000 10037 20019 39347 40063 52005 60002 70210 84100 333 10074 4////;EQDQ01  00002PRCP12
0259012450999992008101806004+62600+009667FM-12+060699999V0202301N003010150019N0400001N1+00491-00331100061ADDAA112000091AA224000091AY121061AY201061GF107991071001017501071999KA1120N+00151MA1999999092971MD1710241+9999MW1021REMSYN100AAXX  18061 01245 11782 72303 10049 21033 39297 40006 57024 60002 70220 8707/ 333 20015 4//// 70000;EQDQ01  00002PRCP24Q02  00002PRCP12
0171012450999992008101809004+62600+009667FM-12+060699999V0202701N005010300019N0400001N1+00681-00371099851ADDAY121031AY221031GF106991011071012501071011MA1999999092821MD1710171+9999MW1011REMSYN082AAXX  18091 01245 41682 62705 10068 21037 39282 49985 57017 70122 81771 333 4////;
0177012450999992008101812004+62600+009667FM-12+060699999V0202301N005010300019N0300001N1+00881-00211099631ADDAY121061AY221061GF106991021071008001021001MA1999999092671MD1710151+9999MW1031REMSYN088AAXX  18121 01245 11580 62305 10088 21021 39267 49963 57015 6//// 70322 82720 333 4////;
0226012450999992008101818004+62600+009667FM-12+060699999V0202301N003010300019N0300001N1+00621-00171099301ADDAA112000091AY161061AY221061GF107991041051012501021999KA1120M+00931MA1999999092301MD1610161+9999MW1031REMSYN094AAXX  18181 01245 11680 72303 10062 21017 39230 49930 56016 69912 70362 8452/ 333 10093 4////;EQDQ01  00002PRCP12
0224012450999992008101906004+62600+009667FM-12+060699999V0209999C000010075019N0300001N1+00151-00041099841ADDAA112000021AA224000391AY181061AY221061GF105991051021008001001001KA1120N+00001MA1999999092681MD1310221+9999MW1801REMSYN100AAXX  19061 01245 11580 50000 10015 21004 39268 49984 53022 69912 78082 85200 333 20000 4//// 70002;
0171012450999992008101909004+62600+009667FM-12+060699999V0202701N003012200019N0400001N1+00241-00071100101ADDAY181031AY211031GF103991031011012501001001MA1999999092951MD1210261+9999MW1011REMSYN082AAXX  19091 01245 41682 32703 10024 21007 39295 40010 52026 70181 83100 333 4////;
0177012450999992008101912004+62600+009667FM-12+060699999V0202701N005012200019N0400001N1+00631-00181100191ADDAY181061AY211061GF104991041041012501001001MA1999999093121MD1210181+9999MW1031REMSYN088AAXX  19121 01245 11682 42705 10063 21018 39312 40019 52018 6//// 70381 84400 333 4////;
0207012450999992008101918004+62600+009667FM-12+060699999V0202301N001012200019N0400001N1+00311-00501100231ADDAA112000021AY101061AY201061GF102991021001022501041001KA1120M+00741MA1999999093081MD1810101+9999MW1011REMSYN094AAXX  19181 01245 11882 22301 10031 21050 39308 40023 58010 69902 70100 82040 333 10074 4////;
0243012450999992008102006004+62600+009667FM-12+060699999V0202301N007010300019N0300001N1+00681-00061099151ADDAA112000091AA224000021AY121061AY201061GF106991041051012501011001KA1120N+00271MA1999999092171MD1810181+9999MW1031REMSYN100AAXX  20061 01245 11680 62307 10068 21006 39217 49915 58018 60002 70320 84510 333 20027 4//// 70000;EQDQ01  00002PRCP12
0171012450999992008102009004+62600+009667FM-12+060699999V0202701N010010075019N0300001N1+00781+00121098951ADDAY121031AY221031GF108991061051008001021999MA1999999092011MD1810161+9999MW1031REMSYN082AAXX  20091 01245 41580 82710 10078 20012 39201 49895 58016 70322 8652/ 333 4////;
0155012450999992008102012004+62600+009667FM-12+060699999V0201801N012010075019N0300001N1+01031+00311098411ADDGF106991051051008001001011MA1999999091571MD1810481+9999REMSYN088AAXX  20121 01245 11580 61812 10103 20031 39157 49841 58048 6//// 7//22 85501 333 4////;
0207012450999992008102018004+62600+009667FM-12+060699999V0202701N010012200019N0300001N1+00671+00121097841ADDAA112002091AY181061AY211061GF103991031011012501001001KA1120M+01271MA1999999090961MD1510071+9999MW1011REMSYN094AAXX  20181 01245 11680 32710 10067 20012 39096 49784 55007 60022 70181 83100 333 10127 4////;
0243012450999992008102106004+62600+009667FM-12+060699999V0202301N001012200019N0400001N1+00531-00401098301ADDAA112000091AA224002091AY181061AY211061GF102991021011012501001001KA1120N+00531MA1999999091351MD1110191+9999MW1011REMSYN100AAXX  21061 01245 11682 22301 10053 21040 39135 49830 51019 69912 70181 82100 333 20053 4//// 70021;EQDQ01  00002PRCP12
0171012450999992008102109004+62600+009667FM-12+060699999V0202401N010012200019N0400001N1+00681-00461098431ADDAY101031AY201031GF104991031041012501041001MA1999999091511MD1210171+9999MW1031REMSYN082AAXX  21091 01245 41682 42410 10068 21046 39151 49843 52017 70300 83440 333 4////;
0177012450999992008102112004+62600+009667FM-12+060699999V0202301N010010120019N0400001N1+00801-00321098421ADDAY121061AY201061GF106991051041012501041001MA1999999091521MD1310021+9999MW1031REMSYN088AAXX  21121 01245 11682 62310 10080 21032 39152 49842 53002 6//// 70320 85440 333 4////;
0226012450999992008102118004+62600+009667FM-12+060699999V0202301N001010120019N0300001N1+00491-00461098541ADDAA112000091AY121061AY221061GF106991061041012501001001KA1120M+00861MA1999999091561MD1210031+9999MW1021REMSYN094AAXX  21181 01245 11680 62301 10049 21046 39156 49854 52003 60002 70222 86400 333 10086 4////;EQDQ01  00002PRCP12
0259012450999992008102206004+62600+009667FM-12+060699999V0202401N003010300019N0300001N1+00141-00611099151ADDAA112000091AA224000091AY121061AY221061GF105991031051012501041001KA1120N+00051MA1999999092051MD1310211+9999MW1021REMSYN100AAXX  22061 01245 11680 52403 10014 21061 39205 49915 53021 60002 70222 83540 333 20005 4//// 70000;EQDQ01  00002PRCP24Q02  00002PRCP12
0171012450999992008102209004+62600+009667FM-12+060699999V0202301N001010300019N0400001N1+00291-00521099581ADDAY121031AY221031GF105991041051012501041001MA1999999092471MD1310411+9999MW1021REMSYN082AAXX  22091 01245 41682 52301 10029 21052 39247 49958 53041 70222 84540 333 4////;
0177012450999992008102212004+62600+009667FM-12+060699999V0202501N003010300019N0400001N1+00491-00601099811ADDAY121061AY221061GF105991031051012501041011MA1999999092731MD1210281+9999MW1021REMSYN088AAXX  22121 01245 11682 52503 10049 21060 39273 49981 52028 6//// 70222 83541 333 4////;
0226012450999992008102218004+62600+009667FM-12+060699999V0202401N003012200019N0400001N1+00261-00781100371ADDAA112000091AY121061AY201061GF101991011011012501001001KA1120M+00621MA1999999093211MD1310231+9999MW1011REMSYN094AAXX  22181 01245 11682 12403 10026 21078 39321 40037 53023 60002 70120 81100 333 10062 4////;EQDQ01  00002PRCP12
0259012450999992008102306004+62600+009667FM-12+060699999V0202301N003010120019N0400001N1+00371-00551100551ADDAA112000091AA224000091AY121061AY201061GF105991051051012501001001KA1120N+00061MA1999999093401MD1710061+9999MW1031REMSYN100AAXX  23061 01245 11682 52303 10037 21055 39340 40055 57006 60002 70320 85500 333 20006 4//// 70000;EQDQ01  00002PRCP24Q02  00002PRCP12
0171012450999992008102309004+62600+009667FM-12+060699999V0202301N005010120019N0400001N1+00501-00401100461ADDAY121031AY221031GF108991061051012501021999MA1999999093351MD1510051+9999MW1031REMSYN082AAXX  23091 01245 41682 82305 10050 21040 39335 40046 55005 70322 8652/ 333 4////;
0177012450999992008102312004+62600+009667FM-12+060699999V0202401N005010075019N0300001N1+00521-00241100271ADDAY161061AY221061GF108991061051008001021999MA1999999093171MD1810171+9999MW1601REMSYN088AAXX  23121 01245 11580 82405 10052 21024 39317 40027 58017 6//// 76062 8652/ 333 4////;
0207012450999992008102318004+62600+009667FM-12+060699999V0202101N015010120019N0200001N1+00701-00071099651ADDAA112000021AY161061AY221061GF107991071051012501999999KA1120M+00831MA1999999092651MD1610271+9999MW1011REMSYN094AAXX  23181 01245 11670 72115 10070 21007 39265 49965 56027 69902 70162 875// 333 10083 4////;
0224012450999992008102406004+62600+009667FM-12+060699999V0202301N003010120019N0300001N1+00831+00321099281ADDAA112000021AA224000021AY181061AY221061GF106991061081008001001001KA1120N+00691MA1999999092321MD1310211+9999MW1801REMSYN100AAXX  24061 01245 11580 62303 10083 20032 39232 49928 53021 69912 78082 86800 333 20069 4//// 70001;
0171012450999992008102409004+62600+009667FM-12+060699999V0202701N010010075019N0200001N1+00741-00081099731ADDAY181031AY211031GF106991061021008001001001MA1999999092721MD1310401+9999MW1801REMSYN082AAXX  24091 01245 41570 62710 10074 21008 39272 49973 53040 78081 86200 333 4////;
0177012450999992008102412004+62600+009667FM-12+060699999V0202701N010012200019N0400001N1+00751-00421100051ADDAY181061AY211061GF102991011011012501041011MA1999999093021MD1110311+9999MW1011REMSYN088AAXX  24121 01245 11682 22710 10075 21042 39302 40005 51031 6//// 70181 81141 333 4////;
0207012450999992008102418004+62600+009667FM-12+060699999V0209999C000012200019N0400001N1+00521-00541100371ADDAA112000021AY101061AY201061GF102991021011012501001001KA1120M+01021MA1999999093271MD1210081+9999MW1021REMSYN094AAXX  24181 01245 11682 20000 10052 21054 39327 40037 52008 69902 70200 82100 333 10102 4////;
0223012450999992008102506004+62600+009667FM-12+060699999V0202301N010010075019N0300001N1+00431-00371100231ADDAA112000091AA224000021AY181061AY211061GF106991061021008001001001KA1120N+00231MA1999999093121MW1011REMSYN094AAXX  25061 01245 11580 62310 10043 21037 39312 40023 69902 70181 86200 333 20023 4//// 70000;EQDQ01  00002PRCP12
0171012450999992008102509004+62600+009667FM-12+060699999V0202401N007012200019N0400001N1+00451-00351100551ADDAY121031AY211031GF105991031011012501001081MA1999999093421MD1110301+9999MW1011REMSYN082AAXX  25091 01245 41682 52407 10045 21035 39342 40055 51030 70121 83108 333 4////;
0177012450999992008102512004+62600+009667FM-12+060699999V0201801N003010300019N0400001N1+00681-00371100241ADDAY121061AY211061GF106991031011012501011001MA1999999093181MD1810231+9999MW1031REMSYN088AAXX  25121 01245 11682 61803 10068 21037 39318 40024 58023 6//// 70321 83110 333 4////;
0274012450999992008102518004+62600+009667FM-12+060699999V0202301N005010120019N0200001N1+00631+00001099102ADDAA112000091AY181061AY221061GF106991061051012501001001KA1120M+00911MA1999999092122MD1810662+9999MW1021REMSYN094AAXX  25181 01245 11670 62305 10063 20000 39212 49910 58066 69902 70282 86500 333 10091 4////;EQDQ01+092123APOSP Q02+099103APOSLPQ03+000662APC3  Q04  00002PRCP12
0259012450999992008102606004+62600+009667FM-12+060699999V0202401N007012200019N0400001N1+00431-00631099121ADDAA112000091AA224000091AY121061AY201061GF101991011011012501001001KA1120N+00431MA1999999092081MD1110241+9999MW1011REMSYN100AAXX  26061 01245 11682 12407 10043 21063 39208 49912 51024 60002 70120 81100 333 20043 4//// 70000;EQDQ01  00002PRCP24Q02  00002PRCP12
0171012450999992008102609004+62600+009667FM-12+060699999V0202401N003012200019N0400001N1+00411-00641099291ADDAY101031AY201031GF103991011001022501031081MA1999999092231MD1110171+9999MW1031REMSYN082AAXX  26091 01245 41882 32403 10041 21064 39223 49929 51017 70300 81038 333 4////;
0177012450999992008102612004+62600+009667FM-12+060699999V0201801N001012200019N0400001N1+00621-00451099171ADDAY101061AY201061GF103991021001022501031011MA1999999092171MD1810081+9999MW1021REMSYN088AAXX  26121 01245 11882 31801 10062 21045 39217 49917 58008 6//// 70200 82031 333 4////;
0226012450999992008102618004+62600+009667FM-12+060699999V0202301N001012200019N0400001N1+00391-00531098981ADDAA112000091AY101061AY201061GF102991021011012501001001KA1120M+00721MA1999999091951MD1610071+9999MW1011REMSYN094AAXX  26181 01245 11682 22301 10039 21053 39195 49898 56007 60002 70100 82100 333 10072 4////;EQDQ01  00002PRCP12
0259012450999992008102706004+62600+009667FM-12+060699999V0203201N001012200019N0400001N1+00121-00551098561ADDAA112000091AA224000091AY101061AY201061GF104991041011012501001001KA1120N+00121MA1999999091481MD1310011+9999MW1021REMSYN100AAXX  27061 01245 11682 43201 10012 21055 39148 49856 53001 60002 70200 84100 333 20012 4//// 70000;EQDQ01  00002PRCP24Q02  00002PRCP12
0171012450999992008102709004+62600+009667FM-12+060699999V0203201N001012200019N0400001N1+00221-00391098681ADDAY101031AY201031GF103991031011012501001001MA1999999091621MD1310141+9999MW1011REMSYN082AAXX  27091 01245 41682 33201 10022 21039 39162 49868 53014 70100 83100 333 4////;
0177012450999992008102712004+62600+009667FM-12+060699999V0202701N001012200019N0400001N1+00441-00511098671ADDAY101061AY201061GF104991041011012501001001MA1999999091671MD1210041+9999MW1031REMSYN088AAXX  27121 01245 11682 42701 10044 21051 39167 49867 52004 6//// 70300 84100 333 4////;
0226012450999992008102718004+62600+009667FM-12+060699999V0202301N005010150019N0200001N1+00191-00711098761ADDAA112000091AY121061AY201061GF107991071001017501011999KA1120M+00491MA1999999091701MD1210041+9999MW1031REMSYN094AAXX  27181 01245 11770 72305 10019 21071 39170 49876 52004 60002 70320 8701/ 333 10049 4////;EQDQ01  00002PRCP12
0266012450999992008102806004+62600+009667FM-12+060699999V0200601N001010042019N0100001N1-00101-00371099431ADDAA112001091AA224001591AJ199993999999999AY181061AY221061GF107991071021004501999999IA1259KA1120N-00101MA1999999092251MD1210171+9999MW1861REMSYN100AAXX  28061 01245 11460 70601 11010 21037 39225 49943 52017 60012 78682 872// 333 21010 41997 70014;EQDQ01  09972SNDP  
0171012450999992008102809004+62600+009667FM-12+060699999V0200901N001010090019N0200001N1-00121-00341099711ADDAY181031AY221031GF106991061081004501001001MA1999999092501MD1210241+9999MW1851REMSYN082AAXX  28091 01245 41470 60901 11012 21034 39250 49971 52024 78582 86800 333 4////;
0177012450999992008102812004+62600+009667FM-12+060699999V0200901N001010300019N0200001N1-00101-00381099821ADDAY181061AY221061GF105991041081004501061001MA1999999092611MD1210121+9999MW1011REMSYN088AAXX  28121 01245 11470 50901 11010 21038 39261 49982 52012 6//// 70182 84860 333 4////;
0207012450999992008102818004+62600+009667FM-12+060699999V0200901N001012200019N0300001N1-00181-00541100071ADDAA112000021AY181061AY211061GF104991041011012501001001KA1120M+00051MA1999999092821MD1210131+9999MW1011REMSYN094AAXX  28181 01245 11680 40901 11018 21054 39282 40007 52013 69912 70181 84100 333 10005 4////;
0253012450999992008102906004+62600+009667FM-12+060699999V0209999C000012200019N0400001N1-00441-01121100391ADDAA112000091AA224000021AY101061AY201061GA1001+999999999GF100991001001999999001001KA1120N-00601MA1999999093051MD1210051+9999MW1011REMSYN094AAXX  29061 01245 11982 00000 11044 21112 39305 40039 52005 60002 70100 333 21060 4//// 70001;EQDQ01  00002PRCP12
0171012450999992008102909004+62600+009667FM-12+060699999V0203001N001012200019N0400001N1-00501-01141100461ADDAY101031AY201031GF101991001001999999001011MA1999999093101MD1210051+9999MW1031REMSYN082AAXX  29091 01245 41982 13001 11050 21114 39310 40046 52005 70300 80001 333 4////;
0177012450999992008102912004+62600+009667FM-12+060699999V0209999C000012200019N0400001N1-00221-00801100301ADDAY101061AY201061GF102991001001999999001011MA1999999093021MD1810061+9999MW1031REMSYN088AAXX  29121 01245 11982 20000 11022 21080 39302 40030 58006 6//// 70300 80001 333 4////;
0226012450999992008102918004+62600+009667FM-12+060699999V0209999C000012200019N0400001N1-00491-01021100381ADDAA112000091AY111061AY201061GF101991001001999999001011KA1120M-00021MA1999999093021MD1310051+9999MW1011REMSYN094AAXX  29181 01245 11982 10000 11049 21102 39302 40038 53005 60002 70110 80001 333 11002 4////;EQDQ01  00002PRCP12
0282012450999992008103006004+62600+009667FM-12+060699999V0209999C000012200019N0400001N1-00921-01101100671ADDAA112000091AA224000091AJ100019199999999AY101061AY201061GF102991021001022501031001IA1259KA1120N-00921MA1999999093171MD1210061+9999MW1031REMSYN100AAXX  30061 01245 11882 20000 11092 21110 39317 40067 52006 60002 70300 82030 333 21092 41001 70000;EQDQ01  00002PRCP24Q02  00002PRCP12
0171012450999992008103009004+62600+009667FM-12+060699999V0209999C000012200019N0400001N1-00821-00981100821ADDAY101031AY201031GF104991031001022501011011MA1999999093351MD1210181+9999MW1031REMSYN082AAXX  30091 01245 41882 40000 11082 21098 39335 40082 52018 70300 83011 333 4////;
0177012450999992008103012004+62600+009667FM-12+060699999V0209999C000010300019N0400001N1-00421-00711100801ADDAY121061AY201061GF106991011011022501011001MA1999999093421MD1110081+9999MW1031REMSYN088AAXX  30121 01245 11882 60000 11042 21071 39342 40080 51008 6//// 70320 81110 333 4////;
0207012450999992008103018004+62600+009667FM-12+060699999V0209999C000010075019N0200001N1-00321-00571101041ADDAA112000591AY171061AY221061GF107991071051008001999999KA1120M-00151MA1999999093671MD1310091+9999MW1011REMSYN094AAXX  30181 01245 11570 70000 11032 21057 39367 40104 53009 69942 70172 875// 333 11015 4////;
0266012450999992008103106004+62600+009667FM-12+060699999V0209999C000010120019N0300001N1-00481-00771101201ADDAA112000091AA224000591AJ100029199999999AY171061AY221061GF107991071051012501999999IA1259KA1120N-00581MA1999999093781MD1210021+9999MW1011REMSYN100AAXX  31061 01245 11680 70000 11048 21077 39378 40120 52002 69902 70172 875// 333 21058 41002 70004;EQDQ01  00002PRCP12
0171012450999992008103109004+62600+009667FM-12+060699999V0209999C000010120019N0300001N1-00281-00601101211ADDAY121031AY221031GF107991071051012501999999MA1999999093851MD1210071+9999MW1021REMSYN082AAXX  31091 01245 41680 70000 11028 21060 39385 40121 52007 70222 875// 333 4////;
0177012450999992008103112004+62600+009667FM-12+060699999V0202801N001010120019N0200001N1-00041-00341101131ADDAY171061AY221061GF107991071051012501999999MA1999999093831MD1710031+9999MW1701REMSYN088AAXX  31121 01245 11670 72801 11004 21034 39383 40113 57003 6//// 77072 875// 333 4////;
0207012450999992008103118004+62600+009667FM-12+060699999V0209999C000010120019N0300001N1-00101-00381101221ADDAA112000021AY171061AY221061GF106991061051012501999999KA1120M+00081MA1999999093911MD1210041+9999MW1701REMSYN094AAXX  31181 01245 11680 60000 11010 21038 39391 40122 52004 69902 77072 865// 333 10008 4////;
0247012450999992008110106004+62600+009667FM-12+060699999V0209999C000012200019N0400001N1-00381-00811101451ADDAA112000021AA224000021AJ100029199999999AY171061AY221061GF101991011041022501001001IA1259KA1120N-00501MA1999999094051MD1210011+9999MW1011REMSYN100AAXX  01061 01245 11882 10000 11038 21081 39405 40145 52001 69902 70172 81400 333 21050 41002 70000;
0181012450999992008110109004+62600+009667FM-12+060699999V0209999C000012200019N0400001N1-00201-00821101371ADDAY101031AY201031GA1001+999999999GF100991001001999999001001MA1999999094021MD1810031+9999MW1011REMSYN076AAXX  01091 01245 41982 00000 11020 21082 39402 40137 58003 70100 333 4////;
0187012450999992008110112004+62600+009667FM-12+060699999V0202701N001012200019N0400001N1+00071-00951101261ADDAY101061AY201061GA1001+999999999GF100991001001999999001001MA1999999093981MD1710031+9999MW1021REMSYN082AAXX  01121 01245 11982 02701 10007 21095 39398 40126 57003 6//// 70200 333 4////;
0226012450999992008110118004+62600+009667FM-12+060699999V0203201N001010120019N0200001N1-00081-00891101231ADDAA112000091AY121061AY201061GF107991071051012501999999KA1120M+00181MA1999999093921MD1710031+9999MW1031REMSYN094AAXX  01181 01245 11670 73201 11008 21089 39392 40123 57003 60002 70320 875// 333 10018 4////;EQDQ01  00002PRCP12
0282012450999992008110206004+62600+009667FM-12+060699999V0202701N001010120019N0300001N1+00451-00581100911ADDAA112000091AA224000091AJ100019199999999AY121061AY221061GF106991061051012501001001IA1259KA1120N-00081MA1999999093761MD1510011+9999MW1011REMSYN100AAXX  02061 01245 11680 62701 10045 21058 39376 40091 55001 60002 70122 86500 333 21008 41001 70000;EQDQ01  00002PRCP24Q02  00002PRCP12
0171012450999992008110209004+62600+009667FM-12+060699999V0202701N003010075019N0300001N1+00371+00011101231ADDAY181031AY221031GF105991051021008001001001MA1999999094021MD1310261+9999MW1011REMSYN082AAXX  02091 01245 41580 52703 10037 20001 39402 40123 53026 70182 85200 333 4////;
0177012450999992008110212004+62600+009667FM-12+060699999V0202701N001010075019N0300001N1+00481+00061101411ADDAY181061AY221061GF106991061021008001001001MA1999999094221MD1210101+9999MW1031REMSYN088AAXX  02121 01245 11580 62701 10048 20006 39422 40141 52010 6//// 70382 86200 333 4////;
0226012450999992008110218004+62600+009667FM-12+060699999V0209999C000012200019N0200001N1+00341-00211101731ADDAA112000091AY121061AY201061GF104991041011012501001001KA1120M+00641MA1999999094481MD1310141+9999MW1011REMSYN094AAXX  02181 01245 11670 40000 10034 21021 39448 40173 53014 69902 70120 84100 333 10064 4////;EQDQ01  00002PRCP12
0224012450999992008110306004+62600+009667FM-12+060699999V0203001N001010120019N0300001N1+00471+00011101501ADDAA112000021AA224000021AY161061AY211061GF107991051051012501021999KA1120N+00251MA1999999094311MD1810091+9999MW1601REMSYN100AAXX  03061 01245 11680 73001 10047 20001 39431 40150 58009 69902 76061 8552/ 333 20025 4//// 70000;
0171012450999992008110309004+62600+009667FM-12+060699999V0203001N001010120019N0300001N1+00711+00121101461ADDAY161031AY221031GF107991051051012501021999MA1999999094321MD1310021+9999MW1011REMSYN082AAXX  03091 01245 41680 73001 10071 20012 39432 40146 53002 70162 8552/ 333 4////;
0177012450999992008110312004+62600+009667FM-12+060699999V0203001N001010300019N0400001N1+00901+00211101431ADDAY161061AY221061GF106991041051012501031001MA1999999094351MD1210021+9999MW1011REMSYN088AAXX  03121 01245 11682 63001 10090 20021 39435 40143 52002 6//// 70162 84530 333 4////;
0207012450999992008110318004+62600+009667FM-12+060699999V0203001N001010120019N0200001N1+00781+00191101501ADDAA112000021AY121061AY221061GF105991051051012501001001KA1120M+00991MA1999999094381MD1210061+9999MW1011REMSYN094AAXX  03181 01245 11670 53001 10078 20019 39438 40150 52006 69902 70122 85500 333 10099 4////;
0243012450999992008110406004+62600+009667FM-12+060699999V0209999C000010120019N0300001N1+00441+00291102191ADDAA112000091AA224000021AY121061AY221061GF105991051011012501001001KA1120N+00401MA1999999094931MD1110181+9999MW1011REMSYN100AAXX  04061 01245 11680 50000 10044 20029 39493 40219 51018 60002 70122 85100 333 20040 4//// 70000;EQDQ01  00002PRCP12
0149012450999992008110409004+62600+009667FM-12+060699999V0209999C000010075019N0300001N1+00441+00231102381ADDGF106991061011008001001001MA1999999095121MD1310191+9999REMSYN082AAXX  04091 01245 41580 60000 10044 20023 39512 40238 53019 7//22 86100 333 4////;
0177012450999992008110412004+62600+009667FM-12+060699999V0202301N001010300019N0300001N1+00581+00251102461ADDAY121061AY221061GF106991021011008001011001MA1999999095221MD1010111+9999MW1031REMSYN088AAXX  04121 01245 11580 62301 10058 20025 39522 40246 50011 6//// 70322 82110 333 4////;
0226012450999992008110418004+62600+009667FM-12+060699999V0209999C000012200019N0300001N1+00111-00191102731ADDAA112000091AY121061AY201061GF101991011011012501001001KA1120M+00711MA1999999095361MD1210081+9999MW1011REMSYN094AAXX  04181 01245 11680 10000 10011 21019 39536 40273 52008 60002 70120 81100 333 10071 4////;EQDQ01  00002PRCP12
0259012450999992008110506004+62600+009667FM-12+060699999V0209999C000012200019N0300001N1-00281-00381102951ADDAA112000091AA224000091AY101061AY201061GF103991031001017501031001KA1120N-00281MA1999999095461MD1210051+9999MW1031REMSYN100AAXX  05061 01245 11780 30000 11028 21038 39546 40295 52005 60002 70300 83030 333 21028 4//// 70000;EQDQ01  00002PRCP24Q02  00002PRCP12
0171012450999992008110509004+62600+009667FM-12+060699999V0209999C000012200019N0400001N1-00191-00331103001ADDAY101031AY201031GF104991021001022501011011MA1999999095521MD1210071+9999MW1031REMSYN082AAXX  05091 01245 41882 40000 11019 21033 39552 40300 52007 70300 82011 333 4////;
0177012450999992008110512004+62600+009667FM-12+060699999V0209999C000012200019N0400001N1-00041-00241103031ADDAY101061AY201061GF101991001001999999001011MA1999999095601MD1210061+9999MW1011REMSYN088AAXX  05121 01245 11982 10000 11004 21024 39560 40303 52006 6//// 70100 80001 333 4////;
0226012450999992008110518004+62600+009667FM-12+060699999V0209999C000012200019N0400001N1-00081-00501102981ADDAA112000091AY101061AY201061GF101991001001999999001011KA1120M+00311MA1999999095531MD1410001+9999MW1021REMSYN094AAXX  05181 01245 11982 10000 11008 21050 39553 40298 54001 60002 70200 80001 333 10031 4////;EQDQ01  00002PRCP12
0259012450999992008110606004+62600+009667FM-12+060699999V0209999C000012200019N0400001N1+00541-00771102551ADDAA112000091AA224000091AY101061AY201061GF101991011001012501031001KA1120N-00131MA1999999095301MD1710071+9999MW1021REMSYN100AAXX  06061 01245 11682 10000 10054 21077 39530 40255 57007 60002 70200 81030 333 21013 4//// 70000;EQDQ01  00002PRCP24Q02  00002PRCP12
0171012450999992008110609004+62600+009667FM-12+060699999V0201801N001012200019N0400001N1+00271-00801102641ADDAY101031AY201031GF104991011001022501041091MA1999999095321MD1010031+9999MW1031REMSYN082AAXX  06091 01245 41882 41801 10027 21080 39532 40264 50003 70300 81049 333 4////;
0177012450999992008110612004+62600+009667FM-12+060699999V0209999C000012200019N0400001N1+00461-00251102561ADDAY101061AY201061GF104991031001022501031041MA1999999095281MD1710041+9999MW1021REMSYN088AAXX  06121 01245 11882 40000 10046 21025 39528 40256 57004 6//// 70200 83034 333 4////;
0226012450999992008110618004+62600+009667FM-12+060699999V0203201N003010300019N0400001N1+00761-00351102371ADDAA112000091AY111061AY201061GF105991021051012501031001KA1120M+00811MA1999999095181MD1710051+9999MW1031REMSYN094AAXX  06181 01245 11682 53203 10076 21035 39518 40237 57005 60002 70310 82530 333 10081 4////;EQDQ01  00002PRCP12
0259012450999992008110706004+62600+009667FM-12+060699999V0202701N001010120019N0300001N1+00901-00721101821ADDAA112000091AA224000091AY121061AY221061GF107991071051012501999999KA1120N+00701MA1999999094711MD1810131+9999MW1031REMSYN100AAXX  07061 01245 11680 72701 10090 21072 39471 40182 58013 60002 70322 875// 333 20070 4//// 70000;EQDQ01  00002PRCP24Q02  00002PRCP12
0171012450999992008110709004+62600+009667FM-12+060699999V0203601N001010300019N0400001N1+00841-00471101751ADDAY161031AY221031GF105991041051012501031091MA1999999094621MD1610081+9999MW1011REMSYN082AAXX  07091 01245 41682 53601 10084 21047 39462 40175 56008 70162 84539 333 4////;
0177012450999992008110712004+62600+009667FM-12+060699999V0201501N001010300019N0400001N1+00721-00541101691ADDAY161061AY221061GF106991021051012501071001MA1999999094551MD1610081+9999MW1031REMSYN088AAXX  07121 01245 11682 61501 10072 21054 39455 40169 56008 6//// 70362 82570 333 4////;
0226012450999992008110718004+62600+009667FM-12+060699999V0202301N005010120019N0200001N1+00621-00291101331ADDAA112000091AY121061AY221061GF107991051051012501041999KA1120M+01051MA1999999094181MD1610271+9999MW1021REMSYN094AAXX  07181 01245 11670 72305 10062 21029 39418 40133 56027 69902 70222 8554/ 333 10105 4////;EQDQ01  00002PRCP12
0259012450999992008110806004+62600+009667FM-12+060699999V0203201N003012200019N0300001N1+00141-00441101301ADDAA112000091AA224000091AY181061AY211061GF103991031001022501031001KA1120N+00141MA1999999094031MD1110071+9999MW1011REMSYN100AAXX  08061 01245 11880 33203 10014 21044 39403 40130 51007 69902 70181 83030 333 20014 4//// 70000;EQDQ01  00002PRCP24Q02  00002PRCP12
0171012450999992008110809004+62600+009667FM-12+060699999V0202301N003012200019N0400001N1+00401-00201101291ADDAY121031AY201031GF105991021051012501041091MA1999999094101MD1310061+9999MW1031REMSYN082AAXX  08091 01245 41682 52303 10040 21020 39410 40129 53006 70320 82549 333 4////;
0177012450999992008110812004+62600+009667FM-12+060699999V0202701N005010300019N0400001N1+00741+00041101171ADDAY121061AY201061GF105991031051012501041091MA1999999094071MD1510021+9999MW1021REMSYN088AAXX  08121 01245 11682 52705 10074 20004 39407 40117 55002 6//// 70220 83549 333 4////;
0226012450999992008110818004+62600+009667FM-12+060699999V0202301N001012200019N0300001N1+00501-00081101171ADDAA112000091AY121061AY201061GF104991031051012501041001KA1120M+00811MA1999999094011MD1310021+9999MW1011REMSYN094AAXX  08181 01245 11680 42301 10050 21008 39401 40117 53002 60002 70120 83540 333 10081 4////;EQDQ01  00002PRCP12
0259012450999992008110906004+62600+009667FM-12+060699999V0203201N001012200019N0300001N1+00581-00111100571ADDAA112000091AA224000091AY111061AY201061GF104991031051012501041001KA1120N+00401MA1999999093471MD1810131+9999MW1021REMSYN100AAXX  09061 01245 11680 43201 10058 21011 39347 40057 58013 60002 70210 83540 333 20040 4//// 70000;EQDQ01  00002PRCP24Q02  00002PRCP12
0171012450999992008110909004+62600+009667FM-12+060699999V0201501N005010120019N0300001N1+00571-00141100381ADDAY121031AY201031GF105991051081008001001001MA1999999093281MD1610191+9999MW1031REMSYN082AAXX  09091 01245 41580 51505 10057 21014 39328 40038 56019 70320 85800 333 4////;
0177012450999992008110912004+62600+009667FM-12+060699999V0202301N005010120019N0300001N1+00601-00091100061ADDAY121061AY201061GF106991061081008001001001MA1999999093001MD1810281+9999MW1031REMSYN088AAXX  09121 01245 11580 62305 10060 21009 39300 40006 58028 6//// 70320 86800 333 4////;
0226012450999992008110918004+62600+009667FM-12+060699999V0202301N003010075019N0200001N1+00521-00151099401ADDAA112000091AY121061AY221061GF107991051051008001011999KA1120M+00861MA1999999092371MD1810251+9999MW1031REMSYN094AAXX  09181 01245 11570 72303 10052 21015 39237 49940 58025 60002 70322 8551/ 333 10086 4////;EQDQ01  00002PRCP12
0224012450999992008111006004+62600+009667FM-12+060699999V0200501N005010150019N0200001N1+00121-00661099271ADDAA112000591AA224000591AY161061AY221061GF108991081001017501071999KA1120N+00091MA1999999092151MD1810251+9999MW1021REMSYN100AAXX  10061 01245 11770 80505 10012 21066 39215 49927 58025 69952 70262 8807/ 333 20009 4//// 70005;
0171012450999992008111009004+62600+009667FM-12+060699999V0200901N010010042019N0100001N1+00251-00131098761ADDAY171031AY221031GF108991081001004501021999MA1999999091711MD1810431+9999MW1681REMSYN082AAXX  10091 01245 41460 80910 10025 21013 39171 49876 58043 76872 8802/ 333 4////;
0177012450999992008111012004+62600+009667FM-12+060699999V0201401N005012200019N0200001N1+00521-00261098421ADDAY171061AY221061GF104991041021008001001001MA1999999091461MD1610251+9999MW1011REMSYN088AAXX  10121 01245 11570 41405 10052 21026 39146 49842 56025 6//// 70172 84200 333 4////;
0207012450999992008111018004+62600+009667FM-12+060699999V0202701N001010750019N0300001N1+00311-00431098931ADDAA112000021AY121061AY201061GF105991031011012501001051KA1120M+00671MA1999999091871MD1310401+9999MW1021REMSYN094AAXX  10181 01245 11680 52701 10031 21043 39187 49893 53040 69922 70220 83105 333 10067 4////;
0243012450999992008111106004+62600+009667FM-12+060699999V0202301N005010150019N0300001N1+00371-00421099281ADDAA112000091AA224000391AY121061AY201061GF108991081001017501011999KA1120N+00191MA1999999092221MD1210091+9999MW1031REMSYN100AAXX  11061 01245 11780 82305 10037 21042 39222 49928 52009 60002 70320 8801/ 333 20019 4//// 70002;EQDQ01  00002PRCP12
0171012450999992008111109004+62600+009667FM-12+060699999V0202401N001010150019N0400001N1+00391-00401099471ADDAY121031AY221031GF107991071001017501011001MA1999999092401MD1210171+9999MW1011REMSYN082AAXX  11091 01245 41782 72401 10039 21040 39240 49947 52017 70122 87010 333 4////;
0177012450999992008111112004+62600+009667FM-12+060699999V0202701N001010150019N0400001N1+00491-00331099591ADDAY161061AY221061GF107991071001017501071001MA1999999092531MD1010141+9999MW1011REMSYN088AAXX  11121 01245 11782 72701 10049 21033 39253 49959 50014 6//// 70162 87070 333 4////;
0226012450999992008111118004+62600+009667FM-12+060699999V0209999C000010120019N0300001N1+00241-00481099861ADDAA112000091AY121061AY221061GF107991071001012501071999KA1120M+00571MA1999999092721MD1210121+9999MW1021REMSYN094AAXX  11181 01245 11680 70000 10024 21048 39272 49986 52012 69902 70222 8707/ 333 10057 4////;EQDQ01  00002PRCP12
0314012450999992008111206004+62600+009667FM-12+060699999V0209999C000010150019N0300001N1-00131-00231100211ADDAA112000091AA224000091AJ199993999999999AY171061AY221061GF107991999001017501071001IA1259KA1120N-00211MA1999999092961MD1310091+9999MW1011REMSYN100AAXX  12061 01245 11780 70000 11013 21023 39296 40021 53009 69912 70172 86070 333 21021 41997 70001;EQDQ01+000062SCOTLCQ02  00002PRCP24Q03  00002PRCP12Q04  09972SNDP  
0149012450999992008111209004+62600+009667FM-12+060699999V0209999C000010120019N0400001N1-00091-00191100351ADDGF106991051051012501031001MA1999999093101MD1210141+9999REMSYN082AAXX  12091 01245 41682 60000 11009 21019 39310 40035 52014 7//22 85530 333 4////;
0177012450999992008111212004+62600+009667FM-12+060699999V0209999C000012200019N0400001N1-00101-00211100491ADDAY141061AY211061GF103991031011012501001001MA1999999093221MD1210121+9999MW1011REMSYN088AAXX  12121 01245 11682 30000 11010 21021 39322 40049 52012 6//// 70141 83100 333 4////;
0226012450999992008111218004+62600+009667FM-12+060699999V0209999C000010120019N0300001N1+00041-00231100811ADDAA112000091AY181061AY211061GF106991061051012501001001KA1120M+00231MA1999999093561MD1210211+9999MW1031REMSYN094AAXX  12181 01245 11680 60000 10004 21023 39356 40081 52021 69902 70381 86500 333 10023 4////;EQDQ01  00002PRCP12
0225012450999992008111306004+62600+009667FM-12+060699999V0209999C000010075019N0200001N1-00301-00461101161ADDAA112001091AA224001091AJ100019199999999GF106991061051008001001001IA1259KA1120N-00301MA1999999093801MD1210011+9999REMSYN100AAXX  13061 01245 11570 60000 11030 21046 39380 40116 52001 60012 7//72 86500 333 21030 41001 70010;
0171012450999992008111309004+62600+009667FM-12+060699999V0209999C000010075019N0250001N1-00341-00441101201ADDAY121031AY221031GF105991051051008001001001MA1999999093821MD1210041+9999MW1011REMSYN082AAXX  13091 01245 41575 50000 11034 21044 39382 40120 52004 70122 85500 333 4////;
0177012450999992008111312004+62600+009667FM-12+060699999V0200101N001010120019N0400001N1-00401-00971101201ADDAY121061AY221061GF105991051001012501071011MA1999999093811MD1710031+9999MW1021REMSYN088AAXX  13121 01245 11682 50101 11040 21097 39381 40120 57003 6//// 70222 85071 333 4////;
0226012450999992008111318004+62600+009667FM-12+060699999V0202701N001012200019N0400001N1+00121-00681100891ADDAA112000091AY111061AY201061GF103991031001017501031011KA1120M+00241MA1999999093661MD1810091+9999MW1011REMSYN094AAXX  13181 01245 11782 32701 10012 21068 39366 40089 58009 60002 70110 83031 333 10024 4////;EQDQ01  00002PRCP12
0282012450999992008111406004+62600+009667FM-12+060699999V0203201N001010150019N0300001N1+00361-00431099931ADDAA112000091AA224000091AJ100019199999999AY121061AY201061GF107991071001017501011999IA1259KA1120N+00101MA1999999092821MD1610141+9999MW1031REMSYN100AAXX  14061 01245 11780 73201 10036 21043 39282 49993 56014 60002 70320 8701/ 333 20010 41001 70000;EQDQ01  00002PRCP24Q02  00002PRCP12
0171012450999992008111409004+62600+009667FM-12+060699999V0203201N001010042019N0100001N1+00231-00181100001ADDAY171031AY221031GF107991071001004501021999MA1999999092861MD1310041+9999MW1681REMSYN082AAXX  14091 01245 41460 73201 10023 21018 39286 40000 53004 76872 8702/ 333 4////;
0177012450999992008111412004+62600+009667FM-12+060699999V0203201N001012200019N0400001N1+00241+00001100091ADDAY171061AY221061GF104991031051012501031001MA1999999092931MD1210081+9999MW1011REMSYN088AAXX  14121 01245 11682 43201 10024 21000 39293 40009 52008 6//// 70172 83530 333 4////;
0207012450999992008111418004+62600+009667FM-12+060699999V0209999C000010150019N0300001N1+00041-00071100191ADDAA112000021AY161061AY211061GF107991071001017501071999KA1120M+00501MA1999999092981MD1810061+9999MW1031REMSYN094AAXX  14181 01245 11780 70000 10004 21007 39298 40019 58006 69912 70361 8707/ 333 10050 4////;
0266012450999992008111506004+62600+009667FM-12+060699999V0209999C000010075019N0300001N1+00261+00101098901ADDAA112005192AA224004692AJ199992999999999AY181061AY211061GF105991051021008001001001IA1259KA1120N+00001MA1999999091831MD1510041+9999MW1801REMSYN100AAXX  15061 01245 11580 50000 10026 20010 39183 49890 55004 60052 78081 85200 333 20000 41998 70046;EQDQ01  09982SNDP  
0171012450999992008111509004+62600+009667FM-12+060699999V0203201N003012200019N0300001N1+00321+00041099011ADDAY181031AY211031GF104991041021008001001001MA1999999091961MD1110121+9999MW1011REMSYN082AAXX  15091 01245 41580 43203 10032 20004 39196 49901 51012 70181 84200 333 4////;
0177012450999992008111512004+62600+009667FM-12+060699999V0203001N003010120019N0300001N1+00391-00161099081ADDAY181061AY211061GF105991051081008001001001MA1999999092031MD1110091+9999MW1031REMSYN088AAXX  15121 01245 11580 53003 10039 21016 39203 49908 51009 6//// 70381 85800 333 4////;
0207012450999992008111518004+62600+009667FM-12+060699999V0202301N001010042019N0100001N1+00121+00011099041ADDAA112002091AY161061AY221061GF108991081001004501021999KA1120M+00461MA1999999091931MD1510011+9999MW1681REMSYN094AAXX  15181 01245 11460 82301 10012 20001 39193 49904 55001 60022 76862 8802/ 333 10046 4////;
0247012450999992008111606004+62600+009667FM-12+060699999V0200901N001010042019N0100001N1+00001-00071099931ADDAA112008991AA224010991AJ100049199999999AY171061AY221061GF108991081021004501999999IA1239KA1120N+00001MA1999999092721MD1310281+9999MW1721REMSYN100AAXX  16061 01245 11460 80901 10000 21007 39272 49993 53028 60092 77272 882// 333 20000 47004 70108;
0171012450999992008111609004+62600+009667FM-12+060699999V0203201N001010042019N0100001N1-00081-00291100531ADDAY171031AY221031GF108991081021004501999999MA1999999093271MD1310551+9999MW1721REMSYN082AAXX  16091 01245 41460 83201 11008 21029 39327 40053 53055 77272 882// 333 4////;
0177012450999992008111612004+62600+009667FM-12+060699999V0203201N001010042019N0060001N1-00091-00551101141ADDAY171061AY221061GF108991081001004501021999MA1999999093821MD1110581+9999MW1721REMSYN088AAXX  16121 01245 11456 83201 11009 21055 39382 40114 51058 6//// 77272 8802/ 333 4////;
0228012450999992008111618004+62600+009667FM-12+060699999V0202401N003012200019N0100001N1-00251-00411101831ADDAA112002091AY181061AY271061GF104991041021008001001001KA1120M+00131MA1999999094421MW1851REMSYN094AAXX  16181 01245 11560 42403 11025 21041 39442 40183 53000 60022 78587 84200 333 10013 4////;EQDQ01+000032APCTENQ02+000002APC3  
0247012450999992008111706004+62600+009667FM-12+060699999V0209999C000010150019N0300001N1-00221-00511101961ADDAA112000891AA224003091AJ100089199999999AY181061AY221061GF107991071081012501999999IA1239KA1120N-00331MA1999999094561MD1810091+9999MW1011REMSYN100AAXX  17061 01245 11680 70000 11022 21051 39456 40196 58009 69982 70182 878// 333 21033 47008 70030;
0171012450999992008111709004+62600+009667FM-12+060699999V0203001N001010075019N0300001N1-00101-00651101661ADDAY121031AY221031GF108991081001008001021999MA1999999094311MD1810241+9999MW1031REMSYN082AAXX  17091 01245 41580 83001 11010 21065 39431 40166 58024 70322 8802/ 333 4////;
0177012450999992008111712004+62600+009667FM-12+060699999V0203201N001010120019N0300001N1+00101-00541101221ADDAY121061AY221061GF107991071001012501071999MA1999999093961MD1810351+9999MW1011REMSYN088AAXX  17121 01245 11680 73201 10010 21054 39396 40122 58035 6//// 70122 8707/ 333 4////;
0242012450999992008111718004+62600+009667FM-12+060699999V0201801N005010120019N0200001N1+00321-00641100412ADDAA112000091AY121061AY221061GF107991071051012501999999KA1120M+00421MA1999999093261MD1810431+9999MW1021REMSYN094AAXX  17181 01245 11670 71805 10032 21064 39326 40041 58043 60002 70222 875// 333 10042 4////;EQDQ01+100413APOSLPQ02  00002PRCP12
0247012450999992008111806004+62600+009667FM-12+060699999V0203001N001010021019N0100001N1+00121-00071098821ADDAA112000021AA224000391AJ100089199999999AY181061AY221061GF107991071021002501999999IA1239KA1120N+00121MA1999999091721MD1510101+9999MW1851REMSYN100AAXX  18061 01245 11360 73001 10012 21007 39172 49882 55010 69922 78582 872// 333 20012 47008 70002;
0171012450999992008111809004+62600+009667FM-12+060699999V0202701N003010021019N0060001N1-00061-00161099001ADDAY181031AY221031GF107991071021002501999999MA1999999091861MD1310131+9999MW1851REMSYN082AAXX  18091 01245 41356 72703 11006 21016 39186 49900 53013 78582 872// 333 4////;
0177012450999992008111812004+62600+009667FM-12+060699999V0203201N005010012019N0050001N1-00221-00331099261ADDAY181061AY281061GF107991071031001501999999MA1999999092061MD1010201+9999MW1861REMSYN088AAXX  18121 01245 11250 73205 11022 21033 39206 49926 50020 6//// 78688 873// 333 4////;
0207012450999992008111818004+62600+009667FM-12+060699999V0203201N005010003019N0001001N1-00281-00431099511ADDAA112010991AY181061AY281061GF107991071031000251999999KA1120M+00271MA1999999092271MD1310111+9999MW1861REMSYN094AAXX  18181 01245 11001 73205 11028 21043 39227 49951 53011 60112 78688 873// 333 10027 4////;
0247012450999992008111906004+62600+009667FM-12+060699999V0203201N001010075019N0200001N1-00241-00461099111ADDAA112004191AA224015091AJ100359199999999AY181061AY221061GF106991061021008001001001IA1239KA1120N-00341MA1999999091911MD1810281+9999MW1851REMSYN100AAXX  19061 01245 11570 63201 11024 21046 39191 49911 58028 60042 78582 86200 333 21034 47035 70151;
0171012450999992008111909004+62600+009667FM-12+060699999V0203201N001010075019N0200001N1-00111-00441098561ADDAY181031AY271031GF108991081001008001021999MA1999999091431MD1810501+9999MW1711REMSYN082AAXX  19091 01245 41570 83201 11011 21044 39143 49856 58050 77187 8802/ 333 4////;
0187012450999992008111912004+62600+009667FM-12+060699999V0209999C000010003019N0005001N1+00001-00071098061ADDAY181061AY271061GA1091+999999999GF109991091999999999999999MA1999999091001MD1610451+9999MW1741REMSYN082AAXX  19121 01245 11005 90000 10000 21007 39100 49806 56045 6//// 77487 333 4////;
0207012450999992008111918004+62600+009667FM-12+060699999V0202301N001010012019N0060001N1-00011-00081098081ADDAA112020191AY171061AY221061GF107991051071001501021999KA1120M+00121MA1999999091021MD1310081+9999MW1701REMSYN094AAXX  19181 01245 11256 72301 11001 21008 39102 49808 53008 60202 77072 8572/ 333 10012 4////;
0247012450999992008112006004+62600+009667FM-12+060699999V0209999C000010120019N0300001N1-00371-00551098551ADDAA112002091AA224021391AJ100519199999999AY171061AY221061GF105991051011012501001001IA1239KA1120N-00371MA1999999091361MD1010061+9999MW1011REMSYN100AAXX  20061 01245 11680 50000 11037 21055 39136 49855 50006 60022 70172 85100 333 21037 47051 70213;
0171012450999992008112009004+62600+009667FM-12+060699999V0203201N005010042019N0100001N1-00341-00571098661ADDAY181031AY221031GF107991071021004501999999MA1999999091471MD1310111+9999MW1851REMSYN082AAXX  20091 01245 41460 73205 11034 21057 39147 49866 53011 78582 872// 333 4////;
0177012450999992008112012004+62600+009667FM-12+060699999V0202801N005010006019N0060001N1-00551-00721098841ADDAY181061AY221061GF107991071021000751999999MA1999999091571MD1110111+9999MW1861REMSYN088AAXX  20121 01245 11156 72805 11055 21072 39157 49884 51011 6//// 78682 872// 333 4////;
0207012450999992008112018004+62600+009667FM-12+060699999V0202701N005010021019N0100001N1-00621-00921098841ADDAA112005191AY181061AY281061GF105991051021002501001001KA1120M-00241MA1999999091571MD1010011+9999MW1851REMSYN094AAXX  20181 01245 11360 52705 11062 21092 39157 49884 50001 60052 78588 85200 333 11024 4////;
0247012450999992008112106004+62600+009667FM-12+060699999V0203201N007010021019N0060001N1-00681-00961098621ADDAA112005191AA224009791AJ100679199999999AY181061AY281061GF106991061021002501001001IA1239KA1120N-00711MA1999999091351MD1510091+9999MW1851REMSYN100AAXX  21061 01245 11356 63207 11068 21096 39135 49862 55009 60052 78588 86200 333 21071 47067 70096;
0181012450999992008112109004+62600+009667FM-12+060699999V0202701N010010003019N0005001N1-00581-00711098691ADDAY181031AY281031GA1091+999999999GF109991091999999999999999MA1999999091431MD1310091+9999MW1861REMSYN076AAXX  21091 01245 41005 92710 11058 21071 39143 49869 53009 78688 333 4////;
0187012450999992008112112004+62600+009667FM-12+060699999V0203201N010010006019N0010001N1-00501-00661098571ADDAY181061AY281061GA1091+999999999GF109991091999999999999999MA1999999091351MD1510091+9999MW1861REMSYN082AAXX  21121 01245 11010 93210 11050 21066 39135 49857 55009 6//// 78688 333 4////;
0207012450999992008112118004+62600+009667FM-12+060699999V0203601N001012200019N0200001N1-00541-00831098961ADDAA112005191AY181061AY211061GF102991021011012501001001KA1120M-00251MA1999999091701MD1110321+9999MW1011REMSYN094AAXX  21181 01245 11670 23601 11054 21083 39170 49896 51032 60052 70181 82100 333 11025 4////;
0266012450999992008112206004+62600+009667FM-12+060699999V0203201N001010120019N0200001N1-01061-01271100301ADDAA112000091AA224004691AJ100619199999999AY121061AY201061GF106991061011012501001001IA1239KA1120N-01161MA1999999092801MD1210181+9999MW1031REMSYN100AAXX  22061 01245 11670 63201 11106 21127 39280 40030 52018 60002 70320 86100 333 21116 47061 70046;EQDQ01  00002PRCP12
0171012450999992008112209004+62600+009667FM-12+060699999V0202701N001010012019N0100001N1-00551-00851100281ADDAY181031AY221031GF107991071021001501999999MA1999999092921MD1110131+9999MW1851REMSYN082AAXX  22091 01245 41260 72701 11055 21085 39292 40028 51013 78582 872// 333 4////;
0187012450999992008112212004+62600+009667FM-12+060699999V0203201N007010006019N0006001N1-00251-00431100181ADDAY181061AY221061GA1091+999999999GF109991091999999999999999MA1999999092901MD1810021+9999MW1861REMSYN082AAXX  22121 01245 11006 93207 11025 21043 39290 40018 58002 6//// 78682 333 4////;
0207012450999992008112218004+62600+009667FM-12+060699999V0203201N005010012019N0060001N1-00231-00401100421ADDAA112007991AY181061AY281061GF107991071021001501999999KA1120M-00061MA1999999093121MD1110141+9999MW1851REMSYN094AAXX  22181 01245 11256 73205 11023 21040 39312 40042 51014 60082 78588 872// 333 11006 4////;
0247012450999992008112306004+62600+009667FM-12+060699999V0209999C000010075019N0200001N1-00331-00581100051ADDAA112001091AA224008991AJ100689199999999AY181061AY221061GF107991071021008001999999IA1239KA1120N-00571MA1999999092761MD1810181+9999MW1021REMSYN100AAXX  23061 01245 11570 70000 11033 21058 39276 40005 58018 60012 70282 872// 333 21057 47068 70088;
0171012450999992008112309004+62600+009667FM-12+060699999V0200201N001010075019N0200001N1-00391-00611099981ADDAY121031AY201031GF106991061021008001999999MA1999999092671MD1610081+9999MW1011REMSYN082AAXX  23091 01245 41570 60201 11039 21061 39267 49998 56008 70120 862// 333 4////;
0177012450999992008112312004+62600+009667FM-12+060699999V0203201N001010075019N0200001N1-00431-00551099871ADDAY181061AY221061GF106991061011008001001001MA1999999092571MD1710121+9999MW1011REMSYN088AAXX  23121 01245 11570 63201 11043 21055 39257 49987 57012 6//// 70182 86100 333 4////;
0226012450999992008112318004+62600+009667FM-12+060699999V0200901N001010120019N0300001N1-00531-00691099741ADDAA112000091AY121061AY221061GF106991061011012501001001KA1120M-00201MA1999999092421MD1510041+9999MW1021REMSYN094AAXX  23181 01245 11680 60901 11053 21069 39242 49974 55004 69912 70222 86100 333 11020 4////;EQDQ01  00002PRCP12
0247012450999992008112406004+62600+009667FM-12+060699999V0203201N005010006019N0060001N1-00711-01081099781ADDAA112000021AA224000391AJ100639199999999AY181061AY221061GF107991071021000751999999IA1239KA1120N-00801MA1999999092411MD1310091+9999MW1851REMSYN100AAXX  24061 01245 11156 73205 11071 21108 39241 49978 53009 69912 78582 872// 333 21080 47063 70002;
0171012450999992008112409004+62600+009667FM-12+060699999V0202701N003010006019N0060001N1-00521-00761099721ADDAY181031AY281031GF107991071021000751999999MA1999999092411MD1010011+9999MW1851REMSYN082AAXX  24091 01245 41156 72703 11052 21076 39241 49972 50001 78588 872// 333 4////;
0177012450999992008112412004+62600+009667FM-12+060699999V0203201N001010021019N0100001N1-00311-00631099701ADDAY181061AY281061GF107991071021002501001001MA1999999092431MD1210041+9999MW1851REMSYN088AAXX  24121 01245 11360 73201 11031 21063 39243 49970 52004 6//// 78588 87200 333 4////;
0207012450999992008112418004+62600+009667FM-12+060699999V0202701N001010021019N0100001N1-00231-00511100011ADDAA112003091AY181061AY281061GF107991071021002501999999KA1120M-00171MA1999999092751MD1310211+9999MW1851REMSYN094AAXX  24181 01245 11360 72701 11023 21051 39275 40001 53021 60032 78588 872// 333 11017 4////;
0247012450999992008112506004+62600+009667FM-12+060699999V0209999C000012200019N0300001N1-00101-00401100631ADDAA112001091AA224004691AJ100639199999999AY181061AY211061GF104991041011012501001001IA1239KA1120N-00231MA1999999093361MD1210141+9999MW1011REMSYN100AAXX  25061 01245 11680 40000 11010 21040 39336 40063 52014 60012 70181 84100 333 21023 47063 70045;
0171012450999992008112509004+62600+009667FM-12+060699999V0202701N001010021019N0100001N1-00121-00371100801ADDAY181031AY211031GF107991071021002501999999MA1999999093511MD1110151+9999MW1851REMSYN082AAXX  25091 01245 41360 72701 11012 21037 39351 40080 51015 78581 872// 333 4////;
0177012450999992008112512004+62600+009667FM-12+060699999V0200901N001010021019N0100001N1-00121-00291100811ADDAY181061AY281061GF107991071021002501999999MA1999999093521MD1010021+9999MW1851REMSYN088AAXX  25121 01245 11360 70901 11012 21029 39352 40081 50002 6//// 78588 872// 333 4////;
0207012450999992008112518004+62600+009667FM-12+060699999V0203201N001012200019N0300001N1-00141-00351100581ADDAA112001091AY181061AY211061GF104991041011012501001001KA1120M+00021MA1999999093301MD1810191+9999MW1011REMSYN094AAXX  25181 01245 11680 43201 11014 21035 39330 40058 58019 69992 70181 84100 333 10002 4////;
0247012450999992008112606004+62600+009667FM-12+060699999V0203201N001010042019N0100001N1+00101+00011099381ADDAA112005191AA224005391AJ100589199999999AY181061AY211061GF108991081001004501021999IA1239KA1120N-00141MA1999999092251MD1710041+9999MW1601REMSYN100AAXX  26061 01245 11460 83201 10010 20001 39225 49938 57004 60052 76081 8802/ 333 21014 47058 70054;
0171012450999992008112609004+62600+009667FM-12+060699999V0202701N001010021019N0100001N1-00041-00141099691ADDAY171031AY261031GF108991071071002501021999MA1999999092501MD1110231+9999MW1701REMSYN082AAXX  26091 01245 41360 82701 11004 21014 39250 49969 51023 77076 8772/ 333 4////;
0177012450999992008112612004+62600+009667FM-12+060699999V0202701N001010006019N0060001N1-00071-00181099591ADDAY171061AY261061GF108991081071000751999999MA1999999092401MD1810091+9999MW1711REMSYN088AAXX  26121 01245 11156 82701 11007 21018 39240 49959 58009 6//// 77176 887// 333 4////;
0207012450999992008112618004+62600+009667FM-12+060699999V0202601N001010006019N0050001N1-00101-00161099461ADDAA112008991AY171061AY271061GF108991081071000751999999KA1120M+00351MA1999999092271MD1810061+9999MW1731REMSYN094AAXX  26181 01245 11150 82601 11010 21016 39227 49946 58006 60092 77377 887// 333 10035 4////;
0247012450999992008112706004+62600+009667FM-12+060699999V0202301N003010120019N0200001N1+00481+00041098191ADDAA112007191AA224016091AJ100669199999999AY171061AY261061GF108991081001012501021999IA1239KA1120N-00101MA1999999091231MD1810151+9999MW1011REMSYN100AAXX  27061 01245 11670 82303 10048 20004 39123 49819 58015 60072 70176 8802/ 333 21010 47066 70160;
0171012450999992008112709004+62600+009667FM-12+060699999V0203201N003010300019N0300001N1+00461-00101098091ADDAY121031AY221031GF106991021071012501011001MA1999999091131MD1510091+9999MW1011REMSYN082AAXX  27091 01245 41680 63203 10046 21010 39113 49809 55009 70122 82710 333 4////;
0177012450999992008112712004+62600+009667FM-12+060699999V0203001N005010300019N0300001N1+00651-00051097901ADDAY121061AY221061GF106991021071012501011001MA1999999091011MD1610121+9999MW1021REMSYN088AAXX  27121 01245 11680 63005 10065 21005 39101 49790 56012 6//// 70222 82710 333 4////;
0226012450999992008112718004+62600+009667FM-12+060699999V0202301N005012200019N0300001N1+00321-00571097891ADDAA112000091AY121061AY201061GF102991021011012501001001KA1120M+00701MA1999999090921MD1510101+9999MW1011REMSYN094AAXX  27181 01245 11680 22305 10032 21057 39092 49789 55010 60002 70120 82100 333 10070 4////;EQDQ01  00002PRCP12
0282012450999992008112806004+62600+009667FM-12+060699999V0203601N001012200019N0300001N1-00121-00781099011ADDAA112000091AA224000091AJ100559199999999AY101061AY201061GF102991021011012501001001IA1239KA1120N-00151MA1999999091851MD1310341+9999MW1021REMSYN100AAXX  28061 01245 11680 23601 11012 21078 39185 49901 53034 60002 70200 82100 333 21015 47055 70000;EQDQ01  00002PRCP24Q02  00002PRCP12
0171012450999992008112809004+62600+009667FM-12+060699999V0203201N003012200019N0400001N1-00151-01031099311ADDAY101031AY201031GF102991011011012501001011MA1999999092121MD1210281+9999MW1021REMSYN082AAXX  28091 01245 41682 23203 11015 21103 39212 49931 52028 70200 81101 333 4////;
0177012450999992008112812004+62600+009667FM-12+060699999V0202301N001012200019N0400001N1-00111-01061099481ADDAY101061AY201061GF102991011011012501001011MA1999999092281MD1110121+9999MW1021REMSYN088AAXX  28121 01245 11682 22301 11011 21106 39228 49948 51012 6//// 70200 81101 333 4////;
0226012450999992008112818004+62600+009667FM-12+060699999V0203201N001012200019N0400001N1-00201-00901099751ADDAA112000091AY101061AY201061GF102991011011012501001011KA1120M+00201MA1999999092521MD1210161+9999MW1021REMSYN094AAXX  28181 01245 11682 23201 11020 21090 39252 49975 52016 60002 70200 81101 333 10020 4////;EQDQ01  00002PRCP12
0282012450999992008112906004+62600+009667FM-12+060699999V0203401N001012200019N0400001N1-00521-01001100491ADDAA112000091AA224000091AJ100539199999999AY101061AY201061GF101991001001999999001011IA1239KA1120N-00651MA1999999093121MD1210071+9999MW1011REMSYN100AAXX  29061 01245 11982 13401 11052 21100 39312 40049 52007 60002 70100 80001 333 21065 47053 70000;EQDQ01  00002PRCP24Q02  00002PRCP12
0171012450999992008112909004+62600+009667FM-12+060699999V0200401N001010150019N0400001N1-00731-01061100671ADDAY121031AY201031GF106991061001017501011001MA1999999093221MD1310091+9999MW1031REMSYN082AAXX  29091 01245 41782 60401 11073 21106 39322 40067 53009 70320 86010 333 4////;
0177012450999992008112912004+62600+009667FM-12+060699999V0201101N001010150019N0400001N1-00421-00851100571ADDAY121061AY201061GF107991071001017501011999MA1999999093221MD1010011+9999MW1031REMSYN088AAXX  29121 01245 11782 71101 11042 21085 39322 40057 50001 6//// 70320 8701/ 333 4////;
0207012450999992008112918004+62600+009667FM-12+060699999V0200901N003010075019N0200001N1-00231-00461100291ADDAA112000021AY171061AY221061GF107991051051008001021999KA1120M+00061MA1999999093011MD1710081+9999MW1701REMSYN094AAXX  29181 01245 11570 70903 11023 21046 39301 40029 57008 69902 77072 8552/ 333 10006 4////;
0247012450999992008113006004+62600+009667FM-12+060699999V0203201N001010120019N0200001N1-00061-00501099601ADDAA112000021AA224000021AJ100529199999999AY171061AY221061GF107991051071012501021999IA1239KA1120N-00211MA1999999092411MD1610121+9999MW1011REMSYN100AAXX  30061 01245 11670 73201 11006 21050 39241 49960 56012 69912 70172 8572/ 333 21021 47052 70001;
0171012450999992008113009004+62600+009667FM-12+060699999V0203201N001010150019N0300001N1-00101-00491099591ADDAY121031AY221031GF107991071001017501011999MA1999999092381MD1510021+9999MW1021REMSYN082AAXX  30091 01245 41780 73201 11010 21049 39238 49959 55002 70222 8701/ 333 4////;
0196012450999992008113012004+62600+009667FM-12+060699999V0209999C000019999999N0400001N1-00021-00551099601ADDAY111061AY201061GF107991999001002501021001MA1999999092421MD1210031+9999MW1011REMSYN088AAXX  30121 01245 11382 70000 11002 21055 39242 49960 52003 6//// 70110 83020 333 4////;EQDQ01+000032SCOTLC
0226012450999992008113018004+62600+009667FM-12+060699999V0209999C000010120019N0200001N1-00241-00681099891ADDAA112000091AY121061AY211061GF106991061051012501001001KA1120M+00071MA1999999092631MD1210151+9999MW1011REMSYN094AAXX  30181 01245 11670 60000 11024 21068 39263 49989 52015 60002 70121 86500 333 10007 4////;EQDQ01  00002PRCP12
0282012450999992008120106004+62600+009667FM-12+060699999V0201201N001010120019N0300001N1-00501-00961100481ADDAA112000091AA224000091AJ100519199999999AY121061AY221061GF105991051051012501001001IA1239KA1120N-00601MA1999999093121MD1210151+9999MW1011REMSYN100AAXX  01061 01245 11680 51201 11050 21096 39312 40048 52015 60002 70122 85500 333 21060 47051 70000;EQDQ01  00002PRCP24Q02  00002PRCP12
0171012450999992008120109004+62600+009667FM-12+060699999V0209999C000010120019N0300001N1-00621-01001100601ADDAY121031AY221031GF106991061051012501001001MA1999999093201MD1310081+9999MW1031REMSYN082AAXX  01091 01245 41680 60000 11062 21100 39320 40060 53008 70322 86500 333 4////;
0177012450999992008120112004+62600+009667FM-12+060699999V0209999C000010210019N0400001N1-00511-01001100611ADDAY121061AY221061GF105991051001022501011001MA1999999093221MD1010031+9999MW1011REMSYN088AAXX  01121 01245 11882 50000 11051 21100 39322 40061 50003 6//// 70122 85010 333 4////;
0236012450999992008120118004+62600+009667FM-12+060699999V0209999C000012200019N0400001N1-00801-01111100581ADDAA112000091AY121061AY201061GA1001+999999999GF100991001001999999001001KA1120M-00301MA1999999093121MD1810051+9999MW1011REMSYN088AAXX  01181 01245 11982 00000 11080 21111 39312 40058 58005 60002 70120 333 11030 4////;EQDQ01  00002PRCP12
0292012450999992008120206004+62600+009667FM-12+060699999V0201201N001012200019N0400001N1-00461-00891100281ADDAA112000091AA224000091AJ100519199999999AY121061AY201061GA1001+999999999GF100991001001999999001001IA1239KA1120N-00881MA1999999092931MD1710041+9999MW1011REMSYN094AAXX  02061 01245 11982 01201 11046 21089 39293 40028 57004 60002 70120 333 21088 47051 70000;EQDQ01  00002PRCP24Q02  00002PRCP12
0171012450999992008120209004+62600+009667FM-12+060699999V0203601N001012200019N0400001N1-00411-00911100291ADDAY101031AY201031GF102991011011012501001011MA1999999092961MD1210021+9999MW1031REMSYN082AAXX  02091 01245 41682 23601 11041 21091 39296 40029 52002 70300 81101 333 4////;
0177012450999992008120212004+62600+009667FM-12+060699999V0200901N001010300019N0400001N1-00501-00931100231ADDAY111061AY201061GF105991041011012501041011MA1999999092871MD1810091+9999MW1031REMSYN088AAXX  02121 01245 11682 50901 11050 21093 39287 40023 58009 6//// 70310 84141 333 4////;
0226012450999992008120218004+62600+009667FM-12+060699999V0200501N001012200019N0300001N1-00761-01001100181ADDAA112000091AY111061AY201061GF104991041011012501001001KA1120M-00261MA1999999092771MD1710041+9999MW1021REMSYN094AAXX  02181 01245 11680 40501 11076 21100 39277 40018 57004 60002 70210 84100 333 11026 4////;EQDQ01  00002PRCP12
0247012450999992008120306004+62600+009667FM-12+060699999V0209999C000010042019N0100001N1-00521-00621099701ADDAA112000891AA224000891AJ100529199999999AY171061AY211061GF107991071001004501021999IA1239KA1120N-00741MA1999999092381MD1710101+9999MW1711REMSYN100AAXX  03061 01245 11460 70000 11052 21062 39238 49970 57010 69982 77171 8702/ 333 21074 47052 70008;
0171012450999992008120309004+62600+009667FM-12+060699999V0209999C000010012019N0060001N1-00481-00581099641ADDAY171031AY271031GF108991081061001501999999MA1999999092331MD1710061+9999MW1711REMSYN082AAXX  03091 01245 41256 80000 11048 21058 39233 49964 57006 77177 886// 333 4////;
0177012450999992008120312004+62600+009667FM-12+060699999V0209999C000010042019N0100001N1-00461-00571099491ADDAY171061AY271061GF107991051061004501011999MA1999999092211MD1810131+9999MW1711REMSYN088AAXX  03121 01245 11460 70000 11046 21057 39221 49949 58013 6//// 77177 8561/ 333 4////;
0185012450999992008120318004+62600+009667FM-12+060699999V0209999C000010120019N0300001N1-00671-00771099391ADDAA112000391GF105991051011012501001001KA1120M-00271MA1999999092061MD1810061+9999REMSYN094AAXX  03181 01245 11680 50000 11067 21077 39206 49939 58006 69932 7//72 85100 333 11027 4////;
0247012450999992008120406004+62600+009667FM-12+060699999V0209999C000010075019N0200001N1-00771-00881099091ADDAA112000021AA224000591AJ100529199999999AY171061AY221061GF106991061001008001021001IA1239KA1120N-00981MA1999999091761MD1710051+9999MW1701REMSYN100AAXX  04061 01245 11570 60000 11077 21088 39176 49909 57005 69912 77072 86020 333 21098 47052 70004;
0171012450999992008120409004+62600+009667FM-12+060699999V0209999C000012200019N0400001N1-00841-00951099171ADDAY171031AY211031GF103991021001022501031011MA1999999091811MD1310051+9999MW1011REMSYN082AAXX  04091 01245 41882 30000 11084 21095 39181 49917 53005 70171 82031 333 4////;
0177012450999992008120412004+62600+009667FM-12+060699999V0209999C000010210019N0400001N1-00531-00801099171ADDAY171061AY211061GF105991051001022501051001MA1999999091881MD1210091+9999MW1031REMSYN088AAXX  04121 01245 11882 50000 11053 21080 39188 49917 52009 6//// 70371 85050 333 4////;
0217012450999992008120418004+62600+009667FM-12+060699999V0203201N001012200019N0400001N1-00801-01171099451ADDAA112000021AY121061AY201061GA1001+999999999GF100991001001999999001001KA1120M-00431MA1999999092071MD1310121+9999MW1011REMSYN088AAXX  04181 01245 11982 03201 11080 21117 39207 49945 53012 69902 70120 333 11043 4////;
0276012450999992008120506004+62600+009667FM-12+060699999V0202301N001012200019N0400001N1-00661-01391099681ADDAA112000091AA224000021AJ100529199999999AY101061AY201061GA1001+999999999GF100991001001999999001001IA1239KA1120N-00951MA1999999092321MD1010041+9999MW1021REMSYN094AAXX  05061 01245 11982 02301 11066 21139 39232 49968 50004 60002 70200 333 21095 47052 70000;EQDQ01  00002PRCP12
0171012450999992008120509004+62600+009667FM-12+060699999V0203601N001012200019N0400001N1-00661-01441099821ADDAY101031AY201031GF101991001001999999001011MA1999999092461MD1210121+9999MW1031REMSYN082AAXX  05091 01245 41982 13601 11066 21144 39246 49982 52012 70300 80001 333 4////;
0177012450999992008120512004+62600+009667FM-12+060699999V0203601N001010300019N0400001N1-00491-01301099881ADDAY121061AY201061GF105991041051012501031001MA1999999092561MD1110111+9999MW1031REMSYN088AAXX  05121 01245 11682 53601 11049 21130 39256 49988 51011 6//// 70320 84530 333 4////;
0226012450999992008120518004+62600+009667FM-12+060699999V0209999C000010120019N0200001N1-00161-00881099861ADDAA112000091AY121061AY221061GF108991081051012501999999KA1120M-00101MA1999999092621MD1310041+9999MW1031REMSYN094AAXX  05181 01245 11670 80000 11016 21088 39262 49986 53004 60002 70322 885// 333 11010 4////;EQDQ01  00002PRCP12
0282012450999992008120606004+62600+009667FM-12+060699999V0209999C000012200019N0300001N1-00461-00761100451ADDAA112000091AA224000091AJ100529199999999AY121061AY201061GF103991001001999999001011IA1239KA1120N-00461MA1999999093101MD1210151+9999MW1011REMSYN100AAXX  06061 01245 11980 30000 11046 21076 39310 40045 52015 60002 70120 80001 333 21046 47052 70000;EQDQ01  00002PRCP24Q02  00002PRCP12
0171012450999992008120609004+62600+009667FM-12+060699999V0209999C000012200019N0400001N1-00711-00991100631ADDAY101031AY201031GF103991031001022501031001MA1999999093201MD1210201+9999MW1021REMSYN082AAXX  06091 01245 41882 30000 11071 21099 39320 40063 52020 70200 83030 333 4////;
0177012450999992008120612004+62600+009667FM-12+060699999V0209999C000012200019N0400001N1-00661-00931100901ADDAY101061AY201061GF103991031001022501031001MA1999999093461MD1210171+9999MW1021REMSYN088AAXX  06121 01245 11882 30000 11066 21093 39346 40090 52017 6//// 70200 83030 333 4////;
0236012450999992008120618004+62600+009667FM-12+060699999V0209999C000012200019N0400001N1-00961-01181101351ADDAA112000091AY101061AY201061GA1001+999999999GF100991001001999999001001KA1120M-00301MA1999999093801MD1210181+9999MW1011REMSYN088AAXX  06181 01245 11982 00000 11096 21118 39380 40135 52018 60002 70100 333 11030 4////;EQDQ01  00002PRCP12
0292012450999992008120706004+62600+009667FM-12+060699999V0209999C000012200019N0400001N1-01021-01481101621ADDAA112000091AA224000091AJ100519199999999AY101061AY201061GA1001+999999999GF100991001001999999001001IA1239KA1120N-01301MA1999999094021MD1010001+9999MW1021REMSYN094AAXX  07061 01245 11982 00000 11102 21148 39402 40162 50000 60002 70200 333 21130 47051 70000;EQDQ01  00002PRCP24Q02  00002PRCP12
0171012450999992008120709004+62600+009667FM-12+060699999V0202801N001019999999N0400001N1-01091-01411101671ADDAY121031AY201031GF106991001001999999001061MA1999999094061MD1210041+9999MW1031REMSYN082AAXX  07091 01245 41982 62801 11109 21141 39406 40167 52004 70320 80006 333 4////;
0177012450999992008120712004+62600+009667FM-12+060699999V0209999C000012200019N0400001N1-00881-01281101531ADDAY111061AY201061GF104991001001999999001051MA1999999093981MD1810081+9999MW1011REMSYN088AAXX  07121 01245 11982 40000 11088 21128 39398 40153 58008 6//// 70110 80005 333 4////;
0236012450999992008120718004+62600+009667FM-12+060699999V0202301N001012200019N0300001N1-00351-01121101131ADDAA112000091AY101061AY201061GA1001+999999999GF100991001001999999001001KA1120M-00271MA1999999093761MD1810181+9999MW1011REMSYN088AAXX  07181 01245 11980 02301 11035 21112 39376 40113 58018 60002 70100 333 11027 4////;EQDQ01  00002PRCP12
0282012450999992008120806004+62600+009667FM-12+060699999V0201801N005010120019N0200001N1+00221-00471099871ADDAA112000091AA224000091AJ100529199999999AY121061AY201061GF107991071001012501021999IA1239KA1120N-00321MA1999999092721MD1710141+9999MW1031REMSYN100AAXX  08061 01245 11670 71805 10022 21047 39272 49987 57014 60002 70320 8702/ 333 21032 47052 70000;EQDQ01  00002PRCP24Q02  00002PRCP12
0171012450999992008120809004+62600+009667FM-12+060699999V0209999C000010012019N0060001N1-00191-00291100171ADDAY171031AY221031GF108991081001001501021999MA1999999092911MD1310171+9999MW1711REMSYN082AAXX  08091 01245 41256 80000 11019 21029 39291 40017 53017 77172 8802/ 333 4////;
0177012450999992008120812004+62600+009667FM-12+060699999V0209999C000012200019N0200001N1-00311-00461100231ADDAY171061AY211061GF104991041051008001001001MA1999999092921MD1010021+9999MW1701REMSYN088AAXX  08121 01245 11570 40000 11031 21046 39292 40023 50002 6//// 77071 84500 333 4////;
0207012450999992008120818004+62600+009667FM-12+060699999V0209999C000010012019N0009001N1-00481-00621100421ADDAA112002091AY171061AY221061GF107991071051001501999999KA1120M+00381MA1999999093071MD1310111+9999MW1461REMSYN094AAXX  08181 01245 11209 70000 11048 21062 39307 40042 53011 60022 74672 875// 333 10038 4////;
0266012450999992008120906004+62600+009667FM-12+060699999V0202301N001012200019N0300001N1-00191-00851100471ADDAA112000091AA224001891AJ100529199999999AY141061AY211061GF103991031051012501001001IA1239KA1120N-00641MA1999999093181MD1210021+9999MW1031REMSYN100AAXX  09061 01245 11680 32301 11019 21085 39318 40047 52002 60002 70341 83500 333 21064 47052 70018;EQDQ01  00002PRCP12
0171012450999992008120909004+62600+009667FM-12+060699999V0202701N003012200019N0400001N1-00281-00931100511ADDAY101031AY201031GF101991011011012501001001MA1999999093201MD1010011+9999MW1011REMSYN082AAXX  09091 01245 41682 12703 11028 21093 39320 40051 50001 70100 81100 333 4////;
0177012450999992008120912004+62600+009667FM-12+060699999V0202701N003012200019N0400001N1-00241-01001100531ADDAY101061AY201061GF103991011011012501041011MA1999999093221MD1210021+9999MW1031REMSYN088AAXX  09121 01245 11682 32703 11024 21100 39322 40053 52002 6//// 70300 81141 333 4////;
0226012450999992008120918004+62600+009667FM-12+060699999V0203601N001010210019N0300001N1-00241-00961100501ADDAA112000091AY121061AY201061GF105991051001022501011001KA1120M-00041MA1999999093201MD1510001+9999MW1011REMSYN094AAXX  09181 01245 11880 53601 11024 21096 39320 40050 55000 60002 70120 85010 333 11004 4////;EQDQ01  00002PRCP12
0292012450999992008121005004+62600+009667FM-12+060699999V0200301N001012200019N0300001N1-01061-01381101591ADDAA112000091AA224000091AJ100529199999999AY101999AY201999GA1001+999999999GF100991001001999999001001IA1239KA1120N-01061MA1999999093981MD1310251+9999MW1021REMSYN094AAXX  10051 01245 11980 00301 11106 21138 39398 40159 53025 60002 70200 333 21106 47052 70000;EQDQ01  00002PRCP24Q02  00002PRCP12
0292012450999992008121006004+62600+009667FM-12+060699999V0200301N001012200019N0300001N1-01061-01381101591ADDAA112000091AA224000091AJ100529199999999AY101061AY201061GA1001+999999999GF100991001001999999001001IA1239KA1120N-01061MA1999999093981MD1310251+9999MW1021REMSYN094AAXX  10061 01245 11980 00301 11106 21138 39398 40159 53025 60002 70200 333 21106 47052 70000;EQDQ01  00002PRCP24Q02  00002PRCP12
0181012450999992008121008004+62600+009667FM-12+060699999V0209999C000012200019N0400001N1-01081-01441101831ADDAY101999AY201999GA1001+999999999GF100991001001999999001001MA1999999094211MD1110231+9999MW1021REMSYN076AAXX  10081 01245 41982 00000 11108 21144 39421 40183 51023 70200 333 4////;
0181012450999992008121009004+62600+009667FM-12+060699999V0209999C000012200019N0400001N1-01081-01441101831ADDAY101031AY201031GA1001+999999999GF100991001001999999001001MA1999999094211MD1110231+9999MW1021REMSYN076AAXX  10091 01245 41982 00000 11108 21144 39421 40183 51023 70200 333 4////;
0177012450999992008121012004+62600+009667FM-12+060699999V0203201N001012200019N0400001N1-01161-01521101961ADDAY101061AY201061GF101991001001999999001011MA1999999094311MD1210111+9999MW1031REMSYN088AAXX  10121 01245 11982 13201 11116 21152 39431 40196 52011 6//// 70300 80001 333 4////;
0177012450999992008121013004+62600+009667FM-12+060699999V0203201N001012200019N0400001N1-01161-01521101961ADDAY101999AY201999GF101991001001999999001011MA1999999094311MD1210111+9999MW1031REMSYN088AAXX  10131 01245 11982 13201 11116 21152 39431 40196 52011 6//// 70300 80001 333 4////;
0236012450999992008121018004+62600+009667FM-12+060699999V0209999C000012200019N0400001N1-00981-01511102121ADDAA112000091AY101061AY201061GA1001+999999999GF100991001001999999001001KA1120M-00921MA1999999094511MD1310101+9999MW1021REMSYN088AAXX  10181 01245 11982 00000 11098 21151 39451 40212 53010 60002 70200 333 11092 4////;EQDQ01  00002PRCP12
0292012450999992008121106004+62600+009667FM-12+060699999V0209999C000012200019N0400001N1-01031-01471102271ADDAA112000091AA224000091AJ100529199999999AY101061AY201061GA1001+999999999GF100991001001999999001001IA1239KA1120N-01181MA1999999094621MD1210021+9999MW1021REMSYN094AAXX  11061 01245 11982 00000 11103 21147 39462 40227 52002 60002 70200 333 21118 47052 70000;EQDQ01  00002PRCP24Q02  00002PRCP12
0181012450999992008121109004+62600+009667FM-12+060699999V0209999C000012200019N0400001N1-01071-01481102391ADDAY101031AY201031GA1001+999999999GF100991001001999999001001MA1999999094721MD1310101+9999MW1021REMSYN076AAXX  11091 01245 41982 00000 11107 21148 39472 40239 53010 70200 333 4////;
0226012450999992008121118004+62600+009667FM-12+060699999V0203601N003012200019N0400001N1-00771-01201102221ADDAA112000091AY101061AY201061GF104991041001022501011001KA1120M-00591MA1999999094661MD1810061+9999MW1031REMSYN094AAXX  11181 01245 11882 43603 11077 21120 39466 40222 58006 60002 70300 84010 333 11059 4////;EQDQ01  00002PRCP12
0282012450999992008121206004+62600+009667FM-12+060699999V0203601N003012200019N0400001N1-00631-01251101631ADDAA112000091AA224000091AJ100529199999999AY101061AY201061GF103991031001022501041001IA1239KA1120N-00891MA1999999094151MD1810091+9999MW1011REMSYN100AAXX  12061 01245 11882 33603 11063 21125 39415 40163 58009 60002 70100 83040 333 21089 47052 70000;EQDQ01  00002PRCP24Q02  00002PRCP12
0171012450999992008121209004+62600+009667FM-12+060699999V0202401N003012200019N0400001N1-00611-01251101651ADDAY101031AY201031GF103991011011012501041001MA1999999094171MD1210021+9999MW1021REMSYN082AAXX  12091 01245 41682 32403 11061 21125 39417 40165 52002 70200 81140 333 4////;
0177012450999992008121212004+62600+009667FM-12+060699999V0203201N001012200019N0400001N1-00501-01161101491ADDAY101061AY201061GF102991011001022501041081MA1999999094051MD1810111+9999MW1011REMSYN088AAXX  12121 01245 11882 23201 11050 21116 39405 40149 58011 6//// 70100 81048 333 4////;
0236012450999992008121218004+62600+009667FM-12+060699999V0209999C000012200019N0400001N1-00711-01361101361ADDAA112000091AY101061AY201061GA1001+999999999GF100991001001999999001001KA1120M-00461MA1999999093871MD1510081+9999MW1011REMSYN088AAXX  12181 01245 11982 00000 11071 21136 39387 40136 55008 60002 70100 333 11046 4////;EQDQ01  00002PRCP12
0282012450999992008121306004+62600+009667FM-12+060699999V0202301N003012200019N0400001N1-00621-01621101221ADDAA112000091AA224000091AJ100529199999999AY101061AY201061GF102991001001999999001081IA1239KA1120N-00871MA1999999093771MD1310041+9999MW1031REMSYN100AAXX  13061 01245 11982 22303 11062 21162 39377 40122 53004 60002 70300 80008 333 21087 47052 70000;EQDQ01  00002PRCP24Q02  00002PRCP12
0171012450999992008121309004+62600+009667FM-12+060699999V0202301N003012200019N0400001N1-00491-01301101321ADDAY101031AY201031GF102991011001022501041081MA1999999093901MD1110131+9999MW1021REMSYN082AAXX  13091 01245 41882 22303 11049 21130 39390 40132 51013 70200 81048 333 4////;
0177012450999992008121312004+62600+009667FM-12+060699999V0202401N005012200019N0400001N1-00151-00871101261ADDAY101061AY201061GF102991021001022501041081MA1999999093921MD1510001+9999MW1011REMSYN088AAXX  13121 01245 11882 22405 11015 21087 39392 40126 55000 6//// 70100 82048 333 4////;
0226012450999992008121318004+62600+009667FM-12+060699999V0202401N005010210019N0400001N1-00121-00841101501ADDAA112000091AY121061AY201061GF105991051001022501011001KA1120M-00071MA1999999094161MD1110131+9999MW1031REMSYN094AAXX  13181 01245 11882 52405 11012 21084 39416 40150 51013 60002 70320 85010 333 11007 4////;EQDQ01  00002PRCP12
0282012450999992008121406004+62600+009667FM-12+060699999V0201801N005010120019N0300001N1+00021-00821101951ADDAA112000091AA224000091AJ100499199999999AY121061AY221061GF106991061051012501001001IA1239KA1120N-00141MA1999999094611MD1310181+9999MW1031REMSYN100AAXX  14061 01245 11680 61805 10002 21082 39461 40195 53018 60002 70322 86500 333 21014 47049 70000;EQDQ01  00002PRCP24Q02  00002PRCP12
0171012450999992008121409004+62600+009667FM-12+060699999V0202301N003010075019N0300001N1+00031-00571102031ADDAY121031AY221031GF106991051051008001001041MA1999999094681MD1110081+9999MW1021REMSYN082AAXX  14091 01245 41580 62303 10003 21057 39468 40203 51008 70222 85504 333 4////;
0177012450999992008121412004+62600+009667FM-12+060699999V0201801N005010075019N0200001N1+00111-00671101951ADDAY121061AY221061GF106991051051008001001041MA1999999094631MD1810041+9999MW1021REMSYN088AAXX  14121 01245 11570 61805 10011 21067 39463 40195 58004 6//// 70222 85504 333 4////;
0226012450999992008121418004+62600+009667FM-12+060699999V0200901N005010120019N0300001N1+00081-00601102201ADDAA112000091AY121061AY201061GF105991051011012501001001KA1120M+00331MA1999999094861MD1310141+9999MW1031REMSYN094AAXX  14181 01245 11680 50905 10008 21060 39486 40220 53014 60002 70320 85100 333 10033 4////;EQDQ01  00002PRCP12
0282012450999992008121506004+62600+009667FM-12+060699999V0209999C000012200019N0300001N1+00131-00541102081ADDAA112000091AA224000091AJ100489199999999AY121061AY201061GF104991031011012501001011IA1239KA1120N-00021MA1999999094761MD1710091+9999MW1021REMSYN100AAXX  15061 01245 11680 40000 10013 21054 39476 40208 57009 60002 70220 83101 333 21002 47048 70000;EQDQ01  00002PRCP24Q02  00002PRCP12
0171012450999992008121509004+62600+009667FM-12+060699999V0200901N001010120019N0400001N1+00121-00501102001ADDAY121031AY201031GF105991051041012501001001MA1999999094681MD1710071+9999MW1031REMSYN082AAXX  15091 01245 41682 50901 10012 21050 39468 40200 57007 70320 85400 333 4////;
0177012450999992008121512004+62600+009667FM-12+060699999V0201801N003010120019N0400001N1+00321-00361101771ADDAY121061AY201061GF105991051041012501001001MA1999999094521MD1810191+9999MW1021REMSYN088AAXX  15121 01245 11682 51803 10032 21036 39452 40177 58019 6//// 70220 85400 333 4////;
0226012450999992008121518004+62600+009667FM-12+060699999V0202301N005012200019N0300001N1+00041-00541101541ADDAA112000091AY121061AY201061GF104991041011012501001001KA1120M+00431MA1999999094231MD1510151+9999MW1011REMSYN094AAXX  15181 01245 11680 42305 10004 21054 39423 40154 55015 60002 70120 84100 333 10043 4////;EQDQ01  00002PRCP12
0282012450999992008121606004+62600+009667FM-12+060699999V0202301N010010210019N0300001N1+00241-00501100581ADDAA112000091AA224000091AJ100469199999999AY121061AY221061GF108991081001022501021999IA1239KA1120N+00001MA1999999093401MD1510041+9999MW1031REMSYN100AAXX  16061 01245 11880 82310 10024 21050 39340 40058 55004 60002 70322 8802/ 333 20000 47046 70000;EQDQ01  00002PRCP24Q02  00002PRCP12
0171012450999992008121609004+62600+009667FM-12+060699999V0202301N012010120019N0300001N1+00331-00441100451ADDAY121031AY221031GF108991051051012501021999MA1999999093301MD1810101+9999MW1021REMSYN082AAXX  16091 01245 41680 82312 10033 21044 39330 40045 58010 70222 8552/ 333 4////;
0177012450999992008121612004+62600+009667FM-12+060699999V0203201N003010120019N0300001N1+00301-00381100381ADDAY121061AY221061GF108991051051012501021999MA1999999093221MD1810081+9999MW1021REMSYN088AAXX  16121 01245 11680 83203 10030 21038 39322 40038 58008 6//// 70222 8552/ 333 4////;
0226012450999992008121618004+62600+009667FM-12+060699999V0203001N010010120019N0300001N1+00371-00311100271ADDAA112000091AY121061AY221061GF108991051051012501011999KA1120M+00441MA1999999093131MD1510021+9999MW1021REMSYN094AAXX  16181 01245 11680 83010 10037 21031 39313 40027 55002 60002 70222 8551/ 333 10044 4////;EQDQ01  00002PRCP12
0282012450999992008121706004+62600+009667FM-12+060699999V0202301N010019999999N0200001N1+00221-00411099471ADDAA112000091AA224000091AJ100439199999999AY121061AY221061GF107991071001008001011999IA1239KA1120N+00221MA1999999092361MD1610261+9999MW1021REMSYN100AAXX  17061 01245 11570 72310 10022 21041 39236 49947 56026 60002 70222 8701/ 333 20022 47043 70000;EQDQ01  00002PRCP24Q02  00002PRCP12
0171012450999992008121709004+62600+009667FM-12+060699999V0202301N012010042019N0200001N1+00151-00411099341ADDAY121031AY221031GF108991081001004501021999MA1999999092221MD1810151+9999MW1151REMSYN082AAXX  17091 01245 41470 82312 10015 21041 39222 49934 58015 71522 8802/ 333 4////;
0177012450999992008121712004+62600+009667FM-12+060699999V0202101N010010300019N0300001N1+00201-00471099371ADDAY121061AY221061GF106991021011008001021001MA1999999092261MD1010051+9999MW1011REMSYN088AAXX  17121 01245 11580 62110 10020 21047 39226 49937 50005 6//// 70122 82120 333 4////;
0236012450999992008121718004+62600+009667FM-12+060699999V0202301N007012200019N0300001N1+00101-00801099651ADDAA112000091AY121061AY201061GA1001+999999999GF100991001001999999001001KA1120M+00421MA1999999092501MD1310131+9999MW1011REMSYN088AAXX  17181 01245 11980 02307 10010 21080 39250 49965 53013 60002 70120 333 10042 4////;EQDQ01  00002PRCP12
0282012450999992008121806004+62600+009667FM-12+060699999V0203201N005012200019N0300001N1+00141-00511098901ADDAA112000091AA224000091AJ100429199999999AY101061AY201061GF104991041011012501001001IA1239KA1120N-00021MA1999999091811MD1610221+9999MW1031REMSYN100AAXX  18061 01245 11680 43205 10014 21051 39181 49890 56022 60002 70300 84100 333 21002 47042 70000;EQDQ01  00002PRCP24Q02  00002PRCP12
0171012450999992008121809004+62600+009667FM-12+060699999V0202301N012010042019N0100001N1+00281-00171098551ADDAY171031AY211031GF108991081001004501021999MA1999999091521MD1610311+9999MW1681REMSYN082AAXX  18091 01245 41460 82312 10028 21017 39152 49855 56031 76871 8802/ 333 4////;
0177012450999992008121812004+62600+009667FM-12+060699999V0202401N015012200019N0300001N1+00481-00321098541ADDAY171061AY211061GF104991011011008001001051MA1999999091561MD1010061+9999MW1011REMSYN088AAXX  18121 01245 11580 42415 10048 21032 39156 49854 50006 6//// 70171 81105 333 4////;
0207012450999992008121818004+62600+009667FM-12+060699999V0202301N010012200019N0300001N1+00371-00501098771ADDAA112000021AY101061AY201061GF102991021011012501001001KA1120M+00641MA1999999091751MD1310091+9999MW1011REMSYN094AAXX  18181 01245 11680 22310 10037 21050 39175 49877 53009 69912 70100 82100 333 10064 4////;
0266012450999992008121906004+62600+009667FM-12+060699999V0202301N001012200019N0300001N1+00031-00761099901ADDAA112000091AA224000021AJ100429199999999AY101061AY201061GF101991011011012501001001IA1239KA1120N-00091MA1999999092711MD1310171+9999MW1021REMSYN100AAXX  19061 01245 11680 12301 10003 21076 39271 49990 53017 60002 70200 81100 333 21009 47042 70001;EQDQ01  00002PRCP12
0171012450999992008121909004+62600+009667FM-12+060699999V0203201N001012200019N0400001N1-00031-00781100141ADDAY101031AY201031GF102991021011012501001001MA1999999092921MD1110201+9999MW1031REMSYN082AAXX  19091 01245 41682 23201 11003 21078 39292 40014 51020 70300 82100 333 4////;
0177012450999992008121912004+62600+009667FM-12+060699999V0209999C000012200019N0400001N1+00051-00791100261ADDAY101061AY201061GF103991021011012501031001MA1999999093051MD1110111+9999MW1031REMSYN088AAXX  19121 01245 11682 30000 10005 21079 39305 40026 51011 6//// 70300 82130 333 4////;
0236012450999992008121918004+62600+009667FM-12+060699999V0209999C000012200019N0400001N1-00131-00811100131ADDAA112000091AY101061AY201061GA1001+999999999GF100991001001999999001001KA1120M+00211MA1999999092881MD1810161+9999MW1011REMSYN088AAXX  19181 01245 11982 00000 11013 21081 39288 40013 58016 60002 70100 333 10021 4////;EQDQ01  00002PRCP12
0282012450999992008122006004+62600+009667FM-12+060699999V0202301N001012200019N0300001N1-00031-00651098541ADDAA112000091AA224000091AJ100429199999999AY101061AY201061GF104991041051012501001001IA1239KA1120N-00171MA1999999091431MD1610261+9999MW1031REMSYN100AAXX  20061 01245 11680 42301 11003 21065 39143 49854 56026 60002 70300 84500 333 21017 47042 70000;EQDQ01  00002PRCP24Q02  00002PRCP12
0171012450999992008122009004+62600+009667FM-12+060699999V0202301N001010300019N0300001N1+00011-00651098601ADDAY121031AY201031GF106991041051012501031001MA1999999091501MD1310051+9999MW1031REMSYN082AAXX  20091 01245 41680 62301 10001 21065 39150 49860 53005 70320 84530 333 4////;
0177012450999992008122012004+62600+009667FM-12+060699999V0209999C000010075019N0150001N1-00081-00551098911ADDAY171061AY221061GF107991071051008001999999MA1999999091771MD1310301+9999MW1711REMSYN088AAXX  20121 01245 11565 70000 11008 21055 39177 49891 53030 6//// 77172 875// 333 4////;
0242012450999992008122018004+62600+009667FM-12+060699999V0203001N001010042019N0100001N1-00041-00261099952ADDAA112000891AY171061AY221061GF107991071051004501999999KA1120M+00141MA1999999092732MD1110391+9999MW1711REMSYN094AAXX  20181 01245 11460 73001 11004 21026 39273 49995 51039 69982 77172 875// 333 10014 4////;EQDQ01+092733APOSP Q02+099953APOSLP
0247012450999992008122106004+62600+009667FM-12+060699999V0200301N001010042019N0100001N1-00311-00501100981ADDAA112004191AA224004891AJ100509199999999AY171061AY221061GF106991061051004501001001IA1239KA1120N-00311MA1999999093621MD1810031+9999MW1011REMSYN100AAXX  21061 01245 11460 60301 11031 21050 39362 40098 58003 60042 70172 86500 333 21031 47050 70048;
0171012450999992008122109004+62600+009667FM-12+060699999V0203601N001010120019N0300001N1-00401-01031100891ADDAY121031AY221031GF107991071051012501999999MA1999999093521MD1510111+9999MW1031REMSYN082AAXX  21091 01245 41680 73601 11040 21103 39352 40089 55011 70322 875// 333 4////;
0177012450999992008122112004+62600+009667FM-12+060699999V0202301N005010120019N0300001N1-00111-00941099981ADDAY121061AY221061GF106991051051012501001081MA1999999092751MD1810781+9999MW1011REMSYN088AAXX  21121 01245 11680 62305 11011 21094 39275 49998 58078 6//// 70122 85508 333 4////;
0268012450999992008122118004+62600+009667FM-12+060699999V0203201N001012200019N0300001N1-00121-00461099032ADDAA112000091AY171061AY211061GA1001+999999999GF100991001001999999001001KA1120M+00131MA1999999091872MD1810321+9999MW1011REMSYN088AAXX  21181 01245 11980 03201 11012 21046 39187 49903 58032 69912 70171 333 10013 4////;EQDQ01+091873APOSP Q02+099033APOSLPQ03  00002PRCP12
0266012450999992008122206004+62600+009667FM-12+060699999V0203201N007010021019N0100001N1+00141-00171099411ADDAA112009992AA224009792AJ100559199999999AY171061AY211061GF107991071001002501021999IA1239KA1120N-00121MA1999999092281MD1310752+9999MW1681REMSYN100AAXX  22061 01245 11360 73207 10014 21017 39228 49941 53075 60102 76871 8702/ 333 21012 47055 70097;EQDQ01+000752APC3  
0190012450999992008122209004+62600+009667FM-12+060699999V0203201N010010006019N0010001N1-00141-00291100672ADDAY181031AY271031GF107991071031000751999999MA1999999093381MD1311151+9999MW1861REMSYN082AAXX  22091 01245 41110 73210 11014 21029 39338 40067 53115 78687 873// 333 4////;EQDQ01+100673APOSLP
0177012450999992008122212004+62600+009667FM-12+060699999V0203001N005010012019N0010001N1-00081-00391101221ADDAY181061AY271061GF107991071031001501999999MA1999999093911MD1310521+9999MW1861REMSYN088AAXX  22121 01245 11210 73005 11008 21039 39391 40122 53052 6//// 78687 873// 333 4////;
0207012450999992008122218004+62600+009667FM-12+060699999V0202301N001010042019N0100001N1-00231-00541101971ADDAA112004191AY181061AY221061GF106991061021004501001001KA1120M+00321MA1999999094571MD1310321+9999MW1011REMSYN094AAXX  22181 01245 11460 62301 11023 21054 39457 40197 53032 60042 70182 86200 333 10032 4////;
0247012450999992008122306004+62600+009667FM-12+060699999V0209999C000010042019N0200001N1-00321-00471102771ADDAA112000891AA224004691AJ100599199999999AY171061AY221061GF107991071051004501999999IA1239KA1120N-00361MA1999999095281MD1010041+9999MW1701REMSYN100AAXX  23061 01245 11470 70000 11032 21047 39528 40277 50004 69982 77072 875// 333 21036 47059 70045;
0171012450999992008122309004+62600+009667FM-12+060699999V0209999C000010150019N0300001N1-00381-00531102831ADDAY171031AY221031GF107991071001017501051999MA1999999095321MD1210041+9999MW1011REMSYN082AAXX  23091 01245 41780 70000 11038 21053 39532 40283 52004 70172 8705/ 333 4////;
0177012450999992008122312004+62600+009667FM-12+060699999V0209999C000010150019N0300001N1-00201-00881102691ADDAY171061AY221061GF108991071051017501051001MA1999999095231MD1810091+9999MW1031REMSYN088AAXX  23121 01245 11780 80000 11020 21088 39523 40269 58009 6//// 70372 87550 333 4////;
0207012450999992008122318004+62600+009667FM-12+060699999V0209999C000010120019N0300001N1-00261-00571102281ADDAA112000021AY121061AY221061GF106991061051012501001001KA1120M-00131MA1999999094851MD1710201+9999MW1021REMSYN094AAXX  23181 01245 11680 60000 11026 21057 39485 40228 57020 69912 70222 86500 333 11013 4////;
0247012450999992008122406004+62600+009667FM-12+060699999V0203001N001010075019N0200001N1+00011-00551102381ADDAA112000891AA224000891AJ100589199999999AY181061AY221061GF106991061021008001001001IA1239KA1120N-00301MA1999999095011MD1310091+9999MW1851REMSYN100AAXX  24061 01245 11570 63001 10001 21055 39501 40238 53009 69972 78582 86200 333 21030 47058 70008;
0171012450999992008122409004+62600+009667FM-12+060699999V0203201N003010075019N0200001N1+00061-00351102591ADDAY181031AY221031GF106991061021008001001001MA1999999095221MD1310221+9999MW1011REMSYN082AAXX  24091 01245 41570 63203 10006 21035 39522 40259 53022 70182 86200 333 4////;
0177012450999992008122412004+62600+009667FM-12+060699999V0202301N001010075019N0200001N1+00001-00301102831ADDAY181061AY221061GF106991061021008001001001MA1999999095421MD1310191+9999MW1011REMSYN088AAXX  24121 01245 11570 62301 10000 21030 39542 40283 53019 6//// 70182 86200 333 4////;
0207012450999992008122418004+62600+009667FM-12+060699999V0203401N001010075019N0200001N1-00011-00471103231ADDAA112000391AY181061AY221061GF106991061021008001001001KA1120M+00191MA1999999095781MD1010151+9999MW1011REMSYN094AAXX  24181 01245 11570 63401 11001 21047 39578 40323 50015 69932 70182 86200 333 10019 4////;
0266012450999992008122506004+62600+009667FM-12+060699999V0202701N001010075019N0300001N1+00001-00571103551ADDAA112000091AA224000391AJ100589199999999AY121061AY221061GF106991051051008001031001IA1239KA1120N-00251MA1999999096081MD1510021+9999MW1021REMSYN100AAXX  25061 01245 11580 62701 10000 21057 39608 40355 55002 60002 70222 85530 333 21025 47058 70003;EQDQ01  00002PRCP12
0171012450999992008122509004+62600+009667FM-12+060699999V0209999C000010150019N0300001N1-00201-00691103821ADDAY121031AY221031GF107991071001017501031999MA1999999096281MD1310201+9999MW1021REMSYN082AAXX  25091 01245 41780 70000 11020 21069 39628 40382 53020 70222 8703/ 333 4////;
0177012450999992008122512004+62600+009667FM-12+060699999V0209999C000012200019N0500001N1-00301-00681103931ADDAY121061AY211061GF102991011001022501031011MA1999999096371MD1010111+9999MW1011REMSYN088AAXX  25121 01245 11884 20000 11030 21068 39637 40393 50011 6//// 70121 81031 333 4////;
0226012450999992008122518004+62600+009667FM-12+060699999V0209999C000012200019N0300001N1-00231-00721104071ADDAA112000091AY101061AY201061GF103991031001022501031001KA1120M+00231MA1999999096521MD1310101+9999MW1031REMSYN094AAXX  25181 01245 11880 30000 11023 21072 39652 40407 53010 60002 70300 83030 333 10023 4////;EQDQ01  00002PRCP12
0282012450999992008122606004+62600+009667FM-12+060699999V0203201N001012200019N0300001N1-00081-00571104131ADDAA112000091AA224000091AJ100589199999999AY101061AY201061GF104991041011012501001001IA1239KA1120N-00241MA1999999096611MD1010011+9999MW1021REMSYN100AAXX  26061 01245 11680 43201 11008 21057 39661 40413 50001 60002 70200 84100 333 21024 47058 70000;EQDQ01  00002PRCP24Q02  00002PRCP12
0171012450999992008122609004+62600+009667FM-12+060699999V0202701N001010750019N0300001N1+00021-00601104151ADDAY111031AY201031GF105991041011012501001051MA1999999096661MD1310041+9999MW1031REMSYN082AAXX  26091 01245 41680 52701 10002 21060 39666 40415 53004 70310 84105 333 4////;
0177012450999992008122612004+62600+009667FM-12+060699999V0202101N001010750019N0300001N1-00021-00591104131ADDAY121061AY201061GF106991021011012501001051MA1999999096621MD1810011+9999MW1021REMSYN088AAXX  26121 01245 11680 62101 11002 21059 39662 40413 58001 6//// 70220 82105 333 4////;
0226012450999992008122618004+62600+009667FM-12+060699999V0203201N001012200019N0300001N1+00201-00431104031ADDAA112000091AY121061AY201061GF103991031011012501001001KA1120M+00211MA1999999096581MD1710021+9999MW1011REMSYN094AAXX  26181 01245 11680 33201 10020 21043 39658 40403 57002 60002 70120 83100 333 10021 4////;EQDQ01  00002PRCP12
0247012450999992008122706004+62600+009667FM-12+060699999V0200301N001010075019N0200001N1+00031-00081104051ADDAA112000391AA224000391AJ100569199999999AY171061AY221061GF108991081031008001999999IA1239KA1120N+00011MA1999999096571MD1410001+9999MW1711REMSYN100AAXX  27061 01245 11570 80301 10003 21008 39657 40405 54000 69932 77172 883// 333 20001 47056 70003;
0171012450999992008122709004+62600+009667FM-12+060699999V0202701N001010042019N0200001N1+00081-00031104151ADDAY171031AY221031GF108991081031004501999999MA1999999096671MD1310111+9999MW1021REMSYN082AAXX  27091 01245 41470 82701 10008 21003 39667 40415 53011 70272 883// 333 4////;
0177012450999992008122712004+62600+009667FM-12+060699999V0203601N001010042019N0200001N1+00051-00081104201ADDAY171061AY221061GF107991071031004501001001MA1999999096711MD1210041+9999MW1711REMSYN088AAXX  27121 01245 11470 73601 10005 21008 39671 40420 52004 6//// 77172 87300 333 4////;
0207012450999992008122718004+62600+009667FM-12+060699999V0203301N001012200019N0300001N1-00331-00621104311ADDAA112000391AY171061AY211061GF103991031011012501001001KA1120M+00231MA1999999096711MD1810021+9999MW1011REMSYN094AAXX  27181 01245 11680 33301 11033 21062 39671 40431 58002 69932 70171 83100 333 10023 4////;
0266012450999992008122806004+62600+009667FM-12+060699999V0203201N001010075019N0200001N1-00561-00921104361ADDAA112000091AA224000391AJ100569199999999AY121061AY221061GF106991061051008001001001IA1239KA1120N-00561MA1999999096701MD1510021+9999MW1021REMSYN100AAXX  28061 01245 11570 63201 11056 21092 39670 40436 55002 60002 70222 86500 333 21056 47056 70003;EQDQ01  00002PRCP12
0171012450999992008122809004+62600+009667FM-12+060699999V0203601N001012200019N0400001N1-00891-01261104431ADDAY121031AY201031GF102991021001022501031001MA1999999096671MD1510041+9999MW1011REMSYN082AAXX  28091 01245 41882 23601 11089 21126 39667 40443 55004 70120 82030 333 4////;
0177012450999992008122812004+62600+009667FM-12+060699999V0209999C000012200019N0400001N1-01031-01281104391ADDAY121061AY201061GF101991011011008001001001MA1999999096581MD1710091+9999MW1011REMSYN088AAXX  28121 01245 11582 10000 11103 21128 39658 40439 57009 6//// 70120 81100 333 4////;
0236012450999992008122818004+62600+009667FM-12+060699999V0209999C000012200019N0400001N1-01221-01371104351ADDAA112000091AY101061AY201061GA1001+999999999GF100991001001999999001001KA1120M-00371MA1999999096501MD1510021+9999MW1021REMSYN088AAXX  28181 01245 11982 00000 11122 21137 39650 40435 55002 60002 70200 333 11037 4////;EQDQ01  00002PRCP12
0292012450999992008122906004+62600+009667FM-12+060699999V0209999C000012200019N0400001N1-01181-01721104151ADDAA112000091AA224000091AJ100569199999999AY101061AY201061GA1001+999999999GF100991001001999999001001IA1239KA1120N-01281MA1999999096321MD1710051+9999MW1021REMSYN094AAXX  29061 01245 11982 00000 11118 21172 39632 40415 57005 60002 70200 333 21128 47056 70000;EQDQ01  00002PRCP24Q02  00002PRCP12
0190012450999992008122909004+62600+009667FM-12+060699999V0202801N001012200019N0400001N1-01121-01471104081ADDAY101031AY201031GF102991999011012501001001MA1999999096271MD1810041+9999MW1031REMSYN082AAXX  29091 01245 41682 22801 11112 21147 39627 40408 58004 70300 81100 333 4////;EQDQ01+000012SCOTLC
0177012450999992008122912004+62600+009667FM-12+060699999V0201401N001012200019N0400001N1-00881-01471103951ADDAY101061AY201061GF103991031011012501001001MA1999999096221MD1810051+9999MW1031REMSYN088AAXX  29121 01245 11682 31401 11088 21147 39622 40395 58005 6//// 70300 83100 333 4////;
0226012450999992008122918004+62600+009667FM-12+060699999V0203201N001010120019N0300001N1-00721-01021103701ADDAA112000091AY121061AY201061GF105991051011012501001001KA1120M-00171MA1999999096031MD1710091+9999MW1031REMSYN094AAXX  29181 01245 11680 53201 11072 21102 39603 40370 57009 60002 70320 85100 333 11017 4////;EQDQ01  00002PRCP12
0282012450999992008123006004+62600+009667FM-12+060699999V0200901N001010120019N0300001N1-00501-01071103371ADDAA112000091AA224000091AJ100569199999999AY121061AY221061GF106991061011012501001001IA1239KA1120N-00701MA1999999095781MD1710081+9999MW1031REMSYN100AAXX  30061 01245 11680 60901 11050 21107 39578 40337 57008 60002 70322 86100 333 21070 47056 70000;EQDQ01  00002PRCP24Q02  00002PRCP12
0171012450999992008123009004+62600+009667FM-12+060699999V0202401N003010120019N0300001N1-00581-01091103371ADDAY121031AY221031GF107991071051012501999999MA1999999095771MD1810031+9999MW1031REMSYN082AAXX  30091 01245 41680 72403 11058 21109 39577 40337 58003 70322 875// 333 4////;
0177012450999992008123012004+62600+009667FM-12+060699999V0202301N001012200019N0400001N1-00441-01051103161ADDAY121061AY201061GF104991041051012501001001MA1999999095621MD1810151+9999MW1011REMSYN088AAXX  30121 01245 11682 42301 11044 21105 39562 40316 58015 6//// 70120 84500 333 4////;
0226012450999992008123018004+62600+009667FM-12+060699999V0202701N001012200019N0300001N1-00181-00761102751ADDAA112000091AY101061AY201061GF104991041051012501001001KA1120M+00051MA1999999095301MD1810171+9999MW1021REMSYN094AAXX  30181 01245 11680 42701 11018 21076 39530 40275 58017 60002 70200 84500 333 10005 4////;EQDQ01  00002PRCP12
0282012450999992008123106004+62600+009667FM-12+060699999V0202401N003010120019N0300001N1+00131-00451101931ADDAA112000091AA224000091AJ100569199999999AY121061AY221061GF107991071051012501999999IA1239KA1120N-00261MA1999999094621MD1710251+9999MW1031REMSYN100AAXX  31061 01245 11680 72403 10013 21045 39462 40193 57025 60002 70322 875// 333 21026 47056 70000;EQDQ01  00002PRCP24Q02  00002PRCP12
0171012450999992008123109004+62600+009667FM-12+060699999V0203201N007010021019N0100001N1+00021-00421101961ADDAY171031AY221031GF108991081001002501021999MA1999999094621MD1510011+9999MW1711REMSYN082AAXX  31091 01245 41360 83207 10002 21042 39462 40196 55001 77172 8802/ 333 4////;
0177012450999992008123112004+62600+009667FM-12+060699999V0202401N003010021019N0100001N1-00181-00351102121ADDAY171061AY221061GF108991081001002501021999MA1999999094721MD1110101+9999MW1711REMSYN088AAXX  31121 01245 11360 82403 11018 21035 39472 40212 51010 6//// 77172 8802/ 333 4////;
0207012450999992008123118004+62600+009667FM-12+060699999V0202701N003010021019N0100001N1-00371-00721102351ADDAA112002091AY171061AY221061GF108991081001002501021999KA1120M+00171MA1999999094871MD1310091+9999MW1711REMSYN094AAXX  31181 01245 11360 82703 11037 21072 39487 40235 53009 60022 77172 8802/ 333 10017 4////;
